"Longitude (x)","Latitude (y)","Station Name","Climate ID","Date/Time (LST)","Year","Month","Day","Time (LST)","Temp (°C)","Temp Flag","Dew Point Temp (°C)","Dew Point Temp Flag","Rel Hum (%)","Rel Hum Flag","Precip. Amount (mm)","Precip. Amount Flag","Wind Dir (10s deg)","Wind Dir Flag","Wind Spd (km/h)","Wind Spd Flag","Visibility (km)","Visibility Flag","Stn Press (kPa)","Stn Press Flag","Hmdx","Hmdx Flag","Wind Chill","Wind Chill Flag","Weather"
"-79.63","43.68","TORONTO INTL A","6158731","2022-02-01 00:00","2022","02","01","00:00","-3.1","","-10.2","","58","","","","13","","9","","24.1","","100.55","","","","-7","","NA"
"-79.63","43.68","TORONTO INTL A","6158731","2022-02-01 01:00","2022","02","01","01:00","-2.5","","-9.3","","60","","","","12","","14","","24.1","","100.46","","","","-7","","Clear"
"-79.63","43.68","TORONTO INTL A","6158731","2022-02-01 02:00","2022","02","01","02:00","-2.9","","-8.5","","65","","","","13","","9","","24.1","","100.51","","","","-6","","NA"
"-79.63","43.68","TORONTO INTL A","6158731","2022-02-01 03:00","2022","02","01","03:00","-3.4","","-8.4","","68","","","","15","","7","","24.1","","100.49","","","","-6","","NA"
"-79.63","43.68","TORONTO INTL A","6158731","2022-02-01 04:00","2022","02","01","04:00","-6.3","","-11.0","","69","","","","36","","3","","24.1","","100.49","","","","-8","","Mainly Clear"
"-79.63","43.68","TORONTO INTL A","6158731","2022-02-01 05:00","2022","02","01","05:00","-4.8","","-8.7","","74","","","","12","","7","","24.1","","100.41","","","","-8","","NA"
"-79.63","43.68","TORONTO INTL A","6158731","2022-02-01 06:00","2022","02","01","06:00","-6.0","","-8.5","","82","","","","14","","7","","24.1","","100.40","","","","-9","","NA"
"-79.63","43.68","TORONTO INTL A","6158731","2022-02-01 07:00","2022","02","01","07:00","-4.4","","-8.2","","74","","","","17","","7","","24.1","","100.40","","","","-8","","Mostly Cloudy"
"-79.63","43.68","TORONTO INTL A","6158731","2022-02-01 08:00","2022","02","01","08:00","-4.5","","-8.5","","74","","","","15","","8","","24.1","","100.41","","","","-8","","NA"
"-79.63","43.68","TORONTO INTL A","6158731","2022-02-01 09:00","2022","02","01","09:00","-3.2","","-7.6","","72","","","","15","","14","","24.1","","100.32","","","","-8","","NA"
"-79.63","43.68","TORONTO INTL A","6158731","2022-02-01 10:00","2022","02","01","10:00","-1.8","","-7.1","","67","","","","17","","17","","19.3","","100.31","","","","-7","","Mostly Cloudy"
"-79.63","43.68","TORONTO INTL A","6158731","2022-02-01 11:00","2022","02","01","11:00","-1.3","","-6.9","","66","","","","15","","22","","24.1","","100.21","","","","-7","","NA"
"-79.63","43.68","TORONTO INTL A","6158731","2022-02-01 12:00","2022","02","01","12:00","-0.5","","-6.6","","63","","","","15","","22","","24.1","","100.09","","","","-6","","NA"
"-79.63","43.68","TORONTO INTL A","6158731","2022-02-01 13:00","2022","02","01","13:00","0.4","","-6.3","","61","","","","15","","27","","24.1","","100.02","","","","","","Mostly Cloudy"
"-79.63","43.68","TORONTO INTL A","6158731","2022-02-01 14:00","2022","02","01","14:00","1.7","","-5.5","","59","","","","15","","15","","24.1","","99.99","","","","","","NA"
"-79.63","43.68","TORONTO INTL A","6158731","2022-02-01 15:00","2022","02","01","15:00","2.1","","-5.5","","57","","","","14","","17","","24.1","","99.95","","","","","","NA"
"-79.63","43.68","TORONTO INTL A","6158731","2022-02-01 16:00","2022","02","01","16:00","2.3","","-5.9","","55","","","","15","","16","","24.1","","99.89","","","","","","Cloudy"
"-79.63","43.68","TORONTO INTL A","6158731","2022-02-01 17:00","2022","02","01","17:00","2.0","","-5.1","","59","","","","13","","10","","24.1","","99.86","","","","","","NA"
"-79.63","43.68","TORONTO INTL A","6158731","2022-02-01 18:00","2022","02","01","18:00","1.8","","-4.1","","65","","","","12","","13","","24.1","","99.81","","","","","","NA"
"-79.63","43.68","TORONTO INTL A","6158731","2022-02-01 19:00","2022","02","01","19:00","2.6","","-3.2","","66","","","","14","","12","","24.1","","99.80","","","","","","Mostly Cloudy"
"-79.63","43.68","TORONTO INTL A","6158731","2022-02-01 20:00","2022","02","01","20:00","2.9","","-3.5","","63","","","","16","","10","","24.1","","99.75","","","","","","NA"
"-79.63","43.68","TORONTO INTL A","6158731","2022-02-01 21:00","2022","02","01","21:00","3.3","","-3.8","","60","","","","17","","14","","24.1","","99.74","","","","","","NA"
"-79.63","43.68","TORONTO INTL A","6158731","2022-02-01 22:00","2022","02","01","22:00","4.5","","-3.8","","55","","","","20","","18","","22.5","","99.76","","","","","","Mostly Cloudy"
"-79.63","43.68","TORONTO INTL A","6158731","2022-02-01 23:00","2022","02","01","23:00","4.6","","-3.8","","55","","","","20","","23","","24.1","","99.75","","","","","","Rain Showers"
"-79.63","43.68","TORONTO INTL A","6158731","2022-02-02 00:00","2022","02","02","00:00","4.3","","-3.6","","56","","","","20","","14","","24.1","","99.78","","","","","","NA"
"-79.63","43.68","TORONTO INTL A","6158731","2022-02-02 01:00","2022","02","02","01:00","4.4","","-3.6","","56","","","","20","","18","","24.1","","99.78","","","","","","Cloudy"
"-79.63","43.68","TORONTO INTL A","6158731","2022-02-02 02:00","2022","02","02","02:00","4.2","","-3.3","","58","","","","20","","11","","24.1","","99.82","","","","","","Rain"
"-79.63","43.68","TORONTO INTL A","6158731","2022-02-02 03:00","2022","02","02","03:00","4.1","","-3.2","","59","","","","18","","9","","24.1","","99.85","","","","","","NA"
"-79.63","43.68","TORONTO INTL A","6158731","2022-02-02 04:00","2022","02","02","04:00","3.8","","-2.8","","62","","","","18","","14","","24.1","","99.83","","","","","","Rain"
"-79.63","43.68","TORONTO INTL A","6158731","2022-02-02 05:00","2022","02","02","05:00","3.5","","-2.5","","64","","","","18","","9","","24.1","","99.89","","","","","","Rain"
"-79.63","43.68","TORONTO INTL A","6158731","2022-02-02 06:00","2022","02","02","06:00","3.0","","-2.2","","69","","","","13","","10","","24.1","","99.79","","","","","","Rain"
"-79.63","43.68","TORONTO INTL A","6158731","2022-02-02 07:00","2022","02","02","07:00","3.0","","-1.6","","72","","","","15","","7","","24.1","","99.90","","","","","","Cloudy"
"-79.63","43.68","TORONTO INTL A","6158731","2022-02-02 08:00","2022","02","02","08:00","2.8","","-1.7","","72","","","","15","","6","","24.1","","99.95","","","","","","NA"
"-79.63","43.68","TORONTO INTL A","6158731","2022-02-02 09:00","2022","02","02","09:00","3.2","","-1.8","","70","","","","15","","5","","24.1","","99.99","","","","","","NA"
"-79.63","43.68","TORONTO INTL A","6158731","2022-02-02 10:00","2022","02","02","10:00","3.8","","-2.6","","63","","","","17","","8","","24.1","","99.96","","","","","","Cloudy"
"-79.63","43.68","TORONTO INTL A","6158731","2022-02-02 11:00","2022","02","02","11:00","3.9","","-2.1","","65","","","","17","","6","","24.1","","99.94","","","","","","Rain"
"-79.63","43.68","TORONTO INTL A","6158731","2022-02-02 12:00","2022","02","02","12:00","3.2","","-1.0","","74","","","","19","","8","","9.7","","99.98","","","","","","Rain,Ice Pellets,Fog"
"-79.63","43.68","TORONTO INTL A","6158731","2022-02-02 13:00","2022","02","02","13:00","1.5","","0.4","","92","","","","24","","8","","6.4","","99.95","","","","","","Rain,Fog"
"-79.63","43.68","TORONTO INTL A","6158731","2022-02-02 14:00","2022","02","02","14:00","1.8","","1.4","","97","","","","11","","6","","6.4","","99.84","","","","","","Rain,Fog"
"-79.63","43.68","TORONTO INTL A","6158731","2022-02-02 15:00","2022","02","02","15:00","1.9","","1.9","","99","","","","13","","5","","4.8","","99.82","","","","","","Rain,Fog"
"-79.63","43.68","TORONTO INTL A","6158731","2022-02-02 16:00","2022","02","02","16:00","2.0","","2.0","","100","","","","14","","5","","4.8","","99.82","","","","","","Rain,Fog"
"-79.63","43.68","TORONTO INTL A","6158731","2022-02-02 17:00","2022","02","02","17:00","1.3","","1.3","","100","","","","26","","10","","4.8","","99.86","","","","","","Rain,Fog"
"-79.63","43.68","TORONTO INTL A","6158731","2022-02-02 18:00","2022","02","02","18:00","0.2","","0.2","","100","","","","34","","21","","3.2","","99.85","","","","","","Snow,Fog"
"-79.63","43.68","TORONTO INTL A","6158731","2022-02-02 19:00","2022","02","02","19:00","-1.0","","-1.0","","100","","","","36","","34","","2.0","","99.90","","","","-8","","Snow"
"-79.63","43.68","TORONTO INTL A","6158731","2022-02-02 20:00","2022","02","02","20:00","-1.8","","-2.1","","98","","","","35","","30","","2.4","","99.91","","","","-9","","Snow"
"-79.63","43.68","TORONTO INTL A","6158731","2022-02-02 21:00","2022","02","02","21:00","-2.0","","-2.8","","95","","","","36","","29","","2.4","","99.94","","","","-9","","Snow"
"-79.63","43.68","TORONTO INTL A","6158731","2022-02-02 22:00","2022","02","02","22:00","-2.4","","-3.3","","94","","","","35","","25","","1.6","","100.03","","","","-9","","Snow"
"-79.63","43.68","TORONTO INTL A","6158731","2022-02-02 23:00","2022","02","02","23:00","-2.8","","-3.5","","95","","","","35","","29","","1.2","","99.98","","","","-10","","Snow"
"-79.63","43.68","TORONTO INTL A","6158731","2022-02-03 00:00","2022","02","03","00:00","-2.8","","-3.6","","94","","","","34","","24","","1.6","","100.11","","","","-9","","Snow"
"-79.63","43.68","TORONTO INTL A","6158731","2022-02-03 01:00","2022","02","03","01:00","-3.0","","-3.9","","93","","","","35","","27","","2.4","","100.11","","","","-10","","Snow"
"-79.63","43.68","TORONTO INTL A","6158731","2022-02-03 02:00","2022","02","03","02:00","-3.0","","-4.5","","90","","","","34","","24","","2.4","","100.18","","","","-10","","Snow"
"-79.63","43.68","TORONTO INTL A","6158731","2022-02-03 03:00","2022","02","03","03:00","-3.0","","-5.2","","85","","","","34","","24","","16.1","","100.22","","","","-10","","Snow"
"-79.63","43.68","TORONTO INTL A","6158731","2022-02-03 04:00","2022","02","03","04:00","-3.4","","-6.1","","82","","","","34","","24","","24.1","","100.30","","","","-10","","Cloudy"
"-79.63","43.68","TORONTO INTL A","6158731","2022-02-03 05:00","2022","02","03","05:00","-3.7","","-6.0","","84","","","","34","","27","","24.1","","100.33","","","","-11","","NA"
"-79.63","43.68","TORONTO INTL A","6158731","2022-02-03 06:00","2022","02","03","06:00","-4.2","","-6.9","","82","","","","36","","26","","24.1","","100.43","","","","-11","","NA"
"-79.63","43.68","TORONTO INTL A","6158731","2022-02-03 07:00","2022","02","03","07:00","-4.6","","-7.2","","82","","","","35","","30","","24.1","","100.59","","","","-12","","Cloudy"
"-79.63","43.68","TORONTO INTL A","6158731","2022-02-03 08:00","2022","02","03","08:00","-4.9","","-7.4","","83","","","","36","","24","","24.1","","100.67","","","","-12","","NA"
"-79.63","43.68","TORONTO INTL A","6158731","2022-02-03 09:00","2022","02","03","09:00","-5.7","","-8.7","","80","","","","36","","32","","24.1","","100.70","","","","-14","","Blowing Snow"
"-79.63","43.68","TORONTO INTL A","6158731","2022-02-03 10:00","2022","02","03","10:00","-6.4","","-10.0","","75","","","","36","","27","","24.1","","100.79","","","","-14","","Cloudy"
"-79.63","43.68","TORONTO INTL A","6158731","2022-02-03 11:00","2022","02","03","11:00","-7.0","","-10.6","","76","","","","36","","31","","24.1","","100.80","","","","-16","","NA"
"-79.63","43.68","TORONTO INTL A","6158731","2022-02-03 12:00","2022","02","03","12:00","-7.5","","-11.2","","75","","","","34","","27","","24.1","","100.78","","","","-16","","NA"
"-79.63","43.68","TORONTO INTL A","6158731","2022-02-03 13:00","2022","02","03","13:00","-7.6","","-11.9","","72","","","","36","","23","","24.1","","100.78","","","","-15","","Cloudy"
"-79.63","43.68","TORONTO INTL A","6158731","2022-02-03 14:00","2022","02","03","14:00","-8.0","","-12.1","","73","","","","35","","28","","24.1","","100.66","","","","-17","","NA"
"-79.63","43.68","TORONTO INTL A","6158731","2022-02-03 15:00","2022","02","03","15:00","-8.0","","-12.0","","73","","","","36","","20","","24.1","","100.68","","","","-15","","NA"
"-79.63","43.68","TORONTO INTL A","6158731","2022-02-03 16:00","2022","02","03","16:00","-8.2","","-13.2","","68","","","","1","","26","","24.1","","100.73","","","","-17","","Cloudy"
"-79.63","43.68","TORONTO INTL A","6158731","2022-02-03 17:00","2022","02","03","17:00","-8.9","","-13.3","","71","","","","2","","30","","24.1","","100.75","","","","-18","","NA"
"-79.63","43.68","TORONTO INTL A","6158731","2022-02-03 18:00","2022","02","03","18:00","-9.5","","-11.8","","83","","","","1","","25","","2.4","","100.73","","","","-18","","Snow"
"-79.63","43.68","TORONTO INTL A","6158731","2022-02-03 19:00","2022","02","03","19:00","-9.5","","-11.6","","85","","","","1","","23","","1.6","","100.75","","","","-18","","Snow"
"-79.63","43.68","TORONTO INTL A","6158731","2022-02-03 20:00","2022","02","03","20:00","-9.6","","-11.9","","84","","","","1","","22","","2.4","","100.78","","","","-18","","Snow"
"-79.63","43.68","TORONTO INTL A","6158731","2022-02-03 21:00","2022","02","03","21:00","-9.9","","-12.0","","85","","","","1","","23","","2.4","","100.70","","","","-18","","Snow"
"-79.63","43.68","TORONTO INTL A","6158731","2022-02-03 22:00","2022","02","03","22:00","-10.1","","-12.4","","83","","","","1","","25","","2.0","","100.67","","","","-19","","Snow"
"-79.63","43.68","TORONTO INTL A","6158731","2022-02-03 23:00","2022","02","03","23:00","-10.1","","-12.4","","83","","","","1","","21","","2.0","","100.60","","","","-18","","Snow"
"-79.63","43.68","TORONTO INTL A","6158731","2022-02-04 00:00","2022","02","04","00:00","-10.2","","-12.5","","84","","","","1","","25","","1.6","","100.56","","","","-19","","Snow"
"-79.63","43.68","TORONTO INTL A","6158731","2022-02-04 01:00","2022","02","04","01:00","-10.5","","-12.8","","83","","","","1","","23","","2.4","","100.45","","","","-19","","Snow"
"-79.63","43.68","TORONTO INTL A","6158731","2022-02-04 02:00","2022","02","04","02:00","-10.8","","-13.3","","82","","","","1","","25","","2.8","","100.39","","","","-20","","Snow"
"-79.63","43.68","TORONTO INTL A","6158731","2022-02-04 03:00","2022","02","04","03:00","-11.0","","-13.5","","82","","","","1","","22","","3.2","","100.32","","","","-20","","Snow"
"-79.63","43.68","TORONTO INTL A","6158731","2022-02-04 04:00","2022","02","04","04:00","-11.4","","-14.5","","78","","","","1","","25","","9.7","","100.35","","","","-21","","Snow"
"-79.63","43.68","TORONTO INTL A","6158731","2022-02-04 05:00","2022","02","04","05:00","-11.8","","-15.3","","75","","","","1","","25","","24.1","","100.37","","","","-21","","NA"
"-79.63","43.68","TORONTO INTL A","6158731","2022-02-04 06:00","2022","02","04","06:00","-12.0","","-15.8","","74","","","","1","","20","","24.1","","100.35","","","","-20","","NA"
"-79.63","43.68","TORONTO INTL A","6158731","2022-02-04 07:00","2022","02","04","07:00","-12.8","","-16.5","","74","","","","36","","23","","24.1","","100.39","","","","-22","","Blowing Snow"
"-79.63","43.68","TORONTO INTL A","6158731","2022-02-04 08:00","2022","02","04","08:00","-13.2","","-17.1","","73","","","","36","","25","","24.1","","100.34","","","","-23","","Blowing Snow"
"-79.63","43.68","TORONTO INTL A","6158731","2022-02-04 09:00","2022","02","04","09:00","-13.5","","-17.4","","73","","","","35","","18","","24.1","","100.36","","","","-22","","NA"
"-79.63","43.68","TORONTO INTL A","6158731","2022-02-04 10:00","2022","02","04","10:00","-13.8","","-17.8","","72","","","","36","","23","","24.1","","100.35","","","","-23","","Mostly Cloudy"
"-79.63","43.68","TORONTO INTL A","6158731","2022-02-04 11:00","2022","02","04","11:00","-13.4","","-17.6","","71","","","","34","","20","","24.1","","100.32","","","","-22","","NA"
"-79.63","43.68","TORONTO INTL A","6158731","2022-02-04 12:00","2022","02","04","12:00","-13.1","","-17.4","","70","","","","35","","19","","24.1","","100.27","","","","-22","","NA"
"-79.63","43.68","TORONTO INTL A","6158731","2022-02-04 13:00","2022","02","04","13:00","-12.8","","-18.0","","65","","","","33","","21","","24.1","","100.19","","","","-22","","Mostly Cloudy"
"-79.63","43.68","TORONTO INTL A","6158731","2022-02-04 14:00","2022","02","04","14:00","-11.6","","-16.7","","66","","","","35","","16","","24.1","","100.12","","","","-19","","NA"
"-79.63","43.68","TORONTO INTL A","6158731","2022-02-04 15:00","2022","02","04","15:00","-11.2","","-16.6","","65","","","","36","","13","","24.1","","100.07","","","","-18","","NA"
"-79.63","43.68","TORONTO INTL A","6158731","2022-02-04 16:00","2022","02","04","16:00","-10.6","","-16.0","","65","","","","36","","13","","24.1","","100.09","","","","-17","","Mostly Cloudy"
"-79.63","43.68","TORONTO INTL A","6158731","2022-02-04 17:00","2022","02","04","17:00","-11.0","","-16.1","","66","","","","35","","11","","24.1","","100.14","","","","-17","","NA"
"-79.63","43.68","TORONTO INTL A","6158731","2022-02-04 18:00","2022","02","04","18:00","-11.4","","-15.7","","71","","","","35","","20","","24.1","","100.19","","","","-20","","NA"
"-79.63","43.68","TORONTO INTL A","6158731","2022-02-04 19:00","2022","02","04","19:00","-11.3","","-15.1","","74","","","","35","","17","","24.1","","100.23","","","","-19","","Mostly Cloudy"
"-79.63","43.68","TORONTO INTL A","6158731","2022-02-04 20:00","2022","02","04","20:00","-11.4","","-15.3","","74","","","","35","","14","","24.1","","100.26","","","","-18","","NA"
"-79.63","43.68","TORONTO INTL A","6158731","2022-02-04 21:00","2022","02","04","21:00","-12.6","","-16.2","","74","","","","32","","12","","24.1","","100.23","","","","-19","","NA"
"-79.63","43.68","TORONTO INTL A","6158731","2022-02-04 22:00","2022","02","04","22:00","-12.3","","-16.1","","74","","","","31","","14","","24.1","","100.20","","","","-19","","Mostly Cloudy"
"-79.63","43.68","TORONTO INTL A","6158731","2022-02-04 23:00","2022","02","04","23:00","-12.1","","-16.3","","71","","","","33","","18","","24.1","","100.18","","","","-20","","NA"
"-79.63","43.68","TORONTO INTL A","6158731","2022-02-05 00:00","2022","02","05","00:00","-12.8","","-16.6","","73","","","","35","","12","","24.1","","100.16","","","","-19","","NA"
"-79.63","43.68","TORONTO INTL A","6158731","2022-02-05 01:00","2022","02","05","01:00","-13.3","","-17.0","","74","","","","33","","16","","24.1","","100.20","","","","-21","","Cloudy"
"-79.63","43.68","TORONTO INTL A","6158731","2022-02-05 02:00","2022","02","05","02:00","-13.8","","-17.9","","72","","","","34","","18","","24.1","","100.24","","","","-22","","NA"
"-79.63","43.68","TORONTO INTL A","6158731","2022-02-05 03:00","2022","02","05","03:00","-13.6","","-18.3","","68","","","","33","","18","","24.1","","100.29","","","","-22","","NA"
"-79.63","43.68","TORONTO INTL A","6158731","2022-02-05 04:00","2022","02","05","04:00","-13.5","","-19.1","","63","","","","34","","21","","24.1","","100.30","","","","-22","","Cloudy"
"-79.63","43.68","TORONTO INTL A","6158731","2022-02-05 05:00","2022","02","05","05:00","-13.3","","-19.3","","61","","","","34","","19","","24.1","","100.38","","","","-22","","Snow"
"-79.63","43.68","TORONTO INTL A","6158731","2022-02-05 06:00","2022","02","05","06:00","-13.8","","-20.9","","56","","","","35","","21","","24.1","","100.49","","","","-23","","NA"
"-79.63","43.68","TORONTO INTL A","6158731","2022-02-05 07:00","2022","02","05","07:00","-14.5","","-20.7","","60","","","","33","","19","","24.1","","100.64","","","","-23","","Mainly Clear"
"-79.63","43.68","TORONTO INTL A","6158731","2022-02-05 08:00","2022","02","05","08:00","-15.1","","-21.2","","60","","","","32","","18","","24.1","","100.76","","","","-24","","NA"
"-79.63","43.68","TORONTO INTL A","6158731","2022-02-05 09:00","2022","02","05","09:00","-14.1","","-20.4","","59","","","","33","","16","","24.1","","100.89","","","","-22","","NA"
"-79.63","43.68","TORONTO INTL A","6158731","2022-02-05 10:00","2022","02","05","10:00","-13.2","","-21.2","","52","","","","35","","20","","24.1","","100.96","","","","-22","","Clear"
"-79.63","43.68","TORONTO INTL A","6158731","2022-02-05 11:00","2022","02","05","11:00","-12.7","","-20.9","","51","","","","1","","11","","24.1","","101.04","","","","-19","","NA"
"-79.63","43.68","TORONTO INTL A","6158731","2022-02-05 12:00","2022","02","05","12:00","-11.7","","-19.6","","52","","","","34","","7","","24.1","","101.09","","","","-16","","NA"
"-79.63","43.68","TORONTO INTL A","6158731","2022-02-05 13:00","2022","02","05","13:00","-10.5","","-18.0","","55","","","","36","","1","","24.1","","101.05","","","","-11","","Mainly Clear"
"-79.63","43.68","TORONTO INTL A","6158731","2022-02-05 14:00","2022","02","05","14:00","-9.8","","-17.8","","53","","","","3","","4","","24.1","","101.05","","","","-12","","NA"
"-79.63","43.68","TORONTO INTL A","6158731","2022-02-05 15:00","2022","02","05","15:00","-8.8","","-17.7","","49","","","","36","","2","","24.1","","101.06","","","","-10","","NA"
"-79.63","43.68","TORONTO INTL A","6158731","2022-02-05 16:00","2022","02","05","16:00","-8.8","","-15.9","","57","","","","16","","15","","24.1","","101.09","","","","-15","","Mainly Clear"
"-79.63","43.68","TORONTO INTL A","6158731","2022-02-05 17:00","2022","02","05","17:00","-8.9","","-15.9","","57","","","","15","","10","","24.1","","101.12","","","","-14","","NA"
"-79.63","43.68","TORONTO INTL A","6158731","2022-02-05 18:00","2022","02","05","18:00","-9.0","","-15.9","","58","","","","15","","7","","24.1","","101.12","","","","-13","","NA"
"-79.63","43.68","TORONTO INTL A","6158731","2022-02-05 19:00","2022","02","05","19:00","-9.2","","-16.0","","58","","","","17","","7","","24.1","","101.11","","","","-13","","Clear"
"-79.63","43.68","TORONTO INTL A","6158731","2022-02-05 20:00","2022","02","05","20:00","-9.0","","-16.4","","55","","","","19","","10","","24.1","","101.12","","","","-14","","NA"
"-79.63","43.68","TORONTO INTL A","6158731","2022-02-05 21:00","2022","02","05","21:00","-9.3","","-16.3","","57","","","","19","","9","","24.1","","101.07","","","","-14","","NA"
"-79.63","43.68","TORONTO INTL A","6158731","2022-02-05 22:00","2022","02","05","22:00","-9.5","","-16.1","","59","","","","18","","5","","24.1","","101.07","","","","-12","","Clear"
"-79.63","43.68","TORONTO INTL A","6158731","2022-02-05 23:00","2022","02","05","23:00","-9.1","","-16.8","","54","","","","15","","5","","24.1","","101.03","","","","-12","","NA"
"-79.63","43.68","TORONTO INTL A","6158731","2022-02-06 00:00","2022","02","06","00:00","-8.3","","-15.1","","59","","","","16","","10","","24.1","","100.98","","","","-13","","NA"
"-79.63","43.68","TORONTO INTL A","6158731","2022-02-06 01:00","2022","02","06","01:00","-7.2","","-12.4","","67","","","","16","","15","","24.1","","100.95","","","","-13","","Mostly Cloudy"
"-79.63","43.68","TORONTO INTL A","6158731","2022-02-06 02:00","2022","02","06","02:00","-6.9","","-11.7","","69","","","","16","","18","","24.1","","100.89","","","","-14","","NA"
"-79.63","43.68","TORONTO INTL A","6158731","2022-02-06 03:00","2022","02","06","03:00","-6.5","","-10.8","","71","","","","17","","20","","24.1","","100.77","","","","-13","","NA"
"-79.63","43.68","TORONTO INTL A","6158731","2022-02-06 04:00","2022","02","06","04:00","-6.2","","-10.4","","73","","","","18","","18","","24.1","","100.72","","","","-13","","Mostly Cloudy"
"-79.63","43.68","TORONTO INTL A","6158731","2022-02-06 05:00","2022","02","06","05:00","-6.2","","-10.4","","72","","","","19","","18","","24.1","","100.67","","","","-13","","NA"
"-79.63","43.68","TORONTO INTL A","6158731","2022-02-06 06:00","2022","02","06","06:00","-6.2","","-10.8","","70","","","","19","","23","","24.1","","100.62","","","","-14","","NA"
"-79.63","43.68","TORONTO INTL A","6158731","2022-02-06 07:00","2022","02","06","07:00","-6.1","","-10.7","","70","","","","19","","23","","24.1","","100.56","","","","-13","","Mostly Cloudy"
"-79.63","43.68","TORONTO INTL A","6158731","2022-02-06 08:00","2022","02","06","08:00","-6.1","","-10.7","","70","","","","19","","21","","24.1","","100.51","","","","-13","","NA"
"-79.63","43.68","TORONTO INTL A","6158731","2022-02-06 09:00","2022","02","06","09:00","-5.7","","-10.6","","69","","","","20","","25","","24.1","","100.48","","","","-13","","NA"
"-79.63","43.68","TORONTO INTL A","6158731","2022-02-06 10:00","2022","02","06","10:00","-4.7","","-10.2","","65","","","","20","","30","","24.1","","100.48","","","","-13","","Mostly Cloudy"
"-79.63","43.68","TORONTO INTL A","6158731","2022-02-06 11:00","2022","02","06","11:00","-3.5","","-10.2","","60","","","","22","","25","","24.1","","100.44","","","","-10","","NA"
"-79.63","43.68","TORONTO INTL A","6158731","2022-02-06 12:00","2022","02","06","12:00","-2.6","","-10.3","","56","","","","21","","24","","24.1","","100.37","","","","-9","","Blowing Snow"
"-79.63","43.68","TORONTO INTL A","6158731","2022-02-06 13:00","2022","02","06","13:00","-1.8","","-10.5","","52","","","","22","","33","","24.1","","100.26","","","","-9","","Blowing Snow"
"-79.63","43.68","TORONTO INTL A","6158731","2022-02-06 14:00","2022","02","06","14:00","-1.2","","-10.6","","49","","","","21","","26","","24.1","","100.21","","","","-8","","Blowing Snow"
"-79.63","43.68","TORONTO INTL A","6158731","2022-02-06 15:00","2022","02","06","15:00","-0.6","","-10.8","","46","","","","22","","28","","24.1","","100.20","","","","-7","","Blowing Snow"
"-79.63","43.68","TORONTO INTL A","6158731","2022-02-06 16:00","2022","02","06","16:00","-0.6","","-10.6","","47","","","","21","","24","","24.1","","100.18","","","","-7","","Blowing Snow"
"-79.63","43.68","TORONTO INTL A","6158731","2022-02-06 17:00","2022","02","06","17:00","-0.8","","-10.4","","49","","","","21","","15","","24.1","","100.17","","","","-5","","NA"
"-79.63","43.68","TORONTO INTL A","6158731","2022-02-06 18:00","2022","02","06","18:00","-1.1","","-11.1","","47","","","","21","","14","","24.1","","100.17","","","","-6","","NA"
"-79.63","43.68","TORONTO INTL A","6158731","2022-02-06 19:00","2022","02","06","19:00","-1.6","","-10.1","","53","","","","19","","13","","24.1","","100.19","","","","-6","","Mainly Clear"
"-79.63","43.68","TORONTO INTL A","6158731","2022-02-06 20:00","2022","02","06","20:00","-2.0","","-10.2","","54","","","","20","","9","","24.1","","100.19","","","","-5","","NA"
"-79.63","43.68","TORONTO INTL A","6158731","2022-02-06 21:00","2022","02","06","21:00","-2.0","","-10.3","","53","","","","20","","8","","24.1","","100.19","","","","-5","","NA"
"-79.63","43.68","TORONTO INTL A","6158731","2022-02-06 22:00","2022","02","06","22:00","-1.8","","-9.4","","57","","","","19","","12","","24.1","","100.19","","","","-6","","Mainly Clear"
"-79.63","43.68","TORONTO INTL A","6158731","2022-02-06 23:00","2022","02","06","23:00","-1.6","","-7.6","","64","","","","20","","14","","24.1","","100.16","","","","-6","","NA"
"-79.63","43.68","TORONTO INTL A","6158731","2022-02-07 00:00","2022","02","07","00:00","-1.9","","-6.9","","69","","","","19","","14","","24.1","","100.12","","","","-7","","NA"
"-79.63","43.68","TORONTO INTL A","6158731","2022-02-07 01:00","2022","02","07","01:00","-1.6","","-5.9","","73","","","","22","","16","","24.1","","100.12","","","","-7","","Cloudy"
"-79.63","43.68","TORONTO INTL A","6158731","2022-02-07 02:00","2022","02","07","02:00","-1.9","","-5.5","","76","","","","21","","10","","24.1","","100.05","","","","-6","","NA"
"-79.63","43.68","TORONTO INTL A","6158731","2022-02-07 03:00","2022","02","07","03:00","-2.2","","-5.5","","78","","","","23","","11","","24.1","","100.04","","","","-6","","NA"
"-79.63","43.68","TORONTO INTL A","6158731","2022-02-07 04:00","2022","02","07","04:00","-2.5","","-5.5","","80","","","","22","","14","","24.1","","99.98","","","","-7","","Cloudy"
"-79.63","43.68","TORONTO INTL A","6158731","2022-02-07 05:00","2022","02","07","05:00","-2.4","","-5.3","","80","","","","19","","9","","24.1","","99.93","","","","-6","","NA"
"-79.63","43.68","TORONTO INTL A","6158731","2022-02-07 06:00","2022","02","07","06:00","-2.6","","-5.1","","83","","","","18","","10","","24.1","","99.92","","","","-6","","NA"
"-79.63","43.68","TORONTO INTL A","6158731","2022-02-07 07:00","2022","02","07","07:00","-2.3","","-4.9","","82","","","","19","","15","","24.1","","99.89","","","","-7","","Mostly Cloudy"
"-79.63","43.68","TORONTO INTL A","6158731","2022-02-07 08:00","2022","02","07","08:00","-2.2","","-4.9","","82","","","","18","","10","","24.1","","99.91","","","","-6","","NA"
"-79.63","43.68","TORONTO INTL A","6158731","2022-02-07 09:00","2022","02","07","09:00","-1.6","","-5.0","","78","","","","18","","13","","24.1","","99.89","","","","-6","","NA"
"-79.63","43.68","TORONTO INTL A","6158731","2022-02-07 10:00","2022","02","07","10:00","-0.9","","-5.2","","73","","","","21","","18","","24.1","","99.84","","","","-6","","Mainly Clear"
"-79.63","43.68","TORONTO INTL A","6158731","2022-02-07 11:00","2022","02","07","11:00","0.3","","-5.0","","68","","","","19","","16","","24.1","","99.80","","","","","","NA"
"-79.63","43.68","TORONTO INTL A","6158731","2022-02-07 12:00","2022","02","07","12:00","1.7","","-4.7","","62","","","","22","","18","","24.1","","99.74","","","","","","NA"
"-79.63","43.68","TORONTO INTL A","6158731","2022-02-07 13:00","2022","02","07","13:00","2.3","","-4.9","","59","","","","22","","15","","24.1","","99.65","","","","","","Mainly Clear"
"-79.63","43.68","TORONTO INTL A","6158731","2022-02-07 14:00","2022","02","07","14:00","2.4","","-4.4","","61","","","","22","","13","","24.1","","99.58","","","","","","NA"
"-79.63","43.68","TORONTO INTL A","6158731","2022-02-07 15:00","2022","02","07","15:00","2.1","","-4.2","","63","","","","15","","16","","24.1","","99.55","","","","","","NA"
"-79.63","43.68","TORONTO INTL A","6158731","2022-02-07 16:00","2022","02","07","16:00","1.6","","-3.7","","68","","","","16","","14","","24.1","","99.54","","","","","","Cloudy"
"-79.63","43.68","TORONTO INTL A","6158731","2022-02-07 17:00","2022","02","07","17:00","1.7","","-3.6","","68","","","","23","","16","","24.1","","99.57","","","","","","NA"
"-79.63","43.68","TORONTO INTL A","6158731","2022-02-07 18:00","2022","02","07","18:00","0.6","","-3.5","","74","","","","26","","22","","16.1","","99.57","","","","","","NA"
"-79.63","43.68","TORONTO INTL A","6158731","2022-02-07 19:00","2022","02","07","19:00","0.1","","-4.0","","74","","","","27","","21","","24.1","","99.59","","","","","","Mostly Cloudy"
"-79.63","43.68","TORONTO INTL A","6158731","2022-02-07 20:00","2022","02","07","20:00","-0.6","","-4.1","","77","","","","27","","22","","24.1","","99.58","","","","-6","","NA"
"-79.63","43.68","TORONTO INTL A","6158731","2022-02-07 21:00","2022","02","07","21:00","-1.3","","-4.5","","79","","","","26","","19","","24.1","","99.59","","","","-7","","NA"
"-79.63","43.68","TORONTO INTL A","6158731","2022-02-07 22:00","2022","02","07","22:00","-2.2","","-4.5","","84","","","","25","","17","","16.1","","99.58","","","","-8","","Mostly Cloudy"
"-79.63","43.68","TORONTO INTL A","6158731","2022-02-07 23:00","2022","02","07","23:00","-2.9","","-4.9","","86","","","","26","","16","","24.1","","99.53","","","","-8","","NA"
"-79.63","43.68","TORONTO INTL A","6158731","2022-02-08 00:00","2022","02","08","00:00","-3.0","","-5.0","","87","","","","24","","11","","12.9","","99.50","","","","-7","","NA"
"-79.63","43.68","TORONTO INTL A","6158731","2022-02-08 01:00","2022","02","08","01:00","-2.4","","-4.5","","85","","","","15","","6","","9.7","","99.48","","","","-5","","Fog"
"-79.63","43.68","TORONTO INTL A","6158731","2022-02-08 02:00","2022","02","08","02:00","-1.8","","-3.8","","86","","","","27","","14","","9.7","","99.42","","","","-6","","Fog"
"-79.63","43.68","TORONTO INTL A","6158731","2022-02-08 03:00","2022","02","08","03:00","-1.9","","-4.3","","84","","","","28","","13","","16.1","","99.44","","","","-6","","NA"
"-79.63","43.68","TORONTO INTL A","6158731","2022-02-08 04:00","2022","02","08","04:00","-1.7","","-5.4","","76","","","","30","","21","","24.1","","99.42","","","","-8","","Cloudy"
"-79.63","43.68","TORONTO INTL A","6158731","2022-02-08 05:00","2022","02","08","05:00","-2.1","","-5.5","","77","","","","30","","14","","24.1","","99.43","","","","-7","","Snow"
"-79.63","43.68","TORONTO INTL A","6158731","2022-02-08 06:00","2022","02","08","06:00","-2.4","","-5.8","","78","","","","28","","14","","16.1","","99.47","","","","-7","","Snow"
"-79.63","43.68","TORONTO INTL A","6158731","2022-02-08 07:00","2022","02","08","07:00","-2.5","","-5.9","","78","","","","28","","15","","24.1","","99.50","","","","-7","","Cloudy"
"-79.63","43.68","TORONTO INTL A","6158731","2022-02-08 08:00","2022","02","08","08:00","-2.8","","-6.1","","78","","","","28","","16","","24.1","","99.53","","","","-8","","NA"
"-79.63","43.68","TORONTO INTL A","6158731","2022-02-08 09:00","2022","02","08","09:00","-2.6","","-6.4","","75","","","","27","","18","","24.1","","99.54","","","","-8","","NA"
"-79.63","43.68","TORONTO INTL A","6158731","2022-02-08 10:00","2022","02","08","10:00","-2.0","","-6.8","","70","","","","28","","22","","24.1","","99.53","","","","-8","","Mostly Cloudy"
"-79.63","43.68","TORONTO INTL A","6158731","2022-02-08 11:00","2022","02","08","11:00","-1.4","","-6.0","","71","","","","27","","19","","24.1","","99.53","","","","-7","","NA"
"-79.63","43.68","TORONTO INTL A","6158731","2022-02-08 12:00","2022","02","08","12:00","-1.7","","-6.9","","68","","","","29","","18","","24.1","","99.52","","","","-7","","NA"
"-79.63","43.68","TORONTO INTL A","6158731","2022-02-08 13:00","2022","02","08","13:00","-1.6","","-7.3","","65","","","","29","","21","","24.1","","99.47","","","","-7","","Mostly Cloudy"
"-79.63","43.68","TORONTO INTL A","6158731","2022-02-08 14:00","2022","02","08","14:00","-1.3","","-7.0","","65","","","","25","","34","","24.1","","99.42","","","","-9","","NA"
"-79.63","43.68","TORONTO INTL A","6158731","2022-02-08 15:00","2022","02","08","15:00","-1.2","","-7.2","","64","","","","25","","24","","24.1","","99.43","","","","-7","","NA"
"-79.63","43.68","TORONTO INTL A","6158731","2022-02-08 16:00","2022","02","08","16:00","-1.8","","-8.7","","59","","","","25","","27","","24.1","","99.45","","","","-8","","Mainly Clear"
"-79.63","43.68","TORONTO INTL A","6158731","2022-02-08 17:00","2022","02","08","17:00","-2.5","","-9.0","","62","","","","28","","20","","24.1","","99.46","","","","-8","","NA"
"-79.63","43.68","TORONTO INTL A","6158731","2022-02-08 18:00","2022","02","08","18:00","-3.8","","-10.0","","62","","","","25","","17","","24.1","","99.51","","","","-10","","NA"
"-79.63","43.68","TORONTO INTL A","6158731","2022-02-08 19:00","2022","02","08","19:00","-4.7","","-10.5","","64","","","","24","","12","","24.1","","99.52","","","","-9","","Mainly Clear"
"-79.63","43.68","TORONTO INTL A","6158731","2022-02-08 20:00","2022","02","08","20:00","-4.0","","-9.8","","64","","","","21","","11","","24.1","","99.51","","","","-8","","NA"
"-79.63","43.68","TORONTO INTL A","6158731","2022-02-08 21:00","2022","02","08","21:00","-4.8","","-9.8","","68","","","","22","","12","","24.1","","99.48","","","","-10","","NA"
"-79.63","43.68","TORONTO INTL A","6158731","2022-02-08 22:00","2022","02","08","22:00","-4.8","","-9.6","","70","","","","17","","6","","24.1","","99.40","","","","-8","","Mostly Cloudy"
"-79.63","43.68","TORONTO INTL A","6158731","2022-02-08 23:00","2022","02","08","23:00","-5.2","","-9.5","","72","","","","18","","9","","24.1","","99.34","","","","-9","","NA"
"-79.63","43.68","TORONTO INTL A","6158731","2022-02-09 00:00","2022","02","09","00:00","-5.4","","-9.5","","73","","","","16","","7","","24.1","","99.25","","","","-9","","NA"
"-79.63","43.68","TORONTO INTL A","6158731","2022-02-09 01:00","2022","02","09","01:00","-5.4","","-9.1","","76","","","","14","","7","","24.1","","99.16","","","","-9","","Clear"
"-79.63","43.68","TORONTO INTL A","6158731","2022-02-09 02:00","2022","02","09","02:00","-5.1","","-7.5","","83","","","","15","","9","","16.1","","99.07","","","","-9","","NA"
"-79.63","43.68","TORONTO INTL A","6158731","2022-02-09 03:00","2022","02","09","03:00","-3.7","","-5.5","","87","","","","13","","12","","24.1","","98.98","","","","-8","","NA"
"-79.63","43.68","TORONTO INTL A","6158731","2022-02-09 04:00","2022","02","09","04:00","-3.4","","-5.6","","85","","","","14","","12","","24.1","","98.87","","","","-8","","Mainly Clear"
"-79.63","43.68","TORONTO INTL A","6158731","2022-02-09 05:00","2022","02","09","05:00","-3.3","","-5.4","","85","","","","14","","12","","24.1","","98.79","","","","-8","","NA"
"-79.63","43.68","TORONTO INTL A","6158731","2022-02-09 06:00","2022","02","09","06:00","-3.2","","-5.2","","86","","","","14","","8","","16.1","","98.75","","","","-6","","NA"
"-79.63","43.68","TORONTO INTL A","6158731","2022-02-09 07:00","2022","02","09","07:00","-2.4","","-4.2","","87","","","","13","","11","","19.3","","98.68","","","","-6","","Mostly Cloudy"
"-79.63","43.68","TORONTO INTL A","6158731","2022-02-09 08:00","2022","02","09","08:00","-0.9","","-2.9","","86","","","","15","","8","","19.3","","98.66","","","","-4","","NA"
"-79.63","43.68","TORONTO INTL A","6158731","2022-02-09 09:00","2022","02","09","09:00","0.3","","-3.0","","78","","","","15","","8","","19.3","","98.65","","","","","","NA"
"-79.63","43.68","TORONTO INTL A","6158731","2022-02-09 10:00","2022","02","09","10:00","1.6","","-3.4","","69","","","","18","","12","","24.1","","98.59","","","","","","Mostly Cloudy"
"-79.63","43.68","TORONTO INTL A","6158731","2022-02-09 11:00","2022","02","09","11:00","4.3","","-2.5","","61","","","","21","","18","","24.1","","98.54","","","","","","NA"
"-79.63","43.68","TORONTO INTL A","6158731","2022-02-09 12:00","2022","02","09","12:00","4.9","","-2.4","","59","","","","22","","27","","24.1","","98.53","","","","","","NA"
"-79.63","43.68","TORONTO INTL A","6158731","2022-02-09 13:00","2022","02","09","13:00","5.6","","-1.6","","59","","","","21","","23","","24.1","","98.42","","","","","","Mostly Cloudy"
"-79.63","43.68","TORONTO INTL A","6158731","2022-02-09 14:00","2022","02","09","14:00","5.6","","-1.7","","59","","","","22","","30","","24.1","","98.38","","","","","","NA"
"-79.63","43.68","TORONTO INTL A","6158731","2022-02-09 15:00","2022","02","09","15:00","5.7","","-1.4","","60","","","","22","","25","","24.1","","98.41","","","","","","NA"
"-79.63","43.68","TORONTO INTL A","6158731","2022-02-09 16:00","2022","02","09","16:00","5.7","","-1.3","","61","","","","21","","21","","24.1","","98.41","","","","","","Mainly Clear"
"-79.63","43.68","TORONTO INTL A","6158731","2022-02-09 17:00","2022","02","09","17:00","5.1","","-1.3","","63","","","","21","","17","","24.1","","98.43","","","","","","NA"
"-79.63","43.68","TORONTO INTL A","6158731","2022-02-09 18:00","2022","02","09","18:00","4.4","","-1.4","","66","","","","22","","16","","24.1","","98.45","","","","","","NA"
"-79.63","43.68","TORONTO INTL A","6158731","2022-02-09 19:00","2022","02","09","19:00","4.3","","-1.3","","67","","","","20","","11","","24.1","","98.48","","","","","","Mostly Cloudy"
"-79.63","43.68","TORONTO INTL A","6158731","2022-02-09 20:00","2022","02","09","20:00","4.2","","-1.4","","67","","","","21","","15","","24.1","","98.50","","","","","","NA"
"-79.63","43.68","TORONTO INTL A","6158731","2022-02-09 21:00","2022","02","09","21:00","3.7","","-1.3","","70","","","","23","","18","","24.1","","98.44","","","","","","NA"
"-79.63","43.68","TORONTO INTL A","6158731","2022-02-09 22:00","2022","02","09","22:00","3.2","","-1.4","","72","","","","21","","17","","24.1","","98.44","","","","","","Mainly Clear"
"-79.63","43.68","TORONTO INTL A","6158731","2022-02-09 23:00","2022","02","09","23:00","3.2","","-1.3","","72","","","","21","","20","","24.1","","98.39","","","","","","NA"
"-79.63","43.68","TORONTO INTL A","6158731","2022-02-10 00:00","2022","02","10","00:00","3.3","","-1.4","","71","","","","22","","14","","24.1","","98.39","","","","","","NA"
"-79.63","43.68","TORONTO INTL A","6158731","2022-02-10 01:00","2022","02","10","01:00","2.8","","-1.5","","73","","","","22","","17","","24.1","","98.39","","","","","","Cloudy"
"-79.63","43.68","TORONTO INTL A","6158731","2022-02-10 02:00","2022","02","10","02:00","1.8","","-1.5","","78","","","","21","","15","","24.1","","98.38","","","","","","NA"
"-79.63","43.68","TORONTO INTL A","6158731","2022-02-10 03:00","2022","02","10","03:00","1.4","","-1.4","","82","","","","22","","16","","24.1","","98.39","","","","","","NA"
"-79.63","43.68","TORONTO INTL A","6158731","2022-02-10 04:00","2022","02","10","04:00","1.3","","-1.3","","83","","","","22","","17","","24.1","","98.37","","","","","","Snow"
"-79.63","43.68","TORONTO INTL A","6158731","2022-02-10 05:00","2022","02","10","05:00","1.1","","-0.4","","90","","","","21","","18","","24.1","","98.39","","","","","","Snow"
"-79.63","43.68","TORONTO INTL A","6158731","2022-02-10 06:00","2022","02","10","06:00","1.1","","-0.1","","92","","","","22","","16","","24.1","","98.39","","","","","","Snow"
"-79.63","43.68","TORONTO INTL A","6158731","2022-02-10 07:00","2022","02","10","07:00","1.1","","0.1","","93","","","","21","","18","","19.3","","98.40","","","","","","Cloudy"
"-79.63","43.68","TORONTO INTL A","6158731","2022-02-10 08:00","2022","02","10","08:00","1.4","","-0.1","","90","","","","22","","16","","16.1","","98.43","","","","","","Drizzle"
"-79.63","43.68","TORONTO INTL A","6158731","2022-02-10 09:00","2022","02","10","09:00","1.6","","0.3","","91","","","","23","","12","","16.1","","98.49","","","","","","NA"
"-79.63","43.68","TORONTO INTL A","6158731","2022-02-10 10:00","2022","02","10","10:00","1.1","","-2.9","","75","","","","28","","23","","24.1","","98.56","","","","","","Mostly Cloudy"
"-79.63","43.68","TORONTO INTL A","6158731","2022-02-10 11:00","2022","02","10","11:00","0.9","","-3.5","","72","","","","28","","27","","24.1","","98.62","","","","","","NA"
"-79.63","43.68","TORONTO INTL A","6158731","2022-02-10 12:00","2022","02","10","12:00","0.8","","-4.6","","67","","","","27","","37","","24.1","","98.66","","","","","","NA"
"-79.63","43.68","TORONTO INTL A","6158731","2022-02-10 13:00","2022","02","10","13:00","0.4","","-4.8","","68","","","","27","","35","","24.1","","98.69","","","","","","Mostly Cloudy"
"-79.63","43.68","TORONTO INTL A","6158731","2022-02-10 14:00","2022","02","10","14:00","0.4","","-4.7","","68","","","","27","","27","","24.1","","98.70","","","","","","NA"
"-79.63","43.68","TORONTO INTL A","6158731","2022-02-10 15:00","2022","02","10","15:00","0.2","","-4.7","","70","","","","26","","30","","24.1","","98.76","","","","","","NA"
"-79.63","43.68","TORONTO INTL A","6158731","2022-02-10 16:00","2022","02","10","16:00","0.1","","-4.9","","70","","","","26","","29","","24.1","","98.82","","","","","","Mostly Cloudy"
"-79.63","43.68","TORONTO INTL A","6158731","2022-02-10 17:00","2022","02","10","17:00","-0.1","","-5.0","","70","","","","26","","30","","24.1","","98.89","","","","-7","","NA"
"-79.63","43.68","TORONTO INTL A","6158731","2022-02-10 18:00","2022","02","10","18:00","-0.3","","-5.1","","70","","","","26","","26","","24.1","","98.96","","","","-6","","NA"
"-79.63","43.68","TORONTO INTL A","6158731","2022-02-10 19:00","2022","02","10","19:00","-0.6","","-5.0","","72","","","","25","","20","","24.1","","98.99","","","","-6","","Mostly Cloudy"
"-79.63","43.68","TORONTO INTL A","6158731","2022-02-10 20:00","2022","02","10","20:00","-0.1","","-5.2","","68","","","","21","","13","","24.1","","98.98","","","","-4","","NA"
"-79.63","43.68","TORONTO INTL A","6158731","2022-02-10 21:00","2022","02","10","21:00","-0.5","","-5.5","","69","","","","25","","14","","24.1","","98.99","","","","-5","","NA"
"-79.63","43.68","TORONTO INTL A","6158731","2022-02-10 22:00","2022","02","10","22:00","-0.4","","-5.2","","70","","","","22","","14","","24.1","","99.01","","","","-5","","Cloudy"
"-79.63","43.68","TORONTO INTL A","6158731","2022-02-10 23:00","2022","02","10","23:00","-0.5","","-5.7","","68","","","","23","","18","","24.1","","98.96","","","","-6","","NA"
"-79.63","43.68","TORONTO INTL A","6158731","2022-02-11 00:00","2022","02","11","00:00","-0.6","","-5.9","","68","","","","23","","14","","24.1","","98.91","","","","-5","","NA"
"-79.63","43.68","TORONTO INTL A","6158731","2022-02-11 01:00","2022","02","11","01:00","-0.5","","-5.8","","68","","","","21","","14","","24.1","","98.88","","","","-5","","Cloudy"
"-79.63","43.68","TORONTO INTL A","6158731","2022-02-11 02:00","2022","02","11","02:00","-0.7","","-5.6","","69","","","","23","","26","","24.1","","98.82","","","","-7","","NA"
"-79.63","43.68","TORONTO INTL A","6158731","2022-02-11 03:00","2022","02","11","03:00","-1.1","","-5.9","","70","","","","22","","14","","24.1","","98.77","","","","-6","","NA"
"-79.63","43.68","TORONTO INTL A","6158731","2022-02-11 04:00","2022","02","11","04:00","-0.8","","-5.7","","69","","","","17","","12","","24.1","","98.66","","","","-5","","Cloudy"
"-79.63","43.68","TORONTO INTL A","6158731","2022-02-11 05:00","2022","02","11","05:00","-0.8","","-4.9","","73","","","","18","","12","","24.1","","98.60","","","","-5","","NA"
"-79.63","43.68","TORONTO INTL A","6158731","2022-02-11 06:00","2022","02","11","06:00","-1.2","","-5.1","","74","","","","18","","14","","24.1","","98.51","","","","-6","","NA"
"-79.63","43.68","TORONTO INTL A","6158731","2022-02-11 07:00","2022","02","11","07:00","-1.0","","-4.8","","76","","","","18","","15","","24.1","","98.47","","","","-6","","Cloudy"
"-79.63","43.68","TORONTO INTL A","6158731","2022-02-11 08:00","2022","02","11","08:00","-0.5","","-4.0","","77","","","","17","","17","","24.1","","98.43","","","","-5","","NA"
"-79.63","43.68","TORONTO INTL A","6158731","2022-02-11 09:00","2022","02","11","09:00","0.2","","-3.0","","79","","","","17","","18","","19.3","","98.29","","","","","","Snow"
"-79.63","43.68","TORONTO INTL A","6158731","2022-02-11 10:00","2022","02","11","10:00","0.6","","-1.9","","83","","","","18","","26","","8.1","","98.17","","","","","","Snow"
"-79.63","43.68","TORONTO INTL A","6158731","2022-02-11 11:00","2022","02","11","11:00","1.9","","-1.3","","79","","","","20","","22","","19.3","","98.10","","","","","","NA"
"-79.63","43.68","TORONTO INTL A","6158731","2022-02-11 12:00","2022","02","11","12:00","2.6","","-0.4","","80","","","","21","","21","","16.1","","98.07","","","","","","Drizzle"
"-79.63","43.68","TORONTO INTL A","6158731","2022-02-11 13:00","2022","02","11","13:00","3.5","","-0.1","","77","","","","22","","29","","16.1","","97.98","","","","","","Rain"
"-79.63","43.68","TORONTO INTL A","6158731","2022-02-11 14:00","2022","02","11","14:00","2.7","","1.1","","89","","","","22","","26","","9.7","","97.98","","","","","","Rain"
"-79.63","43.68","TORONTO INTL A","6158731","2022-02-11 15:00","2022","02","11","15:00","2.4","","1.6","","94","","","","21","","27","","9.7","","98.00","","","","","","Rain,Fog"
"-79.63","43.68","TORONTO INTL A","6158731","2022-02-11 16:00","2022","02","11","16:00","2.7","","1.8","","94","","","","21","","28","","12.9","","98.02","","","","","","Rain"
"-79.63","43.68","TORONTO INTL A","6158731","2022-02-11 17:00","2022","02","11","17:00","2.7","","1.9","","95","","","","21","","21","","12.9","","98.07","","","","","","Rain"
"-79.63","43.68","TORONTO INTL A","6158731","2022-02-11 18:00","2022","02","11","18:00","2.0","","1.2","","95","","","","22","","24","","9.7","","98.19","","","","","","Rain"
"-79.63","43.68","TORONTO INTL A","6158731","2022-02-11 19:00","2022","02","11","19:00","1.7","","1.3","","97","","","","22","","18","","9.7","","98.28","","","","","","Rain"
"-79.63","43.68","TORONTO INTL A","6158731","2022-02-11 20:00","2022","02","11","20:00","1.6","","1.3","","98","","","","22","","17","","9.7","","98.29","","","","","","Rain"
"-79.63","43.68","TORONTO INTL A","6158731","2022-02-11 21:00","2022","02","11","21:00","1.6","","1.3","","97","","","","22","","13","","16.1","","98.32","","","","","","Rain"
"-79.63","43.68","TORONTO INTL A","6158731","2022-02-11 22:00","2022","02","11","22:00","1.9","","1.2","","95","","","","23","","14","","16.1","","98.36","","","","","","Cloudy"
"-79.63","43.68","TORONTO INTL A","6158731","2022-02-11 23:00","2022","02","11","23:00","2.1","","1.3","","95","","","","22","","13","","16.1","","98.36","","","","","","NA"
"-79.63","43.68","TORONTO INTL A","6158731","2022-02-12 00:00","2022","02","12","00:00","2.1","","1.6","","96","","","","23","","20","","12.9","","98.39","","","","","","NA"
"-79.63","43.68","TORONTO INTL A","6158731","2022-02-12 01:00","2022","02","12","01:00","2.3","","1.8","","96","","","","22","","24","","16.1","","98.41","","","","","","Cloudy"
"-79.63","43.68","TORONTO INTL A","6158731","2022-02-12 02:00","2022","02","12","02:00","2.4","","1.6","","94","","","","22","","20","","16.1","","98.45","","","","","","NA"
"-79.63","43.68","TORONTO INTL A","6158731","2022-02-12 03:00","2022","02","12","03:00","2.3","","1.3","","93","","","","22","","17","","16.1","","98.46","","","","","","NA"
"-79.63","43.68","TORONTO INTL A","6158731","2022-02-12 04:00","2022","02","12","04:00","2.4","","0.9","","90","","","","20","","14","","24.1","","98.46","","","","","","Cloudy"
"-79.63","43.68","TORONTO INTL A","6158731","2022-02-12 05:00","2022","02","12","05:00","2.2","","0.8","","90","","","","21","","18","","9.7","","98.51","","","","","","Rain"
"-79.63","43.68","TORONTO INTL A","6158731","2022-02-12 06:00","2022","02","12","06:00","-0.3","","-2.6","","85","","","","30","","40","","24.1","","98.70","","","","-8","","NA"
"-79.63","43.68","TORONTO INTL A","6158731","2022-02-12 07:00","2022","02","12","07:00","-1.2","","-5.0","","75","","","","29","","35","","24.1","","98.89","","","","-9","","Mostly Cloudy"
"-79.63","43.68","TORONTO INTL A","6158731","2022-02-12 08:00","2022","02","12","08:00","-2.4","","-6.2","","76","","","","28","","34","","24.1","","99.12","","","","-10","","NA"
"-79.63","43.68","TORONTO INTL A","6158731","2022-02-12 09:00","2022","02","12","09:00","-3.9","","-8.4","","71","","","","31","","31","","24.1","","99.34","","","","-12","","NA"
"-79.63","43.68","TORONTO INTL A","6158731","2022-02-12 10:00","2022","02","12","10:00","-5.3","","-10.7","","66","","","","30","","38","","24.1","","99.54","","","","-14","","Snow"
"-79.63","43.68","TORONTO INTL A","6158731","2022-02-12 11:00","2022","02","12","11:00","-5.6","","-11.6","","63","","","","30","","37","","24.1","","99.67","","","","-15","","NA"
"-79.63","43.68","TORONTO INTL A","6158731","2022-02-12 12:00","2022","02","12","12:00","-5.9","","-12.2","","61","","","","30","","36","","24.1","","99.76","","","","-15","","NA"
"-79.63","43.68","TORONTO INTL A","6158731","2022-02-12 13:00","2022","02","12","13:00","-6.3","","-12.8","","60","","","","30","","31","","24.1","","99.87","","","","-15","","Mainly Clear"
"-79.63","43.68","TORONTO INTL A","6158731","2022-02-12 14:00","2022","02","12","14:00","-6.9","","-13.5","","60","","","","28","","30","","24.1","","99.90","","","","-15","","NA"
"-79.63","43.68","TORONTO INTL A","6158731","2022-02-12 15:00","2022","02","12","15:00","-7.4","","-14.2","","59","","","","29","","22","","24.1","","99.99","","","","-15","","NA"
"-79.63","43.68","TORONTO INTL A","6158731","2022-02-12 16:00","2022","02","12","16:00","-7.6","","-14.2","","59","","","","27","","25","","24.1","","100.09","","","","-16","","Mainly Clear"
"-79.63","43.68","TORONTO INTL A","6158731","2022-02-12 17:00","2022","02","12","17:00","-8.4","","-14.8","","60","","","","31","","24","","24.1","","100.19","","","","-17","","NA"
"-79.63","43.68","TORONTO INTL A","6158731","2022-02-12 18:00","2022","02","12","18:00","-9.5","","-15.7","","61","","","","30","","23","","24.1","","100.28","","","","-18","","NA"
"-79.63","43.68","TORONTO INTL A","6158731","2022-02-12 19:00","2022","02","12","19:00","-10.2","","-16.0","","63","","","","31","","17","","24.1","","100.35","","","","-17","","Mainly Clear"
"-79.63","43.68","TORONTO INTL A","6158731","2022-02-12 20:00","2022","02","12","20:00","-12.0","","-17.4","","64","","","","35","","22","","24.1","","100.36","","","","-21","","NA"
"-79.63","43.68","TORONTO INTL A","6158731","2022-02-12 21:00","2022","02","12","21:00","-12.2","","-18.0","","62","","","","34","","19","","24.1","","100.44","","","","-20","","NA"
"-79.63","43.68","TORONTO INTL A","6158731","2022-02-12 22:00","2022","02","12","22:00","-12.7","","-18.1","","64","","","","33","","18","","24.1","","100.48","","","","-21","","Mainly Clear"
"-79.63","43.68","TORONTO INTL A","6158731","2022-02-12 23:00","2022","02","12","23:00","-12.9","","-18.0","","66","","","","31","","16","","24.1","","100.50","","","","-21","","NA"
"-79.63","43.68","TORONTO INTL A","6158731","2022-02-13 00:00","2022","02","13","00:00","-12.9","","-17.8","","67","","","","33","","11","","24.1","","100.51","","","","-19","","NA"
"-79.63","43.68","TORONTO INTL A","6158731","2022-02-13 01:00","2022","02","13","01:00","-13.5","","-18.1","","68","","","","1","","16","","24.1","","100.48","","","","-21","","Mostly Cloudy"
"-79.63","43.68","TORONTO INTL A","6158731","2022-02-13 02:00","2022","02","13","02:00","-13.5","","-18.0","","70","","","","33","","11","","16.1","","100.46","","","","-20","","NA"
"-79.63","43.68","TORONTO INTL A","6158731","2022-02-13 03:00","2022","02","13","03:00","-13.7","","-17.9","","71","","","","1","","12","","24.1","","100.48","","","","-20","","NA"
"-79.63","43.68","TORONTO INTL A","6158731","2022-02-13 04:00","2022","02","13","04:00","-14.6","","-18.6","","72","","","","1","","14","","24.1","","100.46","","","","-22","","Mainly Clear"
"-79.63","43.68","TORONTO INTL A","6158731","2022-02-13 05:00","2022","02","13","05:00","-15.1","","-19.2","","72","","","","2","","15","","24.1","","100.47","","","","-23","","NA"
"-79.63","43.68","TORONTO INTL A","6158731","2022-02-13 06:00","2022","02","13","06:00","-15.3","","-19.4","","71","","","","2","","8","","24.1","","100.47","","","","-21","","NA"
"-79.63","43.68","TORONTO INTL A","6158731","2022-02-13 07:00","2022","02","13","07:00","-15.9","","-19.9","","72","","","","36","","14","","24.1","","100.49","","","","-24","","Mainly Clear"
"-79.63","43.68","TORONTO INTL A","6158731","2022-02-13 08:00","2022","02","13","08:00","-16.5","","-20.2","","74","","","","31","","18","","24.1","","100.54","","","","-26","","NA"
"-79.63","43.68","TORONTO INTL A","6158731","2022-02-13 09:00","2022","02","13","09:00","-16.0","","-19.9","","73","","","","4","","7","","24.1","","100.50","","","","-21","","NA"
"-79.63","43.68","TORONTO INTL A","6158731","2022-02-13 10:00","2022","02","13","10:00","-15.0","","-19.5","","69","","","","32","","6","","24.1","","100.49","","","","-19","","Mostly Cloudy"
"-79.63","43.68","TORONTO INTL A","6158731","2022-02-13 11:00","2022","02","13","11:00","-13.4","","-18.9","","64","","","","1","","6","","24.1","","100.49","","","","-17","","NA"
"-79.63","43.68","TORONTO INTL A","6158731","2022-02-13 12:00","2022","02","13","12:00","-12.6","","-18.7","","61","","","","34","","3","","24.1","","100.46","","","","-15","","NA"
"-79.63","43.68","TORONTO INTL A","6158731","2022-02-13 13:00","2022","02","13","13:00","-11.0","","-18.1","","56","","","","35","","3","","24.1","","100.37","","","","-13","","Mainly Clear"
"-79.63","43.68","TORONTO INTL A","6158731","2022-02-13 14:00","2022","02","13","14:00","-10.3","","-18.3","","52","","","","3","","4","","24.1","","100.26","","","","-13","","NA"
"-79.63","43.68","TORONTO INTL A","6158731","2022-02-13 15:00","2022","02","13","15:00","-9.5","","-18.4","","49","","","","3","","5","","24.1","","100.17","","","","-12","","NA"
"-79.63","43.68","TORONTO INTL A","6158731","2022-02-13 16:00","2022","02","13","16:00","-9.6","","-18.9","","47","","","","9","","5","","24.1","","100.18","","","","-12","","Mostly Cloudy"
"-79.63","43.68","TORONTO INTL A","6158731","2022-02-13 17:00","2022","02","13","17:00","-9.5","","-18.8","","47","","","","36","","2","","16.1","","100.15","","","","-11","","NA"
"-79.63","43.68","TORONTO INTL A","6158731","2022-02-13 18:00","2022","02","13","18:00","-10.3","","-14.7","","70","","","","15","","9","","9.7","","100.16","","","","-15","","Snow"
"-79.63","43.68","TORONTO INTL A","6158731","2022-02-13 19:00","2022","02","13","19:00","-10.6","","-15.2","","69","","","","4","","10","","4.8","","100.19","","","","-16","","Snow"
"-79.63","43.68","TORONTO INTL A","6158731","2022-02-13 20:00","2022","02","13","20:00","-11.0","","-18.2","","56","","","","36","","12","","24.1","","100.19","","","","-17","","NA"
"-79.63","43.68","TORONTO INTL A","6158731","2022-02-13 21:00","2022","02","13","21:00","-11.4","","-20.4","","48","","","","1","","15","","24.1","","100.19","","","","-18","","NA"
"-79.63","43.68","TORONTO INTL A","6158731","2022-02-13 22:00","2022","02","13","22:00","-11.9","","-20.7","","49","","","","36","","16","","24.1","","100.20","","","","-19","","Mostly Cloudy"
"-79.63","43.68","TORONTO INTL A","6158731","2022-02-13 23:00","2022","02","13","23:00","-12.9","","-20.8","","52","","","","36","","17","","24.1","","100.19","","","","-21","","NA"
"-79.63","43.68","TORONTO INTL A","6158731","2022-02-14 00:00","2022","02","14","00:00","-13.0","","-19.4","","60","","","","35","","18","","24.1","","100.17","","","","-21","","NA"
"-79.63","43.68","TORONTO INTL A","6158731","2022-02-14 01:00","2022","02","14","01:00","-13.4","","-18.8","","64","","","","34","","13","","24.1","","100.15","","","","-20","","Mostly Cloudy"
"-79.63","43.68","TORONTO INTL A","6158731","2022-02-14 02:00","2022","02","14","02:00","-14.1","","-19.1","","66","","","","32","","15","","24.1","","100.12","","","","-22","","NA"
"-79.63","43.68","TORONTO INTL A","6158731","2022-02-14 03:00","2022","02","14","03:00","-14.0","","-18.4","","70","","","","33","","18","","24.1","","100.10","","","","-22","","NA"
"-79.63","43.68","TORONTO INTL A","6158731","2022-02-14 04:00","2022","02","14","04:00","-14.6","","-18.5","","73","","","","35","","17","","24.1","","100.12","","","","-23","","Mainly Clear"
"-79.63","43.68","TORONTO INTL A","6158731","2022-02-14 05:00","2022","02","14","05:00","-15.3","","-20.5","","65","","","","35","","18","","24.1","","100.15","","","","-24","","NA"
"-79.63","43.68","TORONTO INTL A","6158731","2022-02-14 06:00","2022","02","14","06:00","-16.0","","-20.9","","66","","","","34","","19","","24.1","","100.20","","","","-25","","NA"
"-79.63","43.68","TORONTO INTL A","6158731","2022-02-14 07:00","2022","02","14","07:00","-16.3","","-20.8","","69","","","","34","","21","","24.1","","100.24","","","","-26","","Clear"
"-79.63","43.68","TORONTO INTL A","6158731","2022-02-14 08:00","2022","02","14","08:00","-16.2","","-21.1","","67","","","","35","","21","","24.1","","100.31","","","","-26","","NA"
"-79.63","43.68","TORONTO INTL A","6158731","2022-02-14 09:00","2022","02","14","09:00","-15.5","","-21.4","","61","","","","33","","20","","24.1","","100.40","","","","-25","","NA"
"-79.63","43.68","TORONTO INTL A","6158731","2022-02-14 10:00","2022","02","14","10:00","-14.4","","-20.9","","59","","","","35","","12","","24.1","","100.44","","","","-21","","Clear"
"-79.63","43.68","TORONTO INTL A","6158731","2022-02-14 11:00","2022","02","14","11:00","-13.4","","-20.4","","56","","","","35","","12","","24.1","","100.50","","","","-20","","NA"
"-79.63","43.68","TORONTO INTL A","6158731","2022-02-14 12:00","2022","02","14","12:00","-12.3","","-20.0","","53","","","","32","","21","","24.1","","100.50","","","","-21","","NA"
"-79.63","43.68","TORONTO INTL A","6158731","2022-02-14 13:00","2022","02","14","13:00","-11.8","","-20.4","","49","","","","32","","12","","24.1","","100.46","","","","-18","","Mainly Clear"
"-79.63","43.68","TORONTO INTL A","6158731","2022-02-14 14:00","2022","02","14","14:00","-10.3","","-19.7","","47","","","","31","","16","","24.1","","100.43","","","","-17","","NA"
"-79.63","43.68","TORONTO INTL A","6158731","2022-02-14 15:00","2022","02","14","15:00","-9.9","","-21.0","","40","","","","30","","17","","24.1","","100.43","","","","-17","","NA"
"-79.63","43.68","TORONTO INTL A","6158731","2022-02-14 16:00","2022","02","14","16:00","-9.8","","-20.3","","43","","","","30","","14","","24.1","","100.45","","","","-16","","Mainly Clear"
"-79.63","43.68","TORONTO INTL A","6158731","2022-02-14 17:00","2022","02","14","17:00","-10.7","","-20.7","","44","","","","28","","18","","24.1","","100.48","","","","-18","","NA"
"-79.63","43.68","TORONTO INTL A","6158731","2022-02-14 18:00","2022","02","14","18:00","-11.1","","-20.4","","46","","","","28","","19","","24.1","","100.57","","","","-19","","NA"
"-79.63","43.68","TORONTO INTL A","6158731","2022-02-14 19:00","2022","02","14","19:00","-11.6","","-21.0","","46","","","","27","","22","","24.1","","100.67","","","","-20","","Mostly Cloudy"
"-79.63","43.68","TORONTO INTL A","6158731","2022-02-14 20:00","2022","02","14","20:00","-11.8","","-19.5","","53","","","","27","","14","","24.1","","100.72","","","","-19","","NA"
"-79.63","43.68","TORONTO INTL A","6158731","2022-02-14 21:00","2022","02","14","21:00","-11.9","","-18.9","","57","","","","26","","10","","24.1","","100.76","","","","-18","","NA"
"-79.63","43.68","TORONTO INTL A","6158731","2022-02-14 22:00","2022","02","14","22:00","-12.0","","-18.5","","59","","","","26","","10","","24.1","","100.80","","","","-18","","Cloudy"
"-79.63","43.68","TORONTO INTL A","6158731","2022-02-14 23:00","2022","02","14","23:00","-11.8","","-18.4","","58","","","","24","","5","","24.1","","100.82","","","","-15","","NA"
"-79.63","43.68","TORONTO INTL A","6158731","2022-02-15 00:00","2022","02","15","00:00","-11.1","","-18.0","","57","","","","26","","4","","24.1","","100.82","","","","-14","","NA"
"-79.63","43.68","TORONTO INTL A","6158731","2022-02-15 01:00","2022","02","15","01:00","-10.6","","-16.4","","63","","","","24","","8","","24.1","","100.83","","","","-15","","Cloudy"
"-79.63","43.68","TORONTO INTL A","6158731","2022-02-15 02:00","2022","02","15","02:00","-10.9","","-16.1","","66","","","","24","","13","","24.1","","100.83","","","","-17","","NA"
"-79.63","43.68","TORONTO INTL A","6158731","2022-02-15 03:00","2022","02","15","03:00","-10.7","","-16.8","","61","","","","24","","15","","24.1","","100.80","","","","-18","","NA"
"-79.63","43.68","TORONTO INTL A","6158731","2022-02-15 04:00","2022","02","15","04:00","-10.6","","-16.0","","65","","","","24","","27","","24.1","","100.80","","","","-20","","Mostly Cloudy"
"-79.63","43.68","TORONTO INTL A","6158731","2022-02-15 05:00","2022","02","15","05:00","-10.1","","-14.5","","70","","","","24","","25","","24.1","","100.86","","","","-19","","NA"
"-79.63","43.68","TORONTO INTL A","6158731","2022-02-15 06:00","2022","02","15","06:00","-9.8","","-13.9","","73","","","","26","","22","","24.1","","100.97","","","","-18","","NA"
"-79.63","43.68","TORONTO INTL A","6158731","2022-02-15 07:00","2022","02","15","07:00","-9.2","","-12.8","","75","","","","25","","21","","24.1","","101.04","","","","-17","","Mostly Cloudy"
"-79.63","43.68","TORONTO INTL A","6158731","2022-02-15 08:00","2022","02","15","08:00","-8.3","","-11.9","","76","","","","26","","20","","24.1","","101.15","","","","-16","","NA"
"-79.63","43.68","TORONTO INTL A","6158731","2022-02-15 09:00","2022","02","15","09:00","-7.3","","-11.6","","72","","","","27","","14","","24.1","","101.25","","","","-13","","NA"
"-79.63","43.68","TORONTO INTL A","6158731","2022-02-15 10:00","2022","02","15","10:00","-5.6","","-10.9","","66","","","","29","","17","","24.1","","101.32","","","","-12","","Mostly Cloudy"
"-79.63","43.68","TORONTO INTL A","6158731","2022-02-15 11:00","2022","02","15","11:00","-5.6","","-11.7","","62","","","","36","","13","","24.1","","101.37","","","","-11","","NA"
"-79.63","43.68","TORONTO INTL A","6158731","2022-02-15 12:00","2022","02","15","12:00","-5.1","","-11.7","","60","","","","1","","12","","24.1","","101.41","","","","-10","","NA"
"-79.63","43.68","TORONTO INTL A","6158731","2022-02-15 13:00","2022","02","15","13:00","-4.7","","-12.3","","56","","","","31","","4","","24.1","","101.39","","","","-6","","Mostly Cloudy"
"-79.63","43.68","TORONTO INTL A","6158731","2022-02-15 14:00","2022","02","15","14:00","-3.9","","-13.5","","48","","","","27","","13","","24.1","","101.35","","","","-9","","NA"
"-79.63","43.68","TORONTO INTL A","6158731","2022-02-15 15:00","2022","02","15","15:00","-3.6","","-13.2","","47","","","","2","","4","","24.1","","101.31","","","","-5","","NA"
"-79.63","43.68","TORONTO INTL A","6158731","2022-02-15 16:00","2022","02","15","16:00","-3.7","","-13.0","","49","","","","14","","16","","24.1","","101.31","","","","-9","","Mostly Cloudy"
"-79.63","43.68","TORONTO INTL A","6158731","2022-02-15 17:00","2022","02","15","17:00","-4.0","","-13.5","","48","","","","15","","12","","24.1","","101.31","","","","-9","","NA"
"-79.63","43.68","TORONTO INTL A","6158731","2022-02-15 18:00","2022","02","15","18:00","-4.4","","-12.1","","55","","","","15","","11","","24.1","","101.31","","","","-9","","NA"
"-79.63","43.68","TORONTO INTL A","6158731","2022-02-15 19:00","2022","02","15","19:00","-4.5","","-12.1","","56","","","","15","","9","","24.1","","101.29","","","","-8","","Cloudy"
"-79.63","43.68","TORONTO INTL A","6158731","2022-02-15 20:00","2022","02","15","20:00","-4.8","","-10.7","","63","","","","15","","10","","24.1","","101.25","","","","-9","","NA"
"-79.63","43.68","TORONTO INTL A","6158731","2022-02-15 21:00","2022","02","15","21:00","-4.6","","-11.6","","58","","","","15","","11","","24.1","","101.13","","","","-9","","NA"
"-79.63","43.68","TORONTO INTL A","6158731","2022-02-15 22:00","2022","02","15","22:00","-4.2","","-10.7","","61","","","","14","","13","","24.1","","101.07","","","","-9","","Mostly Cloudy"
"-79.63","43.68","TORONTO INTL A","6158731","2022-02-15 23:00","2022","02","15","23:00","-4.2","","-9.7","","65","","","","14","","17","","24.1","","100.97","","","","-10","","NA"
"-79.63","43.68","TORONTO INTL A","6158731","2022-02-16 00:00","2022","02","16","00:00","-3.9","","-9.8","","64","","","","13","","16","","24.1","","100.85","","","","-9","","NA"
"-79.63","43.68","TORONTO INTL A","6158731","2022-02-16 01:00","2022","02","16","01:00","-3.7","","-8.8","","68","","","","13","","14","","24.1","","100.72","","","","-9","","Mostly Cloudy"
"-79.63","43.68","TORONTO INTL A","6158731","2022-02-16 02:00","2022","02","16","02:00","-3.6","","-8.2","","71","","","","13","","12","","24.1","","100.63","","","","-8","","NA"
"-79.63","43.68","TORONTO INTL A","6158731","2022-02-16 03:00","2022","02","16","03:00","-3.0","","-8.0","","69","","","","13","","14","","24.1","","100.45","","","","-8","","NA"
"-79.63","43.68","TORONTO INTL A","6158731","2022-02-16 04:00","2022","02","16","04:00","-2.8","","-8.0","","68","","","","14","","15","","24.1","","100.30","","","","-8","","Cloudy"
"-79.63","43.68","TORONTO INTL A","6158731","2022-02-16 05:00","2022","02","16","05:00","-2.6","","-7.6","","69","","","","14","","12","","24.1","","100.22","","","","-7","","NA"
"-79.63","43.68","TORONTO INTL A","6158731","2022-02-16 06:00","2022","02","16","06:00","-2.0","","-6.8","","70","","","","13","","9","","24.1","","100.12","","","","-5","","NA"
"-79.63","43.68","TORONTO INTL A","6158731","2022-02-16 07:00","2022","02","16","07:00","-1.5","","-6.5","","69","","","","14","","11","","24.1","","100.01","","","","-5","","Cloudy"
"-79.63","43.68","TORONTO INTL A","6158731","2022-02-16 08:00","2022","02","16","08:00","-0.8","","-5.6","","70","","","","14","","10","","24.1","","99.96","","","","-4","","NA"
"-79.63","43.68","TORONTO INTL A","6158731","2022-02-16 09:00","2022","02","16","09:00","0.8","","-4.3","","68","","","","14","","16","","24.1","","99.86","","","","","","NA"
"-79.63","43.68","TORONTO INTL A","6158731","2022-02-16 10:00","2022","02","16","10:00","4.0","","-3.4","","59","","","","18","","19","","24.1","","99.78","","","","","","Cloudy"
"-79.63","43.68","TORONTO INTL A","6158731","2022-02-16 11:00","2022","02","16","11:00","6.8","","-2.6","","51","","","","19","","24","","24.1","","99.67","","","","","","NA"
"-79.63","43.68","TORONTO INTL A","6158731","2022-02-16 12:00","2022","02","16","12:00","8.4","","-2.4","","46","","","","20","","23","","24.1","","99.60","","","","","","NA"
"-79.63","43.68","TORONTO INTL A","6158731","2022-02-16 13:00","2022","02","16","13:00","10.2","","-1.7","","43","","","","21","","29","","24.1","","99.48","","","","","","Cloudy"
"-79.63","43.68","TORONTO INTL A","6158731","2022-02-16 14:00","2022","02","16","14:00","10.3","","-1.9","","42","","","","22","","41","","24.1","","99.37","","","","","","NA"
"-79.63","43.68","TORONTO INTL A","6158731","2022-02-16 15:00","2022","02","16","15:00","10.1","","-1.7","","44","","","","22","","44","","24.1","","99.30","","","","","","NA"
"-79.63","43.68","TORONTO INTL A","6158731","2022-02-16 16:00","2022","02","16","16:00","9.6","","-0.9","","48","","","","21","","31","","24.1","","99.29","","","","","","Cloudy"
"-79.63","43.68","TORONTO INTL A","6158731","2022-02-16 17:00","2022","02","16","17:00","9.2","","-0.4","","51","","","","21","","29","","24.1","","99.28","","","","","","NA"
"-79.63","43.68","TORONTO INTL A","6158731","2022-02-16 18:00","2022","02","16","18:00","9.1","","0.3","","54","","","","21","","30","","24.1","","99.28","","","","","","NA"
"-79.63","43.68","TORONTO INTL A","6158731","2022-02-16 19:00","2022","02","16","19:00","8.9","","1.4","","59","","","","21","","34","","24.1","","99.27","","","","","","Cloudy"
"-79.63","43.68","TORONTO INTL A","6158731","2022-02-16 20:00","2022","02","16","20:00","8.9","","2.4","","64","","","","21","","28","","24.1","","99.21","","","","","","NA"
"-79.63","43.68","TORONTO INTL A","6158731","2022-02-16 21:00","2022","02","16","21:00","9.8","","1.4","","56","","","","21","","31","","24.1","","99.23","","","","","","NA"
"-79.63","43.68","TORONTO INTL A","6158731","2022-02-16 22:00","2022","02","16","22:00","8.9","","2.4","","64","","","","22","","22","","24.1","","99.25","","","","","","Rain"
"-79.63","43.68","TORONTO INTL A","6158731","2022-02-16 23:00","2022","02","16","23:00","8.0","","3.1","","71","","","","22","","25","","24.1","","99.20","","","","","","Rain"
"-79.63","43.68","TORONTO INTL A","6158731","2022-02-17 00:00","2022","02","17","00:00","8.0","","3.8","","74","","","","22","","27","","24.1","","99.13","","","","","","Rain"
"-79.63","43.68","TORONTO INTL A","6158731","2022-02-17 01:00","2022","02","17","01:00","6.2","","4.1","","86","","","","29","","6","","24.1","","99.10","","","","","","Cloudy"
"-79.63","43.68","TORONTO INTL A","6158731","2022-02-17 02:00","2022","02","17","02:00","5.6","","4.5","","93","","","","30","","16","","24.1","","99.16","","","","","","Rain"
"-79.63","43.68","TORONTO INTL A","6158731","2022-02-17 03:00","2022","02","17","03:00","5.9","","5.7","","99","","","","36","","1","","9.7","","99.04","","","","","","Rain"
"-79.63","43.68","TORONTO INTL A","6158731","2022-02-17 04:00","2022","02","17","04:00","5.7","","5.7","","100","","","","20","","8","","9.7","","99.03","","","","","","Rain"
"-79.63","43.68","TORONTO INTL A","6158731","2022-02-17 05:00","2022","02","17","05:00","5.7","","5.7","","100","","","","18","","9","","8.1","","98.91","","","","","","Rain"
"-79.63","43.68","TORONTO INTL A","6158731","2022-02-17 06:00","2022","02","17","06:00","6.3","","6.3","","100","","","","20","","21","","6.4","","98.89","","","","","","Moderate Rain"
"-79.63","43.68","TORONTO INTL A","6158731","2022-02-17 07:00","2022","02","17","07:00","6.5","","6.5","","100","","","","21","","23","","8.1","","98.87","","","","","","Rain,Fog"
"-79.63","43.68","TORONTO INTL A","6158731","2022-02-17 08:00","2022","02","17","08:00","7.1","","7.1","","100","","","","20","","12","","9.7","","98.87","","","","","","Rain,Fog"
"-79.63","43.68","TORONTO INTL A","6158731","2022-02-17 09:00","2022","02","17","09:00","6.0","","6.0","","100","","","","25","","11","","8.1","","98.93","","","","","","Rain,Fog"
"-79.63","43.68","TORONTO INTL A","6158731","2022-02-17 10:00","2022","02","17","10:00","1.8","","1.8","","100","","","","36","","16","","8.1","","98.88","","","","","","Fog"
"-79.63","43.68","TORONTO INTL A","6158731","2022-02-17 11:00","2022","02","17","11:00","1.3","","1.3","","99","","","","36","","25","","9.7","","98.91","","","","","","Rain,Fog"
"-79.63","43.68","TORONTO INTL A","6158731","2022-02-17 12:00","2022","02","17","12:00","1.2","","1.2","","100","","","","34","","25","","2.4","","98.95","","","","","","Rain,Fog"
"-79.63","43.68","TORONTO INTL A","6158731","2022-02-17 13:00","2022","02","17","13:00","1.1","","1.1","","100","","","","36","","20","","4.8","","98.81","","","","","","Rain,Fog"
"-79.63","43.68","TORONTO INTL A","6158731","2022-02-17 14:00","2022","02","17","14:00","0.8","","0.6","","99","","","","34","","27","","4.8","","98.74","","","","","","Rain,Fog"
"-79.63","43.68","TORONTO INTL A","6158731","2022-02-17 15:00","2022","02","17","15:00","0.4","","-0.1","","97","","","","35","","26","","6.4","","98.66","","","","","","Rain,Fog"
"-79.63","43.68","TORONTO INTL A","6158731","2022-02-17 16:00","2022","02","17","16:00","-0.1","","-1.5","","90","","","","34","","39","","8.1","","98.59","","","","-7","","Freezing Rain,Ice Pellets,Fog"
"-79.63","43.68","TORONTO INTL A","6158731","2022-02-17 17:00","2022","02","17","17:00","-0.4","","-1.8","","91","","","","34","","21","","4.8","","98.57","","","","-6","","Freezing Rain,Snow,Ice Pellets"
"-79.63","43.68","TORONTO INTL A","6158731","2022-02-17 18:00","2022","02","17","18:00","-0.8","","-1.3","","97","","","","35","","23","","1.2","","98.45","","","","-7","","Snow"
"-79.63","43.68","TORONTO INTL A","6158731","2022-02-17 19:00","2022","02","17","19:00","-1.4","","-1.7","","98","","","","34","","25","","1.6","","98.51","","","","-8","","Snow"
"-79.63","43.68","TORONTO INTL A","6158731","2022-02-17 20:00","2022","02","17","20:00","-1.8","","-1.9","","99","","","","35","","25","","0.8","","98.30","","","","-8","","Moderate Snow"
"-79.63","43.68","TORONTO INTL A","6158731","2022-02-17 21:00","2022","02","17","21:00","-1.9","","-2.0","","99","","","","35","","23","","0.8","","98.11","","","","-8","","Moderate Snow"
"-79.63","43.68","TORONTO INTL A","6158731","2022-02-17 22:00","2022","02","17","22:00","-2.1","","-2.3","","99","","","","35","","30","","1.6","","98.05","","","","-9","","Snow"
"-79.63","43.68","TORONTO INTL A","6158731","2022-02-17 23:00","2022","02","17","23:00","-3.1","","-3.5","","97","","","","35","","35","","0.8","","98.05","","","","-11","","Moderate Snow"
"-79.63","43.68","TORONTO INTL A","6158731","2022-02-18 00:00","2022","02","18","00:00","-4.2","","-5.3","","92","","","","35","","36","","2.4","","98.01","","","","-13","","Snow"
"-79.63","43.68","TORONTO INTL A","6158731","2022-02-18 01:00","2022","02","18","01:00","-5.2","","-6.6","","90","","","","34","","32","","0.6","","98.10","","","","-13","","Moderate Snow"
"-79.63","43.68","TORONTO INTL A","6158731","2022-02-18 02:00","2022","02","18","02:00","-6.5","","-7.8","","91","","","","33","","35","","0.8","","98.29","","","","-16","","Moderate Snow"
"-79.63","43.68","TORONTO INTL A","6158731","2022-02-18 03:00","2022","02","18","03:00","-7.7","","-9.4","","88","","","","34","","34","","1.6","","98.51","","","","-17","","Snow,Blowing Snow"
"-79.63","43.68","TORONTO INTL A","6158731","2022-02-18 04:00","2022","02","18","04:00","-8.3","","-10.6","","84","","","","34","","39","","2.0","","98.65","","","","-18","","Snow,Blowing Snow"
"-79.63","43.68","TORONTO INTL A","6158731","2022-02-18 05:00","2022","02","18","05:00","-8.5","","-11.3","","81","","","","34","","30","","4.8","","98.87","","","","-18","","Snow,Blowing Snow"
"-79.63","43.68","TORONTO INTL A","6158731","2022-02-18 06:00","2022","02","18","06:00","-9.6","","-13.2","","75","","","","33","","32","","16.1","","99.09","","","","-19","","NA"
"-79.63","43.68","TORONTO INTL A","6158731","2022-02-18 07:00","2022","02","18","07:00","-10.0","","-13.7","","75","","","","31","","33","","24.1","","99.31","","","","-20","","Blowing Snow"
"-79.63","43.68","TORONTO INTL A","6158731","2022-02-18 08:00","2022","02","18","08:00","-10.3","","-14.3","","73","","","","32","","31","","24.1","","99.49","","","","-20","","Blowing Snow"
"-79.63","43.68","TORONTO INTL A","6158731","2022-02-18 09:00","2022","02","18","09:00","-10.3","","-14.9","","69","","","","30","","27","","24.1","","99.66","","","","-19","","NA"
"-79.63","43.68","TORONTO INTL A","6158731","2022-02-18 10:00","2022","02","18","10:00","-9.5","","-15.2","","64","","","","32","","31","","24.1","","99.74","","","","-19","","Blowing Snow"
"-79.63","43.68","TORONTO INTL A","6158731","2022-02-18 11:00","2022","02","18","11:00","-8.7","","-14.8","","62","","","","32","","22","","24.1","","99.75","","","","-17","","NA"
"-79.63","43.68","TORONTO INTL A","6158731","2022-02-18 12:00","2022","02","18","12:00","-8.0","","-14.8","","58","","","","32","","23","","24.1","","99.75","","","","-16","","NA"
"-79.63","43.68","TORONTO INTL A","6158731","2022-02-18 13:00","2022","02","18","13:00","-6.9","","-14.4","","55","","","","28","","28","","24.1","","99.68","","","","-15","","Mainly Clear"
"-79.63","43.68","TORONTO INTL A","6158731","2022-02-18 14:00","2022","02","18","14:00","-6.8","","-14.3","","55","","","","27","","27","","24.1","","99.64","","","","-15","","NA"
"-79.63","43.68","TORONTO INTL A","6158731","2022-02-18 15:00","2022","02","18","15:00","-6.1","","-13.3","","57","","","","26","","32","","24.1","","99.67","","","","-15","","NA"
"-79.63","43.68","TORONTO INTL A","6158731","2022-02-18 16:00","2022","02","18","16:00","-6.3","","-12.8","","60","","","","27","","17","","24.1","","99.65","","","","-13","","Mostly Cloudy"
"-79.63","43.68","TORONTO INTL A","6158731","2022-02-18 17:00","2022","02","18","17:00","-5.9","","-11.7","","64","","","","23","","18","","24.1","","99.58","","","","-12","","NA"
"-79.63","43.68","TORONTO INTL A","6158731","2022-02-18 18:00","2022","02","18","18:00","-6.7","","-13.5","","59","","","","21","","22","","24.1","","99.52","","","","-14","","NA"
"-79.63","43.68","TORONTO INTL A","6158731","2022-02-18 19:00","2022","02","18","19:00","-7.8","","-13.5","","64","","","","21","","31","","24.1","","99.44","","","","-17","","Clear"
"-79.63","43.68","TORONTO INTL A","6158731","2022-02-18 20:00","2022","02","18","20:00","-8.4","","-13.4","","67","","","","20","","21","","24.1","","99.34","","","","-16","","NA"
"-79.63","43.68","TORONTO INTL A","6158731","2022-02-18 21:00","2022","02","18","21:00","-7.5","","-12.0","","70","","","","19","","19","","24.1","","99.21","","","","-15","","NA"
"-79.63","43.68","TORONTO INTL A","6158731","2022-02-18 22:00","2022","02","18","22:00","-6.6","","-10.7","","73","","","","19","","26","","24.1","","98.99","","","","-15","","Mostly Cloudy"
"-79.63","43.68","TORONTO INTL A","6158731","2022-02-18 23:00","2022","02","18","23:00","-6.2","","-10.2","","73","","","","21","","30","","19.3","","98.79","","","","-15","","Blowing Snow"
"-79.63","43.68","TORONTO INTL A","6158731","2022-02-19 00:00","2022","02","19","00:00","-5.3","","-9.7","","72","","","","21","","23","","19.3","","98.65","","","","-12","","Blowing Snow"
"-79.63","43.68","TORONTO INTL A","6158731","2022-02-19 01:00","2022","02","19","01:00","-4.8","","-8.7","","74","","","","21","","30","","3.2","","98.48","","","","-13","","Snow,Blowing Snow"
"-79.63","43.68","TORONTO INTL A","6158731","2022-02-19 02:00","2022","02","19","02:00","-4.6","","-6.8","","85","","","","22","","36","","4.0","","98.32","","","","-13","","Snow,Blowing Snow"
"-79.63","43.68","TORONTO INTL A","6158731","2022-02-19 03:00","2022","02","19","03:00","-3.7","","-4.8","","92","","","","22","","26","","1.2","","98.17","","","","-11","","Snow,Blowing Snow"
"-79.63","43.68","TORONTO INTL A","6158731","2022-02-19 04:00","2022","02","19","04:00","-2.7","","-3.4","","95","","","","22","","36","","1.2","","98.08","","","","-11","","Snow,Blowing Snow"
"-79.63","43.68","TORONTO INTL A","6158731","2022-02-19 05:00","2022","02","19","05:00","-2.4","","-4.0","","89","","","","23","","34","","4.8","","98.06","","","","-10","","Snow,Blowing Snow"
"-79.63","43.68","TORONTO INTL A","6158731","2022-02-19 06:00","2022","02","19","06:00","-4.2","","-6.5","","84","","","","28","","50","","1.2","","98.24","","","","-14","","Snow,Blowing Snow"
"-79.63","43.68","TORONTO INTL A","6158731","2022-02-19 07:00","2022","02","19","07:00","-7.1","","-10.0","","80","","","","29","","40","","3.2","","98.46","","","","-17","","Snow,Blowing Snow"
"-79.63","43.68","TORONTO INTL A","6158731","2022-02-19 08:00","2022","02","19","08:00","-8.7","","-13.2","","70","","","","28","","45","","4.8","","98.68","","","","-20","","Blowing Snow"
"-79.63","43.68","TORONTO INTL A","6158731","2022-02-19 09:00","2022","02","19","09:00","-8.7","","-13.1","","71","","","","26","","35","","4.8","","98.88","","","","-18","","Snow Showers,Blowing Snow"
"-79.63","43.68","TORONTO INTL A","6158731","2022-02-19 10:00","2022","02","19","10:00","-8.2","","-12.3","","73","","","","25","","44","","4.8","","98.94","","","","-19","","Blowing Snow"
"-79.63","43.68","TORONTO INTL A","6158731","2022-02-19 11:00","2022","02","19","11:00","-7.4","","-11.3","","74","","","","25","","58","","3.2","","98.99","","","","-19","","Blowing Snow"
"-79.63","43.68","TORONTO INTL A","6158731","2022-02-19 12:00","2022","02","19","12:00","-6.8","","-10.4","","76","","","","30","","46","","3.2","","99.25","","","","-17","","Snow,Blowing Snow"
"-79.63","43.68","TORONTO INTL A","6158731","2022-02-19 13:00","2022","02","19","13:00","-7.1","","-12.3","","67","","","","29","","52","","3.2","","99.44","","","","-18","","Snow,Blowing Snow"
"-79.63","43.68","TORONTO INTL A","6158731","2022-02-19 14:00","2022","02","19","14:00","-6.9","","-13.4","","60","","","","30","","45","","19.3","","99.62","","","","-17","","Blowing Snow"
"-79.63","43.68","TORONTO INTL A","6158731","2022-02-19 15:00","2022","02","19","15:00","-7.3","","-13.3","","62","","","","30","","45","","6.4","","99.82","","","","-18","","Blowing Snow"
"-79.63","43.68","TORONTO INTL A","6158731","2022-02-19 16:00","2022","02","19","16:00","-7.8","","-12.9","","67","","","","31","","42","","24.1","","100.01","","","","-18","","Blowing Snow"
"-79.63","43.68","TORONTO INTL A","6158731","2022-02-19 17:00","2022","02","19","17:00","-8.2","","-15.6","","55","","","","30","","41","","19.3","","100.17","","","","-18","","Blowing Snow"
"-79.63","43.68","TORONTO INTL A","6158731","2022-02-19 18:00","2022","02","19","18:00","-8.9","","-15.4","","59","","","","31","","24","","24.1","","100.33","","","","-17","","NA"
"-79.63","43.68","TORONTO INTL A","6158731","2022-02-19 19:00","2022","02","19","19:00","-9.7","","-14.8","","67","","","","29","","19","","24.1","","100.45","","","","-17","","Mainly Clear"
"-79.63","43.68","TORONTO INTL A","6158731","2022-02-19 20:00","2022","02","19","20:00","-10.1","","-14.9","","68","","","","26","","16","","24.1","","100.50","","","","-17","","NA"
"-79.63","43.68","TORONTO INTL A","6158731","2022-02-19 21:00","2022","02","19","21:00","-10.9","","-15.9","","67","","","","25","","16","","24.1","","100.58","","","","-18","","NA"
"-79.63","43.68","TORONTO INTL A","6158731","2022-02-19 22:00","2022","02","19","22:00","-9.6","","-14.2","","69","","","","24","","18","","24.1","","100.65","","","","-17","","Mostly Cloudy"
"-79.63","43.68","TORONTO INTL A","6158731","2022-02-19 23:00","2022","02","19","23:00","-8.9","","-12.7","","74","","","","21","","12","","24.1","","100.62","","","","-15","","NA"
"-79.63","43.68","TORONTO INTL A","6158731","2022-02-20 00:00","2022","02","20","00:00","-9.5","","-13.0","","76","","","","22","","19","","24.1","","100.50","","","","-17","","NA"
"-79.63","43.68","TORONTO INTL A","6158731","2022-02-20 01:00","2022","02","20","01:00","-9.5","","-13.6","","72","","","","23","","15","","24.1","","100.45","","","","-16","","Mostly Cloudy"
"-79.63","43.68","TORONTO INTL A","6158731","2022-02-20 02:00","2022","02","20","02:00","-9.2","","-14.4","","66","","","","21","","16","","24.1","","100.41","","","","-16","","NA"
"-79.63","43.68","TORONTO INTL A","6158731","2022-02-20 03:00","2022","02","20","03:00","-9.0","","-14.9","","62","","","","22","","11","","24.1","","100.40","","","","-14","","NA"
"-79.63","43.68","TORONTO INTL A","6158731","2022-02-20 04:00","2022","02","20","04:00","-9.0","","-15.1","","62","","","","19","","9","","24.1","","100.32","","","","-14","","Mostly Cloudy"
"-79.63","43.68","TORONTO INTL A","6158731","2022-02-20 05:00","2022","02","20","05:00","-8.6","","-14.6","","62","","","","19","","12","","24.1","","100.32","","","","-14","","NA"
"-79.63","43.68","TORONTO INTL A","6158731","2022-02-20 06:00","2022","02","20","06:00","-8.3","","-14.0","","64","","","","20","","10","","24.1","","100.27","","","","-13","","NA"
"-79.63","43.68","TORONTO INTL A","6158731","2022-02-20 07:00","2022","02","20","07:00","-8.0","","-12.8","","68","","","","18","","14","","24.1","","100.14","","","","-14","","Cloudy"
"-79.63","43.68","TORONTO INTL A","6158731","2022-02-20 08:00","2022","02","20","08:00","-6.8","","-11.0","","72","","","","19","","15","","24.1","","100.09","","","","-13","","NA"
"-79.63","43.68","TORONTO INTL A","6158731","2022-02-20 09:00","2022","02","20","09:00","-6.3","","-10.7","","71","","","","20","","21","","24.1","","100.02","","","","-13","","NA"
"-79.63","43.68","TORONTO INTL A","6158731","2022-02-20 10:00","2022","02","20","10:00","-5.5","","-10.5","","68","","","","20","","24","","24.1","","99.85","","","","-13","","Mostly Cloudy"
"-79.63","43.68","TORONTO INTL A","6158731","2022-02-20 11:00","2022","02","20","11:00","-3.5","","-10.6","","58","","","","21","","22","","24.1","","99.70","","","","-10","","NA"
"-79.63","43.68","TORONTO INTL A","6158731","2022-02-20 12:00","2022","02","20","12:00","-1.6","","-11.0","","49","","","","21","","42","","24.1","","99.57","","","","-10","","NA"
"-79.63","43.68","TORONTO INTL A","6158731","2022-02-20 13:00","2022","02","20","13:00","0.0","","-10.2","","46","","","","21","","28","","24.1","","99.36","","","","-6","","Mainly Clear"
"-79.63","43.68","TORONTO INTL A","6158731","2022-02-20 14:00","2022","02","20","14:00","2.1","","-9.7","","41","","","","20","","30","","24.1","","99.20","","","","","","NA"
"-79.63","43.68","TORONTO INTL A","6158731","2022-02-20 15:00","2022","02","20","15:00","3.5","","-9.1","","39","","","","21","","30","","24.1","","99.06","","","","","","NA"
"-79.63","43.68","TORONTO INTL A","6158731","2022-02-20 16:00","2022","02","20","16:00","4.8","","-7.7","","40","","","","21","","41","","24.1","","98.95","","","","","","Clear"
"-79.63","43.68","TORONTO INTL A","6158731","2022-02-20 17:00","2022","02","20","17:00","5.2","","-6.0","","44","","","","21","","22","","24.1","","98.88","","","","","","NA"
"-79.63","43.68","TORONTO INTL A","6158731","2022-02-20 18:00","2022","02","20","18:00","5.6","","-5.1","","46","","","","21","","25","","24.1","","98.84","","","","","","NA"
"-79.63","43.68","TORONTO INTL A","6158731","2022-02-20 19:00","2022","02","20","19:00","6.0","","-4.1","","48","","","","22","","28","","24.1","","98.92","","","","","","Mainly Clear"
"-79.63","43.68","TORONTO INTL A","6158731","2022-02-20 20:00","2022","02","20","20:00","6.6","","-3.0","","50","","","","24","","37","","24.1","","99.12","","","","","","NA"
"-79.63","43.68","TORONTO INTL A","6158731","2022-02-20 21:00","2022","02","20","21:00","6.0","","-2.3","","55","","","","24","","34","","24.1","","99.25","","","","","","NA"
"-79.63","43.68","TORONTO INTL A","6158731","2022-02-20 22:00","2022","02","20","22:00","6.0","","-1.9","","57","","","","23","","23","","24.1","","99.36","","","","","","Mostly Cloudy"
"-79.63","43.68","TORONTO INTL A","6158731","2022-02-20 23:00","2022","02","20","23:00","5.7","","-1.4","","60","","","","22","","18","","24.1","","99.42","","","","","","NA"
"-79.63","43.68","TORONTO INTL A","6158731","2022-02-21 00:00","2022","02","21","00:00","5.4","","-1.3","","62","","","","22","","15","","24.1","","99.44","","","","","","NA"
"-79.63","43.68","TORONTO INTL A","6158731","2022-02-21 01:00","2022","02","21","01:00","4.7","","-1.1","","66","","","","22","","10","","24.1","","99.51","","","","","","Cloudy"
"-79.63","43.68","TORONTO INTL A","6158731","2022-02-21 02:00","2022","02","21","02:00","4.2","","-1.1","","68","","","","23","","7","","24.1","","99.56","","","","","","NA"
"-79.63","43.68","TORONTO INTL A","6158731","2022-02-21 03:00","2022","02","21","03:00","3.2","","-0.9","","75","","","","26","","7","","24.1","","99.61","","","","","","NA"
"-79.63","43.68","TORONTO INTL A","6158731","2022-02-21 04:00","2022","02","21","04:00","2.5","","-0.8","","79","","","","36","","22","","24.1","","99.73","","","","","","Mostly Cloudy"
"-79.63","43.68","TORONTO INTL A","6158731","2022-02-21 05:00","2022","02","21","05:00","1.2","","-1.9","","80","","","","1","","15","","24.1","","99.83","","","","","","NA"
"-79.63","43.68","TORONTO INTL A","6158731","2022-02-21 06:00","2022","02","21","06:00","0.4","","-2.7","","80","","","","1","","13","","24.1","","99.95","","","","","","NA"
"-79.63","43.68","TORONTO INTL A","6158731","2022-02-21 07:00","2022","02","21","07:00","0.4","","-2.9","","79","","","","1","","12","","24.1","","99.98","","","","","","Cloudy"
"-79.63","43.68","TORONTO INTL A","6158731","2022-02-21 08:00","2022","02","21","08:00","0.6","","-2.9","","77","","","","2","","11","","24.1","","100.08","","","","","","NA"
"-79.63","43.68","TORONTO INTL A","6158731","2022-02-21 09:00","2022","02","21","09:00","1.1","","-2.9","","75","","","","36","","8","","24.1","","100.15","","","","","","NA"
"-79.63","43.68","TORONTO INTL A","6158731","2022-02-21 10:00","2022","02","21","10:00","1.8","","-3.0","","70","","","","3","","10","","24.1","","100.18","","","","","","Mainly Clear"
"-79.63","43.68","TORONTO INTL A","6158731","2022-02-21 11:00","2022","02","21","11:00","3.1","","-2.8","","65","","","","5","","7","","24.1","","100.19","","","","","","NA"
"-79.63","43.68","TORONTO INTL A","6158731","2022-02-21 12:00","2022","02","21","12:00","4.5","","-1.9","","63","","","","3","","9","","24.1","","100.20","","","","","","NA"
"-79.63","43.68","TORONTO INTL A","6158731","2022-02-21 13:00","2022","02","21","13:00","4.9","","-2.5","","59","","","","5","","13","","24.1","","100.13","","","","","","Mostly Cloudy"
"-79.63","43.68","TORONTO INTL A","6158731","2022-02-21 14:00","2022","02","21","14:00","6.0","","-1.9","","57","","","","7","","11","","24.1","","100.06","","","","","","NA"
"-79.63","43.68","TORONTO INTL A","6158731","2022-02-21 15:00","2022","02","21","15:00","5.8","","-2.1","","57","","","","9","","13","","24.1","","100.03","","","","","","NA"
"-79.63","43.68","TORONTO INTL A","6158731","2022-02-21 16:00","2022","02","21","16:00","5.4","","-1.9","","59","","","","8","","12","","24.1","","100.07","","","","","","Mostly Cloudy"
"-79.63","43.68","TORONTO INTL A","6158731","2022-02-21 17:00","2022","02","21","17:00","4.3","","-2.4","","62","","","","8","","14","","24.1","","100.12","","","","","","NA"
"-79.63","43.68","TORONTO INTL A","6158731","2022-02-21 18:00","2022","02","21","18:00","3.8","","-1.8","","67","","","","8","","13","","24.1","","100.17","","","","","","NA"
"-79.63","43.68","TORONTO INTL A","6158731","2022-02-21 19:00","2022","02","21","19:00","3.2","","-1.1","","73","","","","10","","20","","24.1","","100.22","","","","","","Mostly Cloudy"
"-79.63","43.68","TORONTO INTL A","6158731","2022-02-21 20:00","2022","02","21","20:00","2.3","","-1.8","","74","","","","9","","18","","24.1","","100.18","","","","","","NA"
"-79.63","43.68","TORONTO INTL A","6158731","2022-02-21 21:00","2022","02","21","21:00","1.9","","-2.4","","73","","","","10","","16","","24.1","","100.15","","","","","","NA"
"-79.63","43.68","TORONTO INTL A","6158731","2022-02-21 22:00","2022","02","21","22:00","1.1","","-3.0","","74","","","","10","","13","","24.1","","100.18","","","","","","Mostly Cloudy"
"-79.63","43.68","TORONTO INTL A","6158731","2022-02-21 23:00","2022","02","21","23:00","0.5","","-3.6","","74","","","","9","","25","","24.1","","100.14","","","","","","NA"
"-79.63","43.68","TORONTO INTL A","6158731","2022-02-22 00:00","2022","02","22","00:00","0.0","","-3.9","","75","","","","9","","13","","24.1","","100.09","","","","-4","","NA"
"-79.63","43.68","TORONTO INTL A","6158731","2022-02-22 01:00","2022","02","22","01:00","-0.6","","-4.6","","75","","","","9","","24","","24.1","","100.03","","","","-7","","Mostly Cloudy"
"-79.63","43.68","TORONTO INTL A","6158731","2022-02-22 02:00","2022","02","22","02:00","-0.6","","-4.4","","76","","","","9","","13","","24.1","","99.97","","","","-5","","NA"
"-79.63","43.68","TORONTO INTL A","6158731","2022-02-22 03:00","2022","02","22","03:00","-0.7","","-4.5","","76","","","","9","","16","","24.1","","99.91","","","","-5","","NA"
"-79.63","43.68","TORONTO INTL A","6158731","2022-02-22 04:00","2022","02","22","04:00","-0.6","","-4.2","","76","","","","10","","14","","24.1","","99.79","","","","-5","","Cloudy"
"-79.63","43.68","TORONTO INTL A","6158731","2022-02-22 05:00","2022","02","22","05:00","-0.4","","-3.8","","78","","","","10","","12","","24.1","","99.72","","","","-4","","NA"
"-79.63","43.68","TORONTO INTL A","6158731","2022-02-22 06:00","2022","02","22","06:00","-0.2","","-3.2","","80","","","","7","","10","","24.1","","99.69","","","","-4","","NA"
"-79.63","43.68","TORONTO INTL A","6158731","2022-02-22 07:00","2022","02","22","07:00","0.0","","-2.5","","83","","","","10","","10","","24.1","","99.61","","","","-3","","Cloudy"
"-79.63","43.68","TORONTO INTL A","6158731","2022-02-22 08:00","2022","02","22","08:00","0.2","","-2.1","","85","","","","8","","9","","24.1","","99.59","","","","","","NA"
"-79.63","43.68","TORONTO INTL A","6158731","2022-02-22 09:00","2022","02","22","09:00","0.7","","-1.7","","84","","","","11","","9","","24.1","","99.57","","","","","","NA"
"-79.63","43.68","TORONTO INTL A","6158731","2022-02-22 10:00","2022","02","22","10:00","1.3","","-1.3","","83","","","","9","","10","","24.1","","99.41","","","","","","Cloudy"
"-79.63","43.68","TORONTO INTL A","6158731","2022-02-22 11:00","2022","02","22","11:00","2.2","","-0.3","","83","","","","10","","7","","24.1","","99.25","","","","","","NA"
"-79.63","43.68","TORONTO INTL A","6158731","2022-02-22 12:00","2022","02","22","12:00","3.0","","0.1","","81","","","","10","","6","","19.3","","99.12","","","","","","NA"
"-79.63","43.68","TORONTO INTL A","6158731","2022-02-22 13:00","2022","02","22","13:00","3.1","","1.1","","86","","","","9","","9","","3.2","","98.96","","","","","","Rain,Fog"
"-79.63","43.68","TORONTO INTL A","6158731","2022-02-22 14:00","2022","02","22","14:00","2.7","","2.5","","99","","","","11","","16","","6.4","","98.69","","","","","","Drizzle,Fog"
"-79.63","43.68","TORONTO INTL A","6158731","2022-02-22 15:00","2022","02","22","15:00","2.8","","2.8","","100","","","","8","","7","","3.6","","98.55","","","","","","Rain,Fog"
"-79.63","43.68","TORONTO INTL A","6158731","2022-02-22 16:00","2022","02","22","16:00","3.0","","3.0","","100","","","","5","","8","","4.0","","98.42","","","","","","Rain,Fog"
"-79.63","43.68","TORONTO INTL A","6158731","2022-02-22 17:00","2022","02","22","17:00","2.5","","2.5","","100","","","","29","","8","","3.6","","98.39","","","","","","Rain,Fog"
"-79.63","43.68","TORONTO INTL A","6158731","2022-02-22 18:00","2022","02","22","18:00","2.8","","2.8","","100","","","","36","","2","","4.0","","98.32","","","","","","Rain,Fog"
"-79.63","43.68","TORONTO INTL A","6158731","2022-02-22 19:00","2022","02","22","19:00","2.7","","2.7","","100","","","","28","","7","","4.8","","98.36","","","","","","Rain,Fog"
"-79.63","43.68","TORONTO INTL A","6158731","2022-02-22 20:00","2022","02","22","20:00","3.9","","3.9","","100","","","","18","","7","","4.0","","98.31","","","","","","Fog"
"-79.63","43.68","TORONTO INTL A","6158731","2022-02-22 21:00","2022","02","22","21:00","5.1","","5.1","","100","","","","18","","7","","3.2","","98.35","","","","","","Fog"
"-79.63","43.68","TORONTO INTL A","6158731","2022-02-22 22:00","2022","02","22","22:00","7.6","","7.6","","100","","","","23","","8","","6.4","","98.39","","","","","","Fog"
"-79.63","43.68","TORONTO INTL A","6158731","2022-02-22 23:00","2022","02","22","23:00","6.4","","6.4","","100","","","","24","","7","","6.4","","98.40","","","","","","Fog"
"-79.63","43.68","TORONTO INTL A","6158731","2022-02-23 00:00","2022","02","23","00:00","8.7","","8.7","","100","","","","23","","16","","9.7","","98.37","","","","","","Fog"
"-79.63","43.68","TORONTO INTL A","6158731","2022-02-23 01:00","2022","02","23","01:00","8.9","","8.9","","100","","","","26","","52","","9.7","","98.51","","","","","","Rain,Fog"
"-79.63","43.68","TORONTO INTL A","6158731","2022-02-23 02:00","2022","02","23","02:00","5.1","","2.8","","85","","","","27","","31","","24.1","","98.69","","","","","","NA"
"-79.63","43.68","TORONTO INTL A","6158731","2022-02-23 03:00","2022","02","23","03:00","2.5","","-0.5","","81","","","","30","","35","","24.1","","98.95","","","","","","NA"
"-79.63","43.68","TORONTO INTL A","6158731","2022-02-23 04:00","2022","02","23","04:00","0.5","","-3.3","","76","","","","28","","50","","24.1","","99.15","","","","","","Cloudy"
"-79.63","43.68","TORONTO INTL A","6158731","2022-02-23 05:00","2022","02","23","05:00","-0.7","","-4.1","","78","","","","30","","28","","24.1","","99.36","","","","-7","","NA"
"-79.63","43.68","TORONTO INTL A","6158731","2022-02-23 06:00","2022","02","23","06:00","-1.4","","-5.1","","76","","","","27","","32","","24.1","","99.53","","","","-9","","NA"
"-79.63","43.68","TORONTO INTL A","6158731","2022-02-23 07:00","2022","02","23","07:00","-2.8","","-8.1","","67","","","","27","","45","","24.1","","99.65","","","","-12","","Cloudy"
"-79.63","43.68","TORONTO INTL A","6158731","2022-02-23 08:00","2022","02","23","08:00","-3.6","","-8.3","","70","","","","28","","37","","19.3","","99.77","","","","-12","","Snow"
"-79.63","43.68","TORONTO INTL A","6158731","2022-02-23 09:00","2022","02","23","09:00","-3.7","","-8.0","","72","","","","28","","34","","16.1","","99.85","","","","-12","","Snow"
"-79.63","43.68","TORONTO INTL A","6158731","2022-02-23 10:00","2022","02","23","10:00","-4.3","","-11.3","","59","","","","29","","47","","24.1","","100.02","","","","-14","","Mostly Cloudy"
"-79.63","43.68","TORONTO INTL A","6158731","2022-02-23 11:00","2022","02","23","11:00","-4.8","","-11.5","","59","","","","28","","49","","24.1","","100.12","","","","-15","","Snow"
"-79.63","43.68","TORONTO INTL A","6158731","2022-02-23 12:00","2022","02","23","12:00","-5.0","","-12.1","","58","","","","30","","43","","24.1","","100.25","","","","-14","","NA"
"-79.63","43.68","TORONTO INTL A","6158731","2022-02-23 13:00","2022","02","23","13:00","-5.0","","-12.0","","58","","","","30","","45","","24.1","","100.32","","","","-15","","Mostly Cloudy"
"-79.63","43.68","TORONTO INTL A","6158731","2022-02-23 14:00","2022","02","23","14:00","-4.8","","-13.0","","53","","","","28","","43","","24.1","","100.49","","","","-14","","NA"
"-79.63","43.68","TORONTO INTL A","6158731","2022-02-23 15:00","2022","02","23","15:00","-5.0","","-13.2","","53","","","","30","","33","","24.1","","100.49","","","","-13","","NA"
"-79.63","43.68","TORONTO INTL A","6158731","2022-02-23 16:00","2022","02","23","16:00","-6.1","","-13.3","","57","","","","32","","37","","24.1","","100.70","","","","-15","","Mostly Cloudy"
"-79.63","43.68","TORONTO INTL A","6158731","2022-02-23 17:00","2022","02","23","17:00","-7.0","","-14.9","","53","","","","30","","34","","24.1","","100.76","","","","-16","","NA"
"-79.63","43.68","TORONTO INTL A","6158731","2022-02-23 18:00","2022","02","23","18:00","-9.1","","-15.1","","62","","","","35","","28","","24.1","","100.90","","","","-18","","NA"
"-79.63","43.68","TORONTO INTL A","6158731","2022-02-23 19:00","2022","02","23","19:00","-9.8","","-15.5","","64","","","","34","","24","","24.1","","101.05","","","","-18","","Mainly Clear"
"-79.63","43.68","TORONTO INTL A","6158731","2022-02-23 20:00","2022","02","23","20:00","-9.8","","-14.7","","68","","","","34","","21","","24.1","","101.11","","","","-18","","NA"
"-79.63","43.68","TORONTO INTL A","6158731","2022-02-23 21:00","2022","02","23","21:00","-10.1","","-14.7","","69","","","","35","","22","","24.1","","101.16","","","","-18","","NA"
"-79.63","43.68","TORONTO INTL A","6158731","2022-02-23 22:00","2022","02","23","22:00","-10.3","","-14.4","","72","","","","34","","15","","24.1","","101.23","","","","-17","","Mostly Cloudy"
"-79.63","43.68","TORONTO INTL A","6158731","2022-02-23 23:00","2022","02","23","23:00","-10.7","","-14.5","","74","","","","2","","9","","24.1","","101.25","","","","-16","","NA"
"-79.63","43.68","TORONTO INTL A","6158731","2022-02-24 00:00","2022","02","24","00:00","-10.5","","-14.5","","73","","","","35","","9","","24.1","","101.20","","","","-15","","NA"
"-79.63","43.68","TORONTO INTL A","6158731","2022-02-24 01:00","2022","02","24","01:00","-10.6","","-15.2","","69","","","","36","","11","","24.1","","101.23","","","","-16","","Mainly Clear"
"-79.63","43.68","TORONTO INTL A","6158731","2022-02-24 02:00","2022","02","24","02:00","-10.8","","-15.9","","66","","","","1","","12","","24.1","","101.24","","","","-17","","NA"
"-79.63","43.68","TORONTO INTL A","6158731","2022-02-24 03:00","2022","02","24","03:00","-11.0","","-16.2","","66","","","","36","","13","","24.1","","101.25","","","","-17","","NA"
"-79.63","43.68","TORONTO INTL A","6158731","2022-02-24 04:00","2022","02","24","04:00","-11.2","","-16.1","","67","","","","1","","12","","24.1","","101.25","","","","-17","","Mainly Clear"
"-79.63","43.68","TORONTO INTL A","6158731","2022-02-24 05:00","2022","02","24","05:00","-11.4","","-16.0","","69","","","","2","","11","","24.1","","101.24","","","","-17","","NA"
"-79.63","43.68","TORONTO INTL A","6158731","2022-02-24 06:00","2022","02","24","06:00","-11.6","","-16.0","","70","","","","2","","9","","24.1","","101.28","","","","-17","","NA"
"-79.63","43.68","TORONTO INTL A","6158731","2022-02-24 07:00","2022","02","24","07:00","-11.3","","-16.9","","64","","","","4","","12","","24.1","","101.31","","","","-17","","Mainly Clear"
"-79.63","43.68","TORONTO INTL A","6158731","2022-02-24 08:00","2022","02","24","08:00","-10.8","","-17.2","","60","","","","3","","17","","24.1","","101.40","","","","-18","","NA"
"-79.63","43.68","TORONTO INTL A","6158731","2022-02-24 09:00","2022","02","24","09:00","-9.6","","-15.9","","60","","","","6","","9","","24.1","","101.49","","","","-14","","NA"
"-79.63","43.68","TORONTO INTL A","6158731","2022-02-24 10:00","2022","02","24","10:00","-8.2","","-15.6","","56","","","","12","","10","","24.1","","101.46","","","","-13","","Clear"
"-79.63","43.68","TORONTO INTL A","6158731","2022-02-24 11:00","2022","02","24","11:00","-7.5","","-16.6","","49","","","","8","","14","","24.1","","101.39","","","","-13","","NA"
"-79.63","43.68","TORONTO INTL A","6158731","2022-02-24 12:00","2022","02","24","12:00","-6.8","","-15.9","","49","","","","7","","17","","24.1","","101.32","","","","-13","","NA"
"-79.63","43.68","TORONTO INTL A","6158731","2022-02-24 13:00","2022","02","24","13:00","-6.4","","-15.0","","51","","","","6","","16","","24.1","","101.22","","","","-13","","Mainly Clear"
"-79.63","43.68","TORONTO INTL A","6158731","2022-02-24 14:00","2022","02","24","14:00","-6.1","","-14.4","","52","","","","10","","10","","24.1","","101.17","","","","-11","","NA"
"-79.63","43.68","TORONTO INTL A","6158731","2022-02-24 15:00","2022","02","24","15:00","-6.3","","-15.6","","48","","","","11","","9","","24.1","","101.13","","","","-11","","NA"
"-79.63","43.68","TORONTO INTL A","6158731","2022-02-24 16:00","2022","02","24","16:00","-6.0","","-15.9","","46","","","","7","","14","","24.1","","100.99","","","","-12","","Clear"
"-79.63","43.68","TORONTO INTL A","6158731","2022-02-24 17:00","2022","02","24","17:00","-5.8","","-16.1","","45","","","","7","","12","","24.1","","101.01","","","","-11","","NA"
"-79.63","43.68","TORONTO INTL A","6158731","2022-02-24 18:00","2022","02","24","18:00","-6.6","","-14.3","","55","","","","9","","15","","24.1","","100.97","","","","-13","","NA"
"-79.63","43.68","TORONTO INTL A","6158731","2022-02-24 19:00","2022","02","24","19:00","-7.0","","-14.3","","56","","","","8","","14","","24.1","","100.94","","","","-13","","Mainly Clear"
"-79.63","43.68","TORONTO INTL A","6158731","2022-02-24 20:00","2022","02","24","20:00","-6.8","","-14.5","","54","","","","8","","21","","24.1","","100.81","","","","-14","","NA"
"-79.63","43.68","TORONTO INTL A","6158731","2022-02-24 21:00","2022","02","24","21:00","-6.7","","-14.0","","56","","","","4","","16","","24.1","","100.81","","","","-13","","NA"
"-79.63","43.68","TORONTO INTL A","6158731","2022-02-24 22:00","2022","02","24","22:00","-7.1","","-16.4","","48","","","","6","","16","","24.1","","100.68","","","","-13","","Mostly Cloudy"
"-79.63","43.68","TORONTO INTL A","6158731","2022-02-24 23:00","2022","02","24","23:00","-6.9","","-15.6","","50","","","","5","","22","","24.1","","100.58","","","","-14","","Snow"
"-79.63","43.68","TORONTO INTL A","6158731","2022-02-25 00:00","2022","02","25","00:00","-7.1","","-15.5","","52","","","","7","","21","","19.3","","100.46","","","","-14","","Snow"
"-79.63","43.68","TORONTO INTL A","6158731","2022-02-25 01:00","2022","02","25","01:00","-7.4","","-14.8","","56","","","","6","","22","","19.3","","100.35","","","","-15","","Snow"
"-79.63","43.68","TORONTO INTL A","6158731","2022-02-25 02:00","2022","02","25","02:00","-8.7","","-13.5","","69","","","","6","","27","","6.4","","100.16","","","","-17","","Snow"
"-79.63","43.68","TORONTO INTL A","6158731","2022-02-25 03:00","2022","02","25","03:00","-9.2","","-13.7","","70","","","","6","","24","","8.1","","99.99","","","","-18","","Snow"
"-79.63","43.68","TORONTO INTL A","6158731","2022-02-25 04:00","2022","02","25","04:00","-9.8","","-13.7","","74","","","","6","","25","","4.8","","99.75","","","","-19","","Snow"
"-79.63","43.68","TORONTO INTL A","6158731","2022-02-25 05:00","2022","02","25","05:00","-9.9","","-12.5","","81","","","","4","","21","","2.4","","99.66","","","","-18","","Snow"
"-79.63","43.68","TORONTO INTL A","6158731","2022-02-25 06:00","2022","02","25","06:00","-10.3","","-12.2","","86","","","","4","","18","","2.0","","99.44","","","","-18","","Snow"
"-79.63","43.68","TORONTO INTL A","6158731","2022-02-25 07:00","2022","02","25","07:00","-10.1","","-12.2","","85","","","","2","","27","","2.8","","99.36","","","","-19","","Snow"
"-79.63","43.68","TORONTO INTL A","6158731","2022-02-25 08:00","2022","02","25","08:00","-10.4","","-13.1","","81","","","","36","","35","","1.2","","99.59","","","","-21","","Snow,Snow Pellets"
"-79.63","43.68","TORONTO INTL A","6158731","2022-02-25 09:00","2022","02","25","09:00","-10.8","","-13.1","","83","","","","36","","29","","0.6","","99.66","","","","-20","","Moderate Snow,Blowing Snow"
"-79.63","43.68","TORONTO INTL A","6158731","2022-02-25 10:00","2022","02","25","10:00","-10.7","","-13.6","","80","","","","36","","32","","1.6","","99.82","","","","-21","","Snow,Blowing Snow"
"-79.63","43.68","TORONTO INTL A","6158731","2022-02-25 11:00","2022","02","25","11:00","-9.8","","-12.7","","80","","","","34","","30","","1.6","","100.01","","","","-19","","Snow"
"-79.63","43.68","TORONTO INTL A","6158731","2022-02-25 12:00","2022","02","25","12:00","-8.9","","-12.5","","76","","","","35","","30","","4.0","","100.15","","","","-18","","Snow"
"-79.63","43.68","TORONTO INTL A","6158731","2022-02-25 13:00","2022","02","25","13:00","-7.5","","-12.0","","70","","","","35","","23","","24.1","","100.24","","","","-15","","Mostly Cloudy"
"-79.63","43.68","TORONTO INTL A","6158731","2022-02-25 14:00","2022","02","25","14:00","-6.9","","-12.1","","67","","","","34","","18","","24.1","","100.30","","","","-14","","NA"
"-79.63","43.68","TORONTO INTL A","6158731","2022-02-25 15:00","2022","02","25","15:00","-6.1","","-11.6","","66","","","","34","","14","","24.1","","100.39","","","","-12","","NA"
"-79.63","43.68","TORONTO INTL A","6158731","2022-02-25 16:00","2022","02","25","16:00","-5.8","","-11.9","","62","","","","35","","21","","24.1","","100.51","","","","-13","","Mainly Clear"
"-79.63","43.68","TORONTO INTL A","6158731","2022-02-25 17:00","2022","02","25","17:00","-6.1","","-11.9","","64","","","","35","","18","","24.1","","100.61","","","","-13","","NA"
"-79.63","43.68","TORONTO INTL A","6158731","2022-02-25 18:00","2022","02","25","18:00","-6.8","","-11.9","","67","","","","35","","21","","24.1","","100.70","","","","-14","","NA"
"-79.63","43.68","TORONTO INTL A","6158731","2022-02-25 19:00","2022","02","25","19:00","-7.5","","-12.2","","69","","","","33","","12","","24.1","","100.85","","","","-13","","Mainly Clear"
"-79.63","43.68","TORONTO INTL A","6158731","2022-02-25 20:00","2022","02","25","20:00","-8.0","","-12.5","","70","","","","35","","17","","24.1","","100.84","","","","-15","","NA"
"-79.63","43.68","TORONTO INTL A","6158731","2022-02-25 21:00","2022","02","25","21:00","-8.5","","-13.3","","69","","","","32","","16","","24.1","","100.88","","","","-15","","NA"
"-79.63","43.68","TORONTO INTL A","6158731","2022-02-25 22:00","2022","02","25","22:00","-9.3","","-13.8","","70","","","","31","","14","","24.1","","100.93","","","","-16","","Clear"
"-79.63","43.68","TORONTO INTL A","6158731","2022-02-25 23:00","2022","02","25","23:00","-9.4","","-13.8","","70","","","","31","","11","","24.1","","100.95","","","","-15","","NA"
"-79.63","43.68","TORONTO INTL A","6158731","2022-02-26 00:00","2022","02","26","00:00","-10.3","","-14.0","","74","","","","25","","8","","24.1","","100.94","","","","-15","","NA"
"-79.63","43.68","TORONTO INTL A","6158731","2022-02-26 01:00","2022","02","26","01:00","-12.4","","-15.6","","77","","","","25","","10","","24.1","","100.92","","","","-18","","Clear"
"-79.63","43.68","TORONTO INTL A","6158731","2022-02-26 02:00","2022","02","26","02:00","-12.3","","-15.2","","79","","","","25","","9","","24.1","","100.92","","","","-18","","NA"
"-79.63","43.68","TORONTO INTL A","6158731","2022-02-26 03:00","2022","02","26","03:00","-12.6","","-15.3","","81","","","","26","","13","","24.1","","100.89","","","","-19","","NA"
"-79.63","43.68","TORONTO INTL A","6158731","2022-02-26 04:00","2022","02","26","04:00","-12.6","","-15.2","","81","","","","26","","13","","24.1","","100.89","","","","-19","","Clear"
"-79.63","43.68","TORONTO INTL A","6158731","2022-02-26 05:00","2022","02","26","05:00","-12.9","","-15.4","","82","","","","26","","8","","24.1","","100.93","","","","-18","","NA"
"-79.63","43.68","TORONTO INTL A","6158731","2022-02-26 06:00","2022","02","26","06:00","-11.5","","-14.1","","82","","","","23","","12","","24.1","","100.91","","","","-18","","NA"
"-79.63","43.68","TORONTO INTL A","6158731","2022-02-26 07:00","2022","02","26","07:00","-10.9","","-13.4","","82","","","","22","","9","","24.1","","100.88","","","","-16","","Mainly Clear"
"-79.63","43.68","TORONTO INTL A","6158731","2022-02-26 08:00","2022","02","26","08:00","-10.3","","-12.7","","83","","","","24","","13","","24.1","","100.89","","","","-17","","NA"
"-79.63","43.68","TORONTO INTL A","6158731","2022-02-26 09:00","2022","02","26","09:00","-7.7","","-11.6","","74","","","","23","","17","","24.1","","100.88","","","","-14","","NA"
"-79.63","43.68","TORONTO INTL A","6158731","2022-02-26 10:00","2022","02","26","10:00","-5.7","","-10.4","","70","","","","23","","13","","24.1","","100.82","","","","-11","","Mostly Cloudy"
"-79.63","43.68","TORONTO INTL A","6158731","2022-02-26 11:00","2022","02","26","11:00","-4.3","","-10.0","","65","","","","25","","23","","24.1","","100.78","","","","-11","","NA"
"-79.63","43.68","TORONTO INTL A","6158731","2022-02-26 12:00","2022","02","26","12:00","-3.5","","-10.7","","58","","","","26","","26","","24.1","","100.70","","","","-11","","NA"
"-79.63","43.68","TORONTO INTL A","6158731","2022-02-26 13:00","2022","02","26","13:00","-3.3","","-10.4","","58","","","","26","","34","","24.1","","100.61","","","","-11","","Cloudy"
"-79.63","43.68","TORONTO INTL A","6158731","2022-02-26 14:00","2022","02","26","14:00","-2.7","","-9.4","","60","","","","24","","25","","24.1","","100.51","","","","-9","","Snow Showers"
"-79.63","43.68","TORONTO INTL A","6158731","2022-02-26 15:00","2022","02","26","15:00","-2.6","","-9.3","","60","","","","25","","23","","24.1","","100.39","","","","-9","","NA"
"-79.63","43.68","TORONTO INTL A","6158731","2022-02-26 16:00","2022","02","26","16:00","-2.3","","-9.0","","60","","","","24","","26","","24.1","","100.31","","","","-9","","Mostly Cloudy"
"-79.63","43.68","TORONTO INTL A","6158731","2022-02-26 17:00","2022","02","26","17:00","-2.7","","-8.4","","65","","","","25","","25","","24.1","","100.26","","","","-9","","NA"
"-79.63","43.68","TORONTO INTL A","6158731","2022-02-26 18:00","2022","02","26","18:00","-3.2","","-8.3","","68","","","","24","","28","","24.1","","100.18","","","","-10","","Snow Showers"
"-79.63","43.68","TORONTO INTL A","6158731","2022-02-26 19:00","2022","02","26","19:00","-3.5","","-9.3","","64","","","","24","","34","","24.1","","100.13","","","","-11","","Blowing Snow"
"-79.63","43.68","TORONTO INTL A","6158731","2022-02-26 20:00","2022","02","26","20:00","-3.8","","-8.8","","68","","","","21","","17","","24.1","","100.12","","","","-10","","NA"
"-79.63","43.68","TORONTO INTL A","6158731","2022-02-26 21:00","2022","02","26","21:00","-4.1","","-9.1","","68","","","","22","","24","","24.1","","100.04","","","","-11","","NA"
"-79.63","43.68","TORONTO INTL A","6158731","2022-02-26 22:00","2022","02","26","22:00","-4.2","","-9.0","","70","","","","22","","23","","24.1","","99.94","","","","-11","","Clear"
"-79.63","43.68","TORONTO INTL A","6158731","2022-02-26 23:00","2022","02","26","23:00","-4.2","","-9.5","","67","","","","23","","32","","24.1","","99.82","","","","-12","","NA"
"-79.63","43.68","TORONTO INTL A","6158731","2022-02-27 00:00","2022","02","27","00:00","-4.6","","-9.7","","67","","","","24","","31","","24.1","","99.74","","","","-13","","NA"
"-79.63","43.68","TORONTO INTL A","6158731","2022-02-27 01:00","2022","02","27","01:00","-4.5","","-9.9","","66","","","","25","","32","","24.1","","99.70","","","","-13","","Clear"
"-79.63","43.68","TORONTO INTL A","6158731","2022-02-27 02:00","2022","02","27","02:00","-4.7","","-9.9","","67","","","","23","","27","","24.1","","99.64","","","","-12","","NA"
"-79.63","43.68","TORONTO INTL A","6158731","2022-02-27 03:00","2022","02","27","03:00","-4.8","","-9.5","","69","","","","23","","28","","24.1","","99.54","","","","-12","","NA"
"-79.63","43.68","TORONTO INTL A","6158731","2022-02-27 04:00","2022","02","27","04:00","-4.8","","-9.3","","71","","","","23","","25","","24.1","","99.48","","","","-12","","Mainly Clear"
"-79.63","43.68","TORONTO INTL A","6158731","2022-02-27 05:00","2022","02","27","05:00","-4.2","","-8.6","","71","","","","24","","24","","24.1","","99.43","","","","-11","","NA"
"-79.63","43.68","TORONTO INTL A","6158731","2022-02-27 06:00","2022","02","27","06:00","-3.5","","-7.9","","72","","","","23","","24","","24.1","","99.40","","","","-10","","NA"
"-79.63","43.68","TORONTO INTL A","6158731","2022-02-27 07:00","2022","02","27","07:00","-3.3","","-7.5","","73","","","","24","","21","","24.1","","99.33","","","","-10","","Cloudy"
"-79.63","43.68","TORONTO INTL A","6158731","2022-02-27 08:00","2022","02","27","08:00","-2.3","","-6.5","","73","","","","26","","33","","24.1","","99.29","","","","-10","","NA"
"-79.63","43.68","TORONTO INTL A","6158731","2022-02-27 09:00","2022","02","27","09:00","-2.1","","-6.2","","74","","","","25","","27","","24.1","","99.30","","","","-9","","NA"
"-79.63","43.68","TORONTO INTL A","6158731","2022-02-27 10:00","2022","02","27","10:00","-1.4","","-5.0","","76","","","","26","","27","","8.1","","99.28","","","","-8","","Snow"
"-79.63","43.68","TORONTO INTL A","6158731","2022-02-27 11:00","2022","02","27","11:00","0.4","","-4.9","","68","","","","27","","28","","24.1","","99.23","","","","","","NA"
"-79.63","43.68","TORONTO INTL A","6158731","2022-02-27 12:00","2022","02","27","12:00","-0.7","","-6.0","","67","","","","30","","37","","24.1","","99.32","","","","-8","","NA"
"-79.63","43.68","TORONTO INTL A","6158731","2022-02-27 13:00","2022","02","27","13:00","-0.6","","-6.9","","62","","","","31","","39","","24.1","","99.32","","","","-8","","Mostly Cloudy"
"-79.63","43.68","TORONTO INTL A","6158731","2022-02-27 14:00","2022","02","27","14:00","-1.0","","-7.4","","62","","","","30","","29","","24.1","","99.37","","","","-8","","NA"
"-79.63","43.68","TORONTO INTL A","6158731","2022-02-27 15:00","2022","02","27","15:00","-0.9","","-8.1","","59","","","","30","","41","","24.1","","99.40","","","","-9","","NA"
"-79.63","43.68","TORONTO INTL A","6158731","2022-02-27 16:00","2022","02","27","16:00","-1.8","","-6.7","","69","","","","29","","34","","16.1","","99.48","","","","-9","","Snow Showers"
"-79.63","43.68","TORONTO INTL A","6158731","2022-02-27 17:00","2022","02","27","17:00","-3.2","","-6.1","","80","","","","29","","41","","2.4","","99.56","","","","-12","","Snow Showers,Blowing Snow"
"-79.63","43.68","TORONTO INTL A","6158731","2022-02-27 18:00","2022","02","27","18:00","-2.9","","-8.1","","68","","","","30","","33","","24.1","","99.65","","","","-11","","NA"
"-79.63","43.68","TORONTO INTL A","6158731","2022-02-27 19:00","2022","02","27","19:00","-3.9","","-8.1","","73","","","","32","","25","","24.1","","99.77","","","","-11","","Mostly Cloudy"
"-79.63","43.68","TORONTO INTL A","6158731","2022-02-27 20:00","2022","02","27","20:00","-4.0","","-8.2","","73","","","","31","","28","","24.1","","99.84","","","","-11","","NA"
"-79.63","43.68","TORONTO INTL A","6158731","2022-02-27 21:00","2022","02","27","21:00","-5.2","","-12.4","","57","","","","32","","35","","24.1","","99.93","","","","-14","","NA"
"-79.63","43.68","TORONTO INTL A","6158731","2022-02-27 22:00","2022","02","27","22:00","-6.1","","-13.4","","57","","","","32","","23","","24.1","","100.00","","","","-13","","Mainly Clear"
"-79.63","43.68","TORONTO INTL A","6158731","2022-02-27 23:00","2022","02","27","23:00","-7.1","","-13.4","","61","","","","32","","17","","24.1","","100.06","","","","-14","","NA"
"-79.63","43.68","TORONTO INTL A","6158731","2022-02-28 00:00","2022","02","28","00:00","-6.5","","-14.4","","54","","","","36","","23","","24.1","","100.13","","","","-14","","NA"
"-79.63","43.68","TORONTO INTL A","6158731","2022-02-28 01:00","2022","02","28","01:00","-7.9","","-16.6","","50","","","","2","","23","","24.1","","100.25","","","","-16","","Mostly Cloudy"
"-79.63","43.68","TORONTO INTL A","6158731","2022-02-28 02:00","2022","02","28","02:00","-9.5","","-18.4","","49","","","","1","","14","","24.1","","100.35","","","","-16","","NA"
"-79.63","43.68","TORONTO INTL A","6158731","2022-02-28 03:00","2022","02","28","03:00","-10.3","","-19.3","","48","","","","36","","17","","24.1","","100.41","","","","-18","","NA"
"-79.63","43.68","TORONTO INTL A","6158731","2022-02-28 04:00","2022","02","28","04:00","-10.8","","-19.3","","50","","","","36","","14","","24.1","","100.44","","","","-17","","Clear"
"-79.63","43.68","TORONTO INTL A","6158731","2022-02-28 05:00","2022","02","28","05:00","-11.9","","-19.4","","54","","","","1","","12","","24.1","","100.51","","","","-18","","NA"
"-79.63","43.68","TORONTO INTL A","6158731","2022-02-28 06:00","2022","02","28","06:00","-13.0","","-19.6","","58","","","","2","","10","","24.1","","100.57","","","","-19","","NA"
"-79.63","43.68","TORONTO INTL A","6158731","2022-02-28 07:00","2022","02","28","07:00","-12.8","","-18.9","","61","","","","2","","11","","24.1","","100.60","","","","-19","","Clear"
"-79.63","43.68","TORONTO INTL A","6158731","2022-02-28 08:00","2022","02","28","08:00","-11.9","","-18.9","","56","","","","2","","11","","24.1","","100.67","","","","-18","","NA"
"-79.63","43.68","TORONTO INTL A","6158731","2022-02-28 09:00","2022","02","28","09:00","-10.4","","-19.6","","48","","","","3","","11","","24.1","","100.70","","","","-16","","NA"
"-79.63","43.68","TORONTO INTL A","6158731","2022-02-28 10:00","2022","02","28","10:00","-9.2","","-18.8","","46","","","","1","","4","","24.1","","100.75","","","","-11","","Mainly Clear"
"-79.63","43.68","TORONTO INTL A","6158731","2022-02-28 11:00","2022","02","28","11:00","-8.1","","-18.3","","44","","","","1","","4","","24.1","","100.70","","","","-10","","NA"
"-79.63","43.68","TORONTO INTL A","6158731","2022-02-28 12:00","2022","02","28","12:00","-6.8","","-16.4","","47","","","","13","","11","","24.1","","100.70","","","","-12","","NA"
"-79.63","43.68","TORONTO INTL A","6158731","2022-02-28 13:00","2022","02","28","13:00","-6.3","","-15.6","","48","","","","14","","7","","24.1","","100.63","","","","-10","","Mostly Cloudy"
"-79.63","43.68","TORONTO INTL A","6158731","2022-02-28 14:00","2022","02","28","14:00","-5.9","","-14.4","","51","","","","13","","9","","24.1","","100.52","","","","-10","","NA"
"-79.63","43.68","TORONTO INTL A","6158731","2022-02-28 15:00","2022","02","28","15:00","-6.3","","-12.9","","60","","","","15","","14","","24.1","","100.47","","","","-12","","NA"
"-79.63","43.68","TORONTO INTL A","6158731","2022-02-28 16:00","2022","02","28","16:00","-6.2","","-12.4","","62","","","","13","","14","","24.1","","100.44","","","","-12","","Cloudy"
"-79.63","43.68","TORONTO INTL A","6158731","2022-02-28 17:00","2022","02","28","17:00","-6.4","","-13.4","","58","","","","12","","13","","24.1","","100.36","","","","-12","","NA"
"-79.63","43.68","TORONTO INTL A","6158731","2022-02-28 18:00","2022","02","28","18:00","-6.2","","-12.7","","61","","","","12","","12","","24.1","","100.26","","","","-11","","NA"
"-79.63","43.68","TORONTO INTL A","6158731","2022-02-28 19:00","2022","02","28","19:00","-6.1","","-12.4","","62","","","","10","","12","","24.1","","100.23","","","","-11","","Cloudy"
"-79.63","43.68","TORONTO INTL A","6158731","2022-02-28 20:00","2022","02","28","20:00","-5.7","","-11.5","","64","","","","12","","12","","24.1","","100.16","","","","-11","","NA"
"-79.63","43.68","TORONTO INTL A","6158731","2022-02-28 21:00","2022","02","28","21:00","-5.2","","-9.7","","71","","","","11","","14","","24.1","","100.06","","","","-11","","NA"
"-79.63","43.68","TORONTO INTL A","6158731","2022-02-28 22:00","2022","02","28","22:00","-4.6","","-8.8","","72","","","","11","","14","","24.1","","100.00","","","","-10","","Cloudy"
"-79.63","43.68","TORONTO INTL A","6158731","2022-02-28 23:00","2022","02","28","23:00","-4.3","","-9.9","","65","","","","10","","22","","24.1","","99.84","","","","-11","","NA"
