"Longitude (x)","Latitude (y)","Station Name","Climate ID","Date/Time (LST)","Year","Month","Day","Time (LST)","Temp (°C)","Temp Flag","Dew Point Temp (°C)","Dew Point Temp Flag","Rel Hum (%)","Rel Hum Flag","Precip. Amount (mm)","Precip. Amount Flag","Wind Dir (10s deg)","Wind Dir Flag","Wind Spd (km/h)","Wind Spd Flag","Visibility (km)","Visibility Flag","Stn Press (kPa)","Stn Press Flag","Hmdx","Hmdx Flag","Wind Chill","Wind Chill Flag","Weather"
"-79.63","43.68","TORONTO INTL A","6158731","2021-04-01 00:00","2021","04","01","00:00","1.0","","-6.8","","56","","","","33","","35","","24.1","","99.81","","","","","","NA"
"-79.63","43.68","TORONTO INTL A","6158731","2021-04-01 01:00","2021","04","01","01:00","0.1","","-7.8","","55","","","","35","","22","","24.1","","99.86","","","","","","Mostly Cloudy"
"-79.63","43.68","TORONTO INTL A","6158731","2021-04-01 02:00","2021","04","01","02:00","-0.4","","-9.2","","52","","","","30","","22","","24.1","","99.85","","","","-6","","NA"
"-79.63","43.68","TORONTO INTL A","6158731","2021-04-01 03:00","2021","04","01","03:00","-1.3","","-9.3","","55","","","","31","","23","","24.1","","99.83","","","","-7","","NA"
"-79.63","43.68","TORONTO INTL A","6158731","2021-04-01 04:00","2021","04","01","04:00","-1.9","","-8.7","","60","","","","31","","18","","24.1","","99.80","","","","-7","","Clear"
"-79.63","43.68","TORONTO INTL A","6158731","2021-04-01 05:00","2021","04","01","05:00","-2.2","","-8.9","","60","","","","31","","21","","24.1","","99.76","","","","-8","","NA"
"-79.63","43.68","TORONTO INTL A","6158731","2021-04-01 06:00","2021","04","01","06:00","-2.3","","-9.6","","58","","","","31","","22","","24.1","","99.77","","","","-8","","NA"
"-79.63","43.68","TORONTO INTL A","6158731","2021-04-01 07:00","2021","04","01","07:00","-1.6","","-9.9","","53","","","","32","","28","","24.1","","99.80","","","","-8","","Clear"
"-79.63","43.68","TORONTO INTL A","6158731","2021-04-01 08:00","2021","04","01","08:00","-0.5","","-8.5","","55","","","","32","","35","","24.1","","99.81","","","","-8","","NA"
"-79.63","43.68","TORONTO INTL A","6158731","2021-04-01 09:00","2021","04","01","09:00","0.0","","-6.1","","63","","","","33","","29","","24.1","","99.85","","","","-6","","NA"
"-79.63","43.68","TORONTO INTL A","6158731","2021-04-01 10:00","2021","04","01","10:00","-0.8","","-5.9","","68","","","","34","","23","","24.1","","99.96","","","","-7","","Snow Grains"
"-79.63","43.68","TORONTO INTL A","6158731","2021-04-01 11:00","2021","04","01","11:00","-0.1","","-6.9","","60","","","","33","","33","","24.1","","99.98","","","","-7","","NA"
"-79.63","43.68","TORONTO INTL A","6158731","2021-04-01 12:00","2021","04","01","12:00","1.1","","-7.4","","53","","","","36","","29","","24.1","","99.98","","","","","","NA"
"-79.63","43.68","TORONTO INTL A","6158731","2021-04-01 13:00","2021","04","01","13:00","1.8","","-10.7","","39","","","","34","","36","","24.1","","100.02","","","","","","Mainly Clear"
"-79.63","43.68","TORONTO INTL A","6158731","2021-04-01 14:00","2021","04","01","14:00","1.4","","-10.0","","43","","","","35","","38","","24.1","","100.04","","","","","","NA"
"-79.63","43.68","TORONTO INTL A","6158731","2021-04-01 15:00","2021","04","01","15:00","0.2","","-10.9","","43","","","","31","","44","","24.1","","100.09","","","","","","NA"
"-79.63","43.68","TORONTO INTL A","6158731","2021-04-01 16:00","2021","04","01","16:00","-2.1","","-12.0","","47","","","","34","","41","","24.1","","100.17","","","","-10","","Mainly Clear"
"-79.63","43.68","TORONTO INTL A","6158731","2021-04-01 17:00","2021","04","01","17:00","-1.6","","-12.4","","44","","","","33","","44","","24.1","","100.22","","","","-10","","NA"
"-79.63","43.68","TORONTO INTL A","6158731","2021-04-01 18:00","2021","04","01","18:00","-1.1","","-13.6","","39","","","","34","","42","","24.1","","100.25","","","","-9","","NA"
"-79.63","43.68","TORONTO INTL A","6158731","2021-04-01 19:00","2021","04","01","19:00","-1.3","","-14.8","","35","","","","34","","35","","24.1","","100.30","","","","-9","","Clear"
"-79.63","43.68","TORONTO INTL A","6158731","2021-04-01 20:00","2021","04","01","20:00","-1.6","","-13.7","","40","","","","33","","28","","24.1","","100.38","","","","-8","","NA"
"-79.63","43.68","TORONTO INTL A","6158731","2021-04-01 21:00","2021","04","01","21:00","-1.9","","-13.8","","40","","","","34","","18","","24.1","","100.44","","","","-7","","NA"
"-79.63","43.68","TORONTO INTL A","6158731","2021-04-01 22:00","2021","04","01","22:00","-1.6","","-17.1","","30","","","","35","","29","","24.1","","100.45","","","","-8","","Clear"
"-79.63","43.68","TORONTO INTL A","6158731","2021-04-01 23:00","2021","04","01","23:00","-2.0","","-17.0","","31","","","","35","","22","","24.1","","100.47","","","","-8","","NA"
"-79.63","43.68","TORONTO INTL A","6158731","2021-04-02 00:00","2021","04","02","00:00","-2.2","","-17.0","","32","","","","34","","26","","24.1","","100.48","","","","-9","","NA"
"-79.63","43.68","TORONTO INTL A","6158731","2021-04-02 01:00","2021","04","02","01:00","-2.9","","-16.6","","34","","","","35","","19","","24.1","","100.50","","","","-9","","Clear"
"-79.63","43.68","TORONTO INTL A","6158731","2021-04-02 02:00","2021","04","02","02:00","-3.0","","-16.9","","34","","","","35","","21","","24.1","","100.51","","","","-9","","NA"
"-79.63","43.68","TORONTO INTL A","6158731","2021-04-02 03:00","2021","04","02","03:00","-3.2","","-16.9","","34","","","","34","","26","","24.1","","100.54","","","","-10","","NA"
"-79.63","43.68","TORONTO INTL A","6158731","2021-04-02 04:00","2021","04","02","04:00","-3.4","","-17.3","","34","","","","35","","30","","24.1","","100.59","","","","-11","","Clear"
"-79.63","43.68","TORONTO INTL A","6158731","2021-04-02 05:00","2021","04","02","05:00","-3.7","","-17.1","","35","","","","33","","31","","24.1","","100.66","","","","-11","","NA"
"-79.63","43.68","TORONTO INTL A","6158731","2021-04-02 06:00","2021","04","02","06:00","-4.1","","-17.3","","35","","","","34","","25","","24.1","","100.75","","","","-11","","NA"
"-79.63","43.68","TORONTO INTL A","6158731","2021-04-02 07:00","2021","04","02","07:00","-3.6","","-16.9","","35","","","","34","","21","","24.1","","100.81","","","","-10","","Clear"
"-79.63","43.68","TORONTO INTL A","6158731","2021-04-02 08:00","2021","04","02","08:00","-2.4","","-17.2","","31","","","","35","","23","","24.1","","100.86","","","","-9","","NA"
"-79.63","43.68","TORONTO INTL A","6158731","2021-04-02 09:00","2021","04","02","09:00","-0.9","","-17.3","","28","","","","34","","25","","24.1","","100.89","","","","-7","","NA"
"-79.63","43.68","TORONTO INTL A","6158731","2021-04-02 10:00","2021","04","02","10:00","0.6","","-18.0","","24","","","","36","","33","","24.1","","100.91","","","","","","Clear"
"-79.63","43.68","TORONTO INTL A","6158731","2021-04-02 11:00","2021","04","02","11:00","1.2","","-17.9","","23","","","","32","","37","","24.1","","100.89","","","","","","NA"
"-79.63","43.68","TORONTO INTL A","6158731","2021-04-02 12:00","2021","04","02","12:00","2.1","","-16.5","","24","","","","33","","29","","24.1","","100.85","","","","","","NA"
"-79.63","43.68","TORONTO INTL A","6158731","2021-04-02 13:00","2021","04","02","13:00","3.0","","-17.4","","21","","","","34","","30","","24.1","","100.79","","","","","","Clear"
"-79.63","43.68","TORONTO INTL A","6158731","2021-04-02 14:00","2021","04","02","14:00","3.6","","-16.5","","22","","","","34","","26","","24.1","","100.71","","","","","","NA"
"-79.63","43.68","TORONTO INTL A","6158731","2021-04-02 15:00","2021","04","02","15:00","4.1","","-15.8","","22","","","","36","","19","","24.1","","100.64","","","","","","NA"
"-79.63","43.68","TORONTO INTL A","6158731","2021-04-02 16:00","2021","04","02","16:00","4.6","","-15.8","","21","","","","33","","22","","24.1","","100.63","","","","","","Clear"
"-79.63","43.68","TORONTO INTL A","6158731","2021-04-02 17:00","2021","04","02","17:00","4.0","","-15.8","","22","","","","34","","20","","24.1","","100.63","","","","","","NA"
"-79.63","43.68","TORONTO INTL A","6158731","2021-04-02 18:00","2021","04","02","18:00","2.3","","-15.6","","26","","","","35","","28","","24.1","","100.66","","","","","","NA"
"-79.63","43.68","TORONTO INTL A","6158731","2021-04-02 19:00","2021","04","02","19:00","0.6","","-16.6","","27","","","","36","","22","","24.1","","100.68","","","","","","Clear"
"-79.63","43.68","TORONTO INTL A","6158731","2021-04-02 20:00","2021","04","02","20:00","0.0","","-16.5","","28","","","","34","","20","","24.1","","100.68","","","","-5","","NA"
"-79.63","43.68","TORONTO INTL A","6158731","2021-04-02 21:00","2021","04","02","21:00","-0.9","","-14.8","","34","","","","31","","16","","24.1","","100.70","","","","-6","","NA"
"-79.63","43.68","TORONTO INTL A","6158731","2021-04-02 22:00","2021","04","02","22:00","-2.3","","-14.1","","40","","","","31","","9","","24.1","","100.68","","","","-6","","Clear"
"-79.63","43.68","TORONTO INTL A","6158731","2021-04-02 23:00","2021","04","02","23:00","-2.8","","-12.7","","47","","","","28","","6","","24.1","","100.65","","","","-5","","NA"
"-79.63","43.68","TORONTO INTL A","6158731","2021-04-03 00:00","2021","04","03","00:00","-2.4","","-11.8","","49","","","","26","","7","","24.1","","100.65","","","","-5","","NA"
"-79.63","43.68","TORONTO INTL A","6158731","2021-04-03 01:00","2021","04","03","01:00","-4.0","","-11.8","","55","","","","25","","10","","24.1","","100.66","","","","-8","","Clear"
"-79.63","43.68","TORONTO INTL A","6158731","2021-04-03 02:00","2021","04","03","02:00","-3.1","","-11.7","","52","","","","29","","8","","24.1","","100.64","","","","-6","","NA"
"-79.63","43.68","TORONTO INTL A","6158731","2021-04-03 03:00","2021","04","03","03:00","-3.1","","-12.0","","50","","","","29","","7","","24.1","","100.65","","","","-6","","NA"
"-79.63","43.68","TORONTO INTL A","6158731","2021-04-03 04:00","2021","04","03","04:00","-4.1","","-11.9","","55","","","","25","","6","","24.1","","100.68","","","","-7","","Clear"
"-79.63","43.68","TORONTO INTL A","6158731","2021-04-03 05:00","2021","04","03","05:00","-4.2","","-10.9","","60","","","","21","","8","","24.1","","100.69","","","","-8","","NA"
"-79.63","43.68","TORONTO INTL A","6158731","2021-04-03 06:00","2021","04","03","06:00","-3.3","","-10.7","","57","","","","15","","6","","24.1","","100.66","","","","-6","","NA"
"-79.63","43.68","TORONTO INTL A","6158731","2021-04-03 07:00","2021","04","03","07:00","-1.8","","-9.8","","55","","","","18","","7","","24.1","","100.69","","","","-4","","Mainly Clear"
"-79.63","43.68","TORONTO INTL A","6158731","2021-04-03 08:00","2021","04","03","08:00","1.6","","-8.4","","48","","","","19","","10","","24.1","","100.63","","","","","","NA"
"-79.63","43.68","TORONTO INTL A","6158731","2021-04-03 09:00","2021","04","03","09:00","3.1","","-6.2","","50","","","","23","","18","","24.1","","100.58","","","","","","NA"
"-79.63","43.68","TORONTO INTL A","6158731","2021-04-03 10:00","2021","04","03","10:00","4.5","","-4.6","","52","","","","21","","17","","24.1","","100.52","","","","","","Mostly Cloudy"
"-79.63","43.68","TORONTO INTL A","6158731","2021-04-03 11:00","2021","04","03","11:00","7.3","","-6.1","","38","","","","19","","18","","24.1","","100.43","","","","","","NA"
"-79.63","43.68","TORONTO INTL A","6158731","2021-04-03 12:00","2021","04","03","12:00","7.6","","-2.4","","49","","","","16","","14","","24.1","","100.34","","","","","","NA"
"-79.63","43.68","TORONTO INTL A","6158731","2021-04-03 13:00","2021","04","03","13:00","7.6","","-3.7","","45","","","","16","","20","","24.1","","100.24","","","","","","Mostly Cloudy"
"-79.63","43.68","TORONTO INTL A","6158731","2021-04-03 14:00","2021","04","03","14:00","9.3","","-8.1","","29","","","","21","","26","","24.1","","100.10","","","","","","NA"
"-79.63","43.68","TORONTO INTL A","6158731","2021-04-03 15:00","2021","04","03","15:00","8.6","","-7.2","","32","","","","17","","23","","24.1","","100.00","","","","","","NA"
"-79.63","43.68","TORONTO INTL A","6158731","2021-04-03 16:00","2021","04","03","16:00","7.7","","-6.0","","37","","","","20","","28","","19.3","","100.07","","","","","","Rain Showers"
"-79.63","43.68","TORONTO INTL A","6158731","2021-04-03 17:00","2021","04","03","17:00","5.0","","-0.4","","68","","","","23","","36","","19.3","","100.14","","","","","","Rain Showers"
"-79.63","43.68","TORONTO INTL A","6158731","2021-04-03 18:00","2021","04","03","18:00","5.5","","-0.5","","65","","","","15","","9","","24.1","","100.05","","","","","","NA"
"-79.63","43.68","TORONTO INTL A","6158731","2021-04-03 19:00","2021","04","03","19:00","4.9","","-0.6","","68","","","","15","","11","","24.1","","100.00","","","","","","Cloudy"
"-79.63","43.68","TORONTO INTL A","6158731","2021-04-03 20:00","2021","04","03","20:00","4.2","","-1.2","","68","","","","14","","13","","24.1","","99.99","","","","","","NA"
"-79.63","43.68","TORONTO INTL A","6158731","2021-04-03 21:00","2021","04","03","21:00","3.6","","-0.7","","74","","","","13","","8","","24.1","","99.98","","","","","","NA"
"-79.63","43.68","TORONTO INTL A","6158731","2021-04-03 22:00","2021","04","03","22:00","3.2","","-0.7","","76","","","","10","","7","","24.1","","99.94","","","","","","Clear"
"-79.63","43.68","TORONTO INTL A","6158731","2021-04-03 23:00","2021","04","03","23:00","2.9","","-0.6","","78","","","","10","","8","","24.1","","99.87","","","","","","NA"
"-79.63","43.68","TORONTO INTL A","6158731","2021-04-04 00:00","2021","04","04","00:00","2.1","","-0.8","","81","","","","3","","8","","24.1","","99.83","","","","","","NA"
"-79.63","43.68","TORONTO INTL A","6158731","2021-04-04 01:00","2021","04","04","01:00","0.0","","-1.8","","88","","","","35","","7","","24.1","","99.80","","","","-2","","Clear"
"-79.63","43.68","TORONTO INTL A","6158731","2021-04-04 02:00","2021","04","04","02:00","1.1","","-0.6","","88","","","","36","","8","","24.1","","99.80","","","","","","NA"
"-79.63","43.68","TORONTO INTL A","6158731","2021-04-04 03:00","2021","04","04","03:00","-0.6","","-1.6","","93","","","","1","","10","","24.1","","99.83","","","","-4","","NA"
"-79.63","43.68","TORONTO INTL A","6158731","2021-04-04 04:00","2021","04","04","04:00","-0.8","","-1.9","","92","","","","32","","4","","24.1","","99.86","","","","-2","","Clear"
"-79.63","43.68","TORONTO INTL A","6158731","2021-04-04 05:00","2021","04","04","05:00","-0.3","","-1.5","","91","","","","33","","11","","24.1","","99.92","","","","-4","","NA"
"-79.63","43.68","TORONTO INTL A","6158731","2021-04-04 06:00","2021","04","04","06:00","-1.2","","-2.6","","91","","","","32","","8","","16.1","","99.97","","","","-4","","NA"
"-79.63","43.68","TORONTO INTL A","6158731","2021-04-04 07:00","2021","04","04","07:00","0.4","","-1.4","","88","","","","32","","13","","19.3","","100.02","","","","","","Clear"
"-79.63","43.68","TORONTO INTL A","6158731","2021-04-04 08:00","2021","04","04","08:00","3.6","","-1.0","","72","","","","35","","13","","24.1","","100.06","","","","","","NA"
"-79.63","43.68","TORONTO INTL A","6158731","2021-04-04 09:00","2021","04","04","09:00","6.7","","-1.2","","57","","","","35","","12","","24.1","","100.08","","","","","","NA"
"-79.63","43.68","TORONTO INTL A","6158731","2021-04-04 10:00","2021","04","04","10:00","9.6","","-1.5","","46","","","","35","","14","","24.1","","100.10","","","","","","Clear"
"-79.63","43.68","TORONTO INTL A","6158731","2021-04-04 11:00","2021","04","04","11:00","11.1","","-2.7","","38","","","","36","","14","","24.1","","100.11","","","","","","NA"
"-79.63","43.68","TORONTO INTL A","6158731","2021-04-04 12:00","2021","04","04","12:00","13.0","","-1.8","","36","","","","34","","10","","24.1","","100.09","","","","","","NA"
"-79.63","43.68","TORONTO INTL A","6158731","2021-04-04 13:00","2021","04","04","13:00","13.3","","-2.2","","34","","","","36","","5","","24.1","","100.08","","","","","","Clear"
"-79.63","43.68","TORONTO INTL A","6158731","2021-04-04 14:00","2021","04","04","14:00","14.8","","-0.9","","34","","","","5","","11","","24.1","","100.01","","","","","","NA"
"-79.63","43.68","TORONTO INTL A","6158731","2021-04-04 15:00","2021","04","04","15:00","13.1","","-0.8","","38","","","","16","","17","","24.1","","99.97","","","","","","NA"
"-79.63","43.68","TORONTO INTL A","6158731","2021-04-04 16:00","2021","04","04","16:00","13.7","","-0.9","","36","","","","14","","14","","19.3","","99.97","","","","","","Clear"
"-79.63","43.68","TORONTO INTL A","6158731","2021-04-04 17:00","2021","04","04","17:00","12.8","","-1.4","","37","","","","15","","12","","19.3","","99.99","","","","","","NA"
"-79.63","43.68","TORONTO INTL A","6158731","2021-04-04 18:00","2021","04","04","18:00","12.4","","-1.4","","38","","","","16","","5","","24.1","","99.97","","","","","","NA"
"-79.63","43.68","TORONTO INTL A","6158731","2021-04-04 19:00","2021","04","04","19:00","11.7","","-4.5","","32","","","","36","","15","","24.1","","99.99","","","","","","Clear"
"-79.63","43.68","TORONTO INTL A","6158731","2021-04-04 20:00","2021","04","04","20:00","11.0","","-3.3","","36","","","","32","","8","","24.1","","100.05","","","","","","NA"
"-79.63","43.68","TORONTO INTL A","6158731","2021-04-04 21:00","2021","04","04","21:00","9.3","","-2.6","","43","","","","32","","12","","24.1","","100.08","","","","","","NA"
"-79.63","43.68","TORONTO INTL A","6158731","2021-04-04 22:00","2021","04","04","22:00","7.8","","-2.9","","47","","","","33","","11","","24.1","","100.07","","","","","","Clear"
"-79.63","43.68","TORONTO INTL A","6158731","2021-04-04 23:00","2021","04","04","23:00","6.6","","-2.9","","51","","","","34","","14","","24.1","","100.06","","","","","","NA"
"-79.63","43.68","TORONTO INTL A","6158731","2021-04-05 00:00","2021","04","05","00:00","6.0","","-3.2","","52","","","","34","","16","","24.1","","100.08","","","","","","NA"
"-79.63","43.68","TORONTO INTL A","6158731","2021-04-05 01:00","2021","04","05","01:00","4.9","","-3.3","","55","","","","36","","17","","24.1","","100.08","","","","","","Clear"
"-79.63","43.68","TORONTO INTL A","6158731","2021-04-05 02:00","2021","04","05","02:00","4.5","","-3.1","","58","","","","35","","13","","24.1","","100.06","","","","","","NA"
"-79.63","43.68","TORONTO INTL A","6158731","2021-04-05 03:00","2021","04","05","03:00","4.1","","-3.2","","59","","","","35","","14","","24.1","","100.06","","","","","","NA"
"-79.63","43.68","TORONTO INTL A","6158731","2021-04-05 04:00","2021","04","05","04:00","4.8","","-3.1","","57","","","","34","","17","","24.1","","100.09","","","","","","Mainly Clear"
"-79.63","43.68","TORONTO INTL A","6158731","2021-04-05 05:00","2021","04","05","05:00","3.5","","-3.6","","60","","","","35","","9","","24.1","","100.08","","","","","","NA"
"-79.63","43.68","TORONTO INTL A","6158731","2021-04-05 06:00","2021","04","05","06:00","3.1","","-3.4","","62","","","","32","","6","","24.1","","100.07","","","","","","NA"
"-79.63","43.68","TORONTO INTL A","6158731","2021-04-05 07:00","2021","04","05","07:00","6.5","","-2.6","","52","","","","8","","8","","24.1","","100.05","","","","","","Mainly Clear"
"-79.63","43.68","TORONTO INTL A","6158731","2021-04-05 08:00","2021","04","05","08:00","8.1","","-2.6","","47","","","","15","","3","","24.1","","100.10","","","","","","NA"
"-79.63","43.68","TORONTO INTL A","6158731","2021-04-05 09:00","2021","04","05","09:00","9.8","","-4.1","","37","","","","12","","11","","24.1","","100.15","","","","","","NA"
"-79.63","43.68","TORONTO INTL A","6158731","2021-04-05 10:00","2021","04","05","10:00","10.4","","-4.3","","35","","","","14","","11","","24.1","","100.11","","","","","","Mostly Cloudy"
"-79.63","43.68","TORONTO INTL A","6158731","2021-04-05 11:00","2021","04","05","11:00","10.9","","-3.2","","37","","","","12","","13","","24.1","","100.07","","","","","","NA"
"-79.63","43.68","TORONTO INTL A","6158731","2021-04-05 12:00","2021","04","05","12:00","10.7","","-3.2","","37","","","","15","","7","","24.1","","100.01","","","","","","NA"
"-79.63","43.68","TORONTO INTL A","6158731","2021-04-05 13:00","2021","04","05","13:00","11.1","","-2.8","","37","","","","20","","7","","24.1","","99.97","","","","","","Cloudy"
"-79.63","43.68","TORONTO INTL A","6158731","2021-04-05 14:00","2021","04","05","14:00","11.6","","-3.2","","35","","","","21","","8","","24.1","","99.91","","","","","","NA"
"-79.63","43.68","TORONTO INTL A","6158731","2021-04-05 15:00","2021","04","05","15:00","12.4","","-2.4","","35","","","","21","","8","","24.1","","99.84","","","","","","NA"
"-79.63","43.68","TORONTO INTL A","6158731","2021-04-05 16:00","2021","04","05","16:00","12.8","","-1.7","","36","","","","15","","8","","24.1","","99.78","","","","","","Mostly Cloudy"
"-79.63","43.68","TORONTO INTL A","6158731","2021-04-05 17:00","2021","04","05","17:00","13.0","","-1.3","","37","","","","17","","9","","24.1","","99.73","","","","","","NA"
"-79.63","43.68","TORONTO INTL A","6158731","2021-04-05 18:00","2021","04","05","18:00","12.2","","0.8","","45","","","","22","","4","","24.1","","99.75","","","","","","NA"
"-79.63","43.68","TORONTO INTL A","6158731","2021-04-05 19:00","2021","04","05","19:00","11.0","","0.2","","47","","","","15","","6","","24.1","","99.69","","","","","","Mainly Clear"
"-79.63","43.68","TORONTO INTL A","6158731","2021-04-05 20:00","2021","04","05","20:00","9.9","","0.2","","51","","","","9","","5","","24.1","","99.73","","","","","","NA"
"-79.63","43.68","TORONTO INTL A","6158731","2021-04-05 21:00","2021","04","05","21:00","9.1","","-0.1","","53","","","","0","","1","","24.1","","99.72","","","","","","NA"
"-79.63","43.68","TORONTO INTL A","6158731","2021-04-05 22:00","2021","04","05","22:00","7.3","","-0.2","","59","","","","22","","4","","24.1","","99.71","","","","","","Clear"
"-79.63","43.68","TORONTO INTL A","6158731","2021-04-05 23:00","2021","04","05","23:00","7.2","","0.1","","60","","","","30","","8","","24.1","","99.71","","","","","","NA"
"-79.63","43.68","TORONTO INTL A","6158731","2021-04-06 00:00","2021","04","06","00:00","7.4","","1.0","","64","","","","30","","8","","24.1","","99.68","","","","","","NA"
"-79.63","43.68","TORONTO INTL A","6158731","2021-04-06 01:00","2021","04","06","01:00","5.7","","0.5","","69","","","","1","","9","","24.1","","99.65","","","","","","Mainly Clear"
"-79.63","43.68","TORONTO INTL A","6158731","2021-04-06 02:00","2021","04","06","02:00","5.5","","0.3","","69","","","","1","","8","","24.1","","99.60","","","","","","NA"
"-79.63","43.68","TORONTO INTL A","6158731","2021-04-06 03:00","2021","04","06","03:00","3.2","","-0.6","","76","","","","34","","4","","24.1","","99.61","","","","","","NA"
"-79.63","43.68","TORONTO INTL A","6158731","2021-04-06 04:00","2021","04","06","04:00","2.6","","-1.1","","76","","","","28","","5","","24.1","","99.67","","","","","","Mainly Clear"
"-79.63","43.68","TORONTO INTL A","6158731","2021-04-06 05:00","2021","04","06","05:00","3.4","","-1.1","","72","","","","10","","4","","24.1","","99.71","","","","","","NA"
"-79.63","43.68","TORONTO INTL A","6158731","2021-04-06 06:00","2021","04","06","06:00","5.5","","-2.5","","56","","","","36","","1","","24.1","","99.79","","","","","","NA"
"-79.63","43.68","TORONTO INTL A","6158731","2021-04-06 07:00","2021","04","06","07:00","6.8","","-0.8","","58","","","","9","","5","","24.1","","99.77","","","","","","Mostly Cloudy"
"-79.63","43.68","TORONTO INTL A","6158731","2021-04-06 08:00","2021","04","06","08:00","9.4","","-6.3","","32","","","","12","","18","","24.1","","99.74","","","","","","NA"
"-79.63","43.68","TORONTO INTL A","6158731","2021-04-06 09:00","2021","04","06","09:00","9.9","","-6.3","","31","","","","14","","19","","24.1","","99.77","","","","","","NA"
"-79.63","43.68","TORONTO INTL A","6158731","2021-04-06 10:00","2021","04","06","10:00","9.9","","-5.4","","34","","","","13","","19","","24.1","","99.74","","","","","","Mostly Cloudy"
"-79.63","43.68","TORONTO INTL A","6158731","2021-04-06 11:00","2021","04","06","11:00","11.2","","-5.2","","31","","","","14","","19","","24.1","","99.67","","","","","","NA"
"-79.63","43.68","TORONTO INTL A","6158731","2021-04-06 12:00","2021","04","06","12:00","12.6","","-5.2","","29","","","","13","","13","","24.1","","99.63","","","","","","NA"
"-79.63","43.68","TORONTO INTL A","6158731","2021-04-06 13:00","2021","04","06","13:00","12.5","","-6.3","","26","","","","13","","16","","24.1","","99.58","","","","","","Cloudy"
"-79.63","43.68","TORONTO INTL A","6158731","2021-04-06 14:00","2021","04","06","14:00","13.6","","-6.0","","25","","","","13","","13","","24.1","","99.56","","","","","","NA"
"-79.63","43.68","TORONTO INTL A","6158731","2021-04-06 15:00","2021","04","06","15:00","13.8","","-5.1","","26","","","","10","","16","","24.1","","99.46","","","","","","NA"
"-79.63","43.68","TORONTO INTL A","6158731","2021-04-06 16:00","2021","04","06","16:00","13.6","","-6.0","","25","","","","7","","14","","24.1","","99.47","","","","","","Cloudy"
"-79.63","43.68","TORONTO INTL A","6158731","2021-04-06 17:00","2021","04","06","17:00","12.9","","-6.1","","26","","","","10","","19","","24.1","","99.39","","","","","","NA"
"-79.63","43.68","TORONTO INTL A","6158731","2021-04-06 18:00","2021","04","06","18:00","12.8","","-5.9","","27","","","","12","","9","","24.1","","99.41","","","","","","NA"
"-79.63","43.68","TORONTO INTL A","6158731","2021-04-06 19:00","2021","04","06","19:00","11.7","","-4.7","","31","","","","15","","10","","24.1","","99.38","","","","","","Mostly Cloudy"
"-79.63","43.68","TORONTO INTL A","6158731","2021-04-06 20:00","2021","04","06","20:00","10.7","","-6.3","","30","","","","9","","6","","24.1","","99.39","","","","","","NA"
"-79.63","43.68","TORONTO INTL A","6158731","2021-04-06 21:00","2021","04","06","21:00","9.8","","-10.4","","23","","","","5","","8","","24.1","","99.43","","","","","","NA"
"-79.63","43.68","TORONTO INTL A","6158731","2021-04-06 22:00","2021","04","06","22:00","10.3","","-11.7","","20","","","","7","","16","","24.1","","99.44","","","","","","Mostly Cloudy"
"-79.63","43.68","TORONTO INTL A","6158731","2021-04-06 23:00","2021","04","06","23:00","10.1","","-7.0","","29","","","","8","","10","","24.1","","99.45","","","","","","NA"
"-79.63","43.68","TORONTO INTL A","6158731","2021-04-07 00:00","2021","04","07","00:00","8.5","","-6.8","","33","","","","10","","10","","24.1","","99.48","","","","","","NA"
"-79.63","43.68","TORONTO INTL A","6158731","2021-04-07 01:00","2021","04","07","01:00","7.3","","-5.0","","41","","","","4","","9","","24.1","","99.51","","","","","","Mainly Clear"
"-79.63","43.68","TORONTO INTL A","6158731","2021-04-07 02:00","2021","04","07","02:00","7.1","","-4.7","","43","","","","3","","8","","24.1","","99.42","","","","","","NA"
"-79.63","43.68","TORONTO INTL A","6158731","2021-04-07 03:00","2021","04","07","03:00","5.6","","-4.7","","47","","","","3","","14","","24.1","","99.41","","","","","","NA"
"-79.63","43.68","TORONTO INTL A","6158731","2021-04-07 04:00","2021","04","07","04:00","6.0","","-4.8","","46","","","","2","","9","","24.1","","99.44","","","","","","Clear"
"-79.63","43.68","TORONTO INTL A","6158731","2021-04-07 05:00","2021","04","07","05:00","5.6","","-4.3","","49","","","","1","","8","","24.1","","99.47","","","","","","NA"
"-79.63","43.68","TORONTO INTL A","6158731","2021-04-07 06:00","2021","04","07","06:00","6.1","","-4.8","","45","","","","4","","4","","24.1","","99.52","","","","","","NA"
"-79.63","43.68","TORONTO INTL A","6158731","2021-04-07 07:00","2021","04","07","07:00","7.4","","-3.4","","46","","","","32","","8","","24.1","","99.58","","","","","","Mainly Clear"
"-79.63","43.68","TORONTO INTL A","6158731","2021-04-07 08:00","2021","04","07","08:00","10.4","","-7.3","","28","","","","7","","10","","24.1","","99.60","","","","","","NA"
"-79.63","43.68","TORONTO INTL A","6158731","2021-04-07 09:00","2021","04","07","09:00","12.5","","-7.5","","24","","","","10","","18","","24.1","","99.63","","","","","","NA"
"-79.63","43.68","TORONTO INTL A","6158731","2021-04-07 10:00","2021","04","07","10:00","13.6","","-7.1","","23","","","","9","","18","","24.1","","99.67","","","","","","Mainly Clear"
"-79.63","43.68","TORONTO INTL A","6158731","2021-04-07 11:00","2021","04","07","11:00","14.7","","-6.5","","22","","","","10","","16","","24.1","","99.65","","","","","","NA"
"-79.63","43.68","TORONTO INTL A","6158731","2021-04-07 12:00","2021","04","07","12:00","15.7","","-5.4","","23","","","","11","","12","","24.1","","99.62","","","","","","NA"
"-79.63","43.68","TORONTO INTL A","6158731","2021-04-07 13:00","2021","04","07","13:00","16.7","","-3.3","","25","","","","11","","19","","24.1","","99.60","","","","","","Mainly Clear"
"-79.63","43.68","TORONTO INTL A","6158731","2021-04-07 14:00","2021","04","07","14:00","16.7","","-3.6","","25","","","","11","","26","","24.1","","99.54","","","","","","NA"
"-79.63","43.68","TORONTO INTL A","6158731","2021-04-07 15:00","2021","04","07","15:00","16.7","","-5.5","","21","","","","8","","20","","24.1","","99.51","","","","","","NA"
"-79.63","43.68","TORONTO INTL A","6158731","2021-04-07 16:00","2021","04","07","16:00","16.7","","-6.5","","20","","","","9","","20","","24.1","","99.51","","","","","","Mainly Clear"
"-79.63","43.68","TORONTO INTL A","6158731","2021-04-07 17:00","2021","04","07","17:00","16.2","","-0.4","","32","","","","12","","12","","24.1","","99.53","","","","","","NA"
"-79.63","43.68","TORONTO INTL A","6158731","2021-04-07 18:00","2021","04","07","18:00","15.3","","1.8","","40","","","","9","","11","","24.1","","99.50","","","","","","NA"
"-79.63","43.68","TORONTO INTL A","6158731","2021-04-07 19:00","2021","04","07","19:00","14.1","","0.4","","39","","","","8","","13","","24.1","","99.49","","","","","","Mainly Clear"
"-79.63","43.68","TORONTO INTL A","6158731","2021-04-07 20:00","2021","04","07","20:00","13.7","","-0.5","","37","","","","9","","12","","24.1","","99.49","","","","","","NA"
"-79.63","43.68","TORONTO INTL A","6158731","2021-04-07 21:00","2021","04","07","21:00","12.8","","-0.3","","40","","","","9","","9","","24.1","","99.51","","","","","","NA"
"-79.63","43.68","TORONTO INTL A","6158731","2021-04-07 22:00","2021","04","07","22:00","12.4","","0.4","","43","","","","10","","5","","24.1","","99.50","","","","","","Clear"
"-79.63","43.68","TORONTO INTL A","6158731","2021-04-07 23:00","2021","04","07","23:00","11.8","","0.5","","46","","","","6","","7","","24.1","","99.45","","","","","","NA"
"-79.63","43.68","TORONTO INTL A","6158731","2021-04-08 00:00","2021","04","08","00:00","11.2","","1.0","","49","","","","7","","9","","24.1","","99.46","","","","","","NA"
"-79.63","43.68","TORONTO INTL A","6158731","2021-04-08 01:00","2021","04","08","01:00","10.8","","1.6","","53","","","","8","","7","","24.1","","99.47","","","","","","Clear"
"-79.63","43.68","TORONTO INTL A","6158731","2021-04-08 02:00","2021","04","08","02:00","11.1","","4.1","","62","","","","8","","10","","24.1","","99.41","","","","","","NA"
"-79.63","43.68","TORONTO INTL A","6158731","2021-04-08 03:00","2021","04","08","03:00","11.0","","5.4","","68","","","","9","","10","","24.1","","99.40","","","","","","NA"
"-79.63","43.68","TORONTO INTL A","6158731","2021-04-08 04:00","2021","04","08","04:00","10.3","","5.3","","71","","","","9","","13","","24.1","","99.38","","","","","","Clear"
"-79.63","43.68","TORONTO INTL A","6158731","2021-04-08 05:00","2021","04","08","05:00","9.7","","5.4","","74","","","","7","","18","","24.1","","99.34","","","","","","NA"
"-79.63","43.68","TORONTO INTL A","6158731","2021-04-08 06:00","2021","04","08","06:00","8.7","","4.8","","76","","","","5","","9","","24.1","","99.37","","","","","","NA"
"-79.63","43.68","TORONTO INTL A","6158731","2021-04-08 07:00","2021","04","08","07:00","10.6","","6.2","","74","","","","6","","7","","24.1","","99.39","","","","","","Clear"
"-79.63","43.68","TORONTO INTL A","6158731","2021-04-08 08:00","2021","04","08","08:00","12.7","","6.2","","64","","","","7","","17","","24.1","","99.37","","","","","","NA"
"-79.63","43.68","TORONTO INTL A","6158731","2021-04-08 09:00","2021","04","08","09:00","14.5","","5.5","","55","","","","10","","18","","24.1","","99.36","","","","","","NA"
"-79.63","43.68","TORONTO INTL A","6158731","2021-04-08 10:00","2021","04","08","10:00","16.1","","5.3","","48","","","","11","","14","","24.1","","99.33","","","","","","Clear"
"-79.63","43.68","TORONTO INTL A","6158731","2021-04-08 11:00","2021","04","08","11:00","17.6","","5.5","","44","","","","7","","10","","24.1","","99.29","","","","","","NA"
"-79.63","43.68","TORONTO INTL A","6158731","2021-04-08 12:00","2021","04","08","12:00","19.3","","6.6","","43","","","","11","","18","","24.1","","99.22","","","","","","NA"
"-79.63","43.68","TORONTO INTL A","6158731","2021-04-08 13:00","2021","04","08","13:00","19.4","","6.0","","41","","","","8","","16","","24.1","","99.17","","","","","","Clear"
"-79.63","43.68","TORONTO INTL A","6158731","2021-04-08 14:00","2021","04","08","14:00","19.6","","6.5","","42","","","","8","","21","","24.1","","99.11","","","","","","NA"
"-79.63","43.68","TORONTO INTL A","6158731","2021-04-08 15:00","2021","04","08","15:00","19.8","","6.2","","41","","","","8","","27","","24.1","","99.04","","","","","","NA"
"-79.63","43.68","TORONTO INTL A","6158731","2021-04-08 16:00","2021","04","08","16:00","20.1","","6.8","","42","","","","8","","28","","24.1","","98.98","","","","","","Mainly Clear"
"-79.63","43.68","TORONTO INTL A","6158731","2021-04-08 17:00","2021","04","08","17:00","20.1","","6.7","","42","","","","9","","27","","24.1","","98.92","","","","","","NA"
"-79.63","43.68","TORONTO INTL A","6158731","2021-04-08 18:00","2021","04","08","18:00","19.6","","6.0","","40","","","","8","","28","","24.1","","98.88","","","","","","NA"
"-79.63","43.68","TORONTO INTL A","6158731","2021-04-08 19:00","2021","04","08","19:00","18.9","","5.4","","41","","","","8","","27","","24.1","","98.84","","","","","","Mainly Clear"
"-79.63","43.68","TORONTO INTL A","6158731","2021-04-08 20:00","2021","04","08","20:00","19.1","","5.2","","40","","","","8","","27","","24.1","","98.85","","","","","","NA"
"-79.63","43.68","TORONTO INTL A","6158731","2021-04-08 21:00","2021","04","08","21:00","17.8","","5.7","","45","","","","8","","19","","24.1","","98.86","","","","","","NA"
"-79.63","43.68","TORONTO INTL A","6158731","2021-04-08 22:00","2021","04","08","22:00","16.5","","6.1","","50","","","","15","","14","","24.1","","98.95","","","","","","Clear"
"-79.63","43.68","TORONTO INTL A","6158731","2021-04-08 23:00","2021","04","08","23:00","13.9","","5.9","","58","","","","12","","7","","24.1","","98.96","","","","","","NA"
"-79.63","43.68","TORONTO INTL A","6158731","2021-04-09 00:00","2021","04","09","00:00","13.0","","5.8","","61","","","","15","","7","","24.1","","98.99","","","","","","NA"
"-79.63","43.68","TORONTO INTL A","6158731","2021-04-09 01:00","2021","04","09","01:00","12.0","","5.8","","65","","","","15","","10","","24.1","","99.00","","","","","","Mostly Cloudy"
"-79.63","43.68","TORONTO INTL A","6158731","2021-04-09 02:00","2021","04","09","02:00","12.1","","5.9","","66","","","","11","","7","","24.1","","98.97","","","","","","NA"
"-79.63","43.68","TORONTO INTL A","6158731","2021-04-09 03:00","2021","04","09","03:00","11.6","","6.0","","68","","","","14","","7","","24.1","","98.97","","","","","","NA"
"-79.63","43.68","TORONTO INTL A","6158731","2021-04-09 04:00","2021","04","09","04:00","12.0","","6.3","","68","","","","11","","6","","24.1","","98.98","","","","","","Cloudy"
"-79.63","43.68","TORONTO INTL A","6158731","2021-04-09 05:00","2021","04","09","05:00","12.9","","7.3","","69","","","","15","","8","","24.1","","99.06","","","","","","Rain"
"-79.63","43.68","TORONTO INTL A","6158731","2021-04-09 06:00","2021","04","09","06:00","12.0","","9.1","","82","","","","13","","8","","24.1","","99.09","","","","","","Rain"
"-79.63","43.68","TORONTO INTL A","6158731","2021-04-09 07:00","2021","04","09","07:00","12.5","","10.1","","85","","","","11","","5","","24.1","","99.13","","","","","","Mostly Cloudy"
"-79.63","43.68","TORONTO INTL A","6158731","2021-04-09 08:00","2021","04","09","08:00","14.4","","10.6","","77","","","","16","","13","","24.1","","99.16","","","","","","NA"
"-79.63","43.68","TORONTO INTL A","6158731","2021-04-09 09:00","2021","04","09","09:00","14.8","","10.2","","74","","","","14","","10","","24.1","","99.19","","","","","","NA"
"-79.63","43.68","TORONTO INTL A","6158731","2021-04-09 10:00","2021","04","09","10:00","15.6","","10.0","","69","","","","16","","12","","24.1","","99.21","","","","","","Mostly Cloudy"
"-79.63","43.68","TORONTO INTL A","6158731","2021-04-09 11:00","2021","04","09","11:00","15.3","","9.7","","69","","","","17","","11","","24.1","","99.22","","","","","","NA"
"-79.63","43.68","TORONTO INTL A","6158731","2021-04-09 12:00","2021","04","09","12:00","14.4","","10.2","","76","","","","13","","13","","24.1","","99.22","","","","","","Rain"
"-79.63","43.68","TORONTO INTL A","6158731","2021-04-09 13:00","2021","04","09","13:00","16.0","","10.8","","71","","","","14","","10","","24.1","","99.21","","","","","","Mostly Cloudy"
"-79.63","43.68","TORONTO INTL A","6158731","2021-04-09 14:00","2021","04","09","14:00","18.0","","10.7","","62","","","","12","","15","","24.1","","99.18","","","","","","NA"
"-79.63","43.68","TORONTO INTL A","6158731","2021-04-09 15:00","2021","04","09","15:00","18.6","","11.2","","62","","","","12","","17","","24.1","","99.14","","","","","","NA"
"-79.63","43.68","TORONTO INTL A","6158731","2021-04-09 16:00","2021","04","09","16:00","19.2","","11.5","","61","","","","12","","16","","24.1","","99.10","","","","","","Mainly Clear"
"-79.63","43.68","TORONTO INTL A","6158731","2021-04-09 17:00","2021","04","09","17:00","18.8","","11.0","","60","","","","12","","18","","24.1","","99.09","","","","","","NA"
"-79.63","43.68","TORONTO INTL A","6158731","2021-04-09 18:00","2021","04","09","18:00","17.6","","10.5","","63","","","","11","","17","","24.1","","99.12","","","","","","NA"
"-79.63","43.68","TORONTO INTL A","6158731","2021-04-09 19:00","2021","04","09","19:00","15.1","","10.1","","72","","","","9","","16","","24.1","","99.07","","","","","","Mostly Cloudy"
"-79.63","43.68","TORONTO INTL A","6158731","2021-04-09 20:00","2021","04","09","20:00","15.0","","10.9","","76","","","","12","","12","","24.1","","99.12","","","","","","NA"
"-79.63","43.68","TORONTO INTL A","6158731","2021-04-09 21:00","2021","04","09","21:00","13.8","","9.7","","76","","","","13","","6","","24.1","","99.12","","","","","","NA"
"-79.63","43.68","TORONTO INTL A","6158731","2021-04-09 22:00","2021","04","09","22:00","13.2","","9.4","","77","","","","12","","12","","24.1","","99.11","","","","","","Mainly Clear"
"-79.63","43.68","TORONTO INTL A","6158731","2021-04-09 23:00","2021","04","09","23:00","12.7","","9.4","","80","","","","12","","8","","24.1","","99.12","","","","","","NA"
"-79.63","43.68","TORONTO INTL A","6158731","2021-04-10 00:00","2021","04","10","00:00","12.6","","9.5","","82","","","","14","","12","","24.1","","99.10","","","","","","NA"
"-79.63","43.68","TORONTO INTL A","6158731","2021-04-10 01:00","2021","04","10","01:00","11.9","","9.5","","85","","","","14","","9","","24.1","","99.08","","","","","","Mainly Clear"
"-79.63","43.68","TORONTO INTL A","6158731","2021-04-10 02:00","2021","04","10","02:00","11.3","","9.8","","91","","","","10","","12","","24.1","","99.01","","","","","","NA"
"-79.63","43.68","TORONTO INTL A","6158731","2021-04-10 03:00","2021","04","10","03:00","11.0","","9.7","","92","","","","11","","9","","24.1","","99.00","","","","","","NA"
"-79.63","43.68","TORONTO INTL A","6158731","2021-04-10 04:00","2021","04","10","04:00","11.3","","9.7","","90","","","","15","","7","","24.1","","99.03","","","","","","Mostly Cloudy"
"-79.63","43.68","TORONTO INTL A","6158731","2021-04-10 05:00","2021","04","10","05:00","11.1","","9.3","","88","","","","13","","5","","24.1","","99.01","","","","","","NA"
"-79.63","43.68","TORONTO INTL A","6158731","2021-04-10 06:00","2021","04","10","06:00","10.4","","9.1","","92","","","","14","","7","","24.1","","99.06","","","","","","NA"
"-79.63","43.68","TORONTO INTL A","6158731","2021-04-10 07:00","2021","04","10","07:00","11.9","","9.7","","86","","","","14","","13","","24.1","","99.05","","","","","","Mostly Cloudy"
"-79.63","43.68","TORONTO INTL A","6158731","2021-04-10 08:00","2021","04","10","08:00","12.7","","9.5","","81","","","","13","","12","","24.1","","99.03","","","","","","NA"
"-79.63","43.68","TORONTO INTL A","6158731","2021-04-10 09:00","2021","04","10","09:00","14.2","","10.4","","78","","","","15","","10","","24.1","","98.99","","","","","","NA"
"-79.63","43.68","TORONTO INTL A","6158731","2021-04-10 10:00","2021","04","10","10:00","15.3","","10.3","","72","","","","12","","9","","24.1","","98.97","","","","","","Cloudy"
"-79.63","43.68","TORONTO INTL A","6158731","2021-04-10 11:00","2021","04","10","11:00","15.5","","9.8","","68","","","","14","","13","","24.1","","98.97","","","","","","NA"
"-79.63","43.68","TORONTO INTL A","6158731","2021-04-10 12:00","2021","04","10","12:00","16.4","","11.2","","71","","","","12","","12","","24.1","","98.88","","","","","","NA"
"-79.63","43.68","TORONTO INTL A","6158731","2021-04-10 13:00","2021","04","10","13:00","17.6","","9.6","","59","","","","15","","14","","24.1","","98.78","","","","","","Cloudy"
"-79.63","43.68","TORONTO INTL A","6158731","2021-04-10 14:00","2021","04","10","14:00","19.5","","10.2","","55","","","","16","","16","","24.1","","98.71","","","","","","NA"
"-79.63","43.68","TORONTO INTL A","6158731","2021-04-10 15:00","2021","04","10","15:00","19.6","","9.5","","52","","","","12","","10","","24.1","","98.66","","","","","","NA"
"-79.63","43.68","TORONTO INTL A","6158731","2021-04-10 16:00","2021","04","10","16:00","19.6","","8.8","","49","","","","10","","18","","24.1","","98.57","","","","","","Cloudy"
"-79.63","43.68","TORONTO INTL A","6158731","2021-04-10 17:00","2021","04","10","17:00","19.3","","8.5","","49","","","","8","","12","","24.1","","98.46","","","","","","NA"
"-79.63","43.68","TORONTO INTL A","6158731","2021-04-10 18:00","2021","04","10","18:00","18.3","","8.6","","53","","","","9","","12","","24.1","","98.35","","","","","","NA"
"-79.63","43.68","TORONTO INTL A","6158731","2021-04-10 19:00","2021","04","10","19:00","17.4","","9.6","","60","","","","6","","10","","24.1","","98.26","","","","","","Cloudy"
"-79.63","43.68","TORONTO INTL A","6158731","2021-04-10 20:00","2021","04","10","20:00","18.0","","9.6","","57","","","","8","","11","","24.1","","98.21","","","","","","NA"
"-79.63","43.68","TORONTO INTL A","6158731","2021-04-10 21:00","2021","04","10","21:00","17.6","","8.7","","56","","","","10","","9","","24.1","","98.20","","","","","","NA"
"-79.63","43.68","TORONTO INTL A","6158731","2021-04-10 22:00","2021","04","10","22:00","16.0","","7.3","","56","","","","13","","8","","24.1","","98.13","","","","","","Cloudy"
"-79.63","43.68","TORONTO INTL A","6158731","2021-04-10 23:00","2021","04","10","23:00","14.9","","7.2","","60","","","","11","","5","","24.1","","98.06","","","","","","NA"
"-79.63","43.68","TORONTO INTL A","6158731","2021-04-11 00:00","2021","04","11","00:00","14.1","","6.7","","61","","","","12","","6","","24.1","","98.00","","","","","","NA"
"-79.63","43.68","TORONTO INTL A","6158731","2021-04-11 01:00","2021","04","11","01:00","14.9","","6.2","","56","","","","12","","10","","24.1","","97.95","","","","","","Cloudy"
"-79.63","43.68","TORONTO INTL A","6158731","2021-04-11 02:00","2021","04","11","02:00","13.9","","7.1","","63","","","","12","","9","","24.1","","97.87","","","","","","NA"
"-79.63","43.68","TORONTO INTL A","6158731","2021-04-11 03:00","2021","04","11","03:00","14.0","","8.1","","68","","","","8","","9","","24.1","","97.82","","","","","","NA"
"-79.63","43.68","TORONTO INTL A","6158731","2021-04-11 04:00","2021","04","11","04:00","15.0","","9.7","","71","","","","10","","9","","24.1","","97.80","","","","","","Cloudy"
"-79.63","43.68","TORONTO INTL A","6158731","2021-04-11 05:00","2021","04","11","05:00","14.4","","9.6","","72","","","","8","","10","","24.1","","97.78","","","","","","Rain"
"-79.63","43.68","TORONTO INTL A","6158731","2021-04-11 06:00","2021","04","11","06:00","13.3","","10.5","","83","","","","9","","12","","19.3","","97.76","","","","","","Rain"
"-79.63","43.68","TORONTO INTL A","6158731","2021-04-11 07:00","2021","04","11","07:00","12.8","","11.2","","90","","","","8","","11","","19.3","","97.78","","","","","","Rain"
"-79.63","43.68","TORONTO INTL A","6158731","2021-04-11 08:00","2021","04","11","08:00","12.3","","11.7","","96","","","","8","","17","","8.1","","97.72","","","","","","Rain,Fog"
"-79.63","43.68","TORONTO INTL A","6158731","2021-04-11 09:00","2021","04","11","09:00","12.4","","12.4","","100","","","","9","","15","","4.8","","97.73","","","","","","Moderate Rain,Fog"
"-79.63","43.68","TORONTO INTL A","6158731","2021-04-11 10:00","2021","04","11","10:00","11.6","","11.6","","100","","","","13","","14","","6.4","","97.77","","","","","","Rain,Fog"
"-79.63","43.68","TORONTO INTL A","6158731","2021-04-11 11:00","2021","04","11","11:00","10.2","","10.2","","100","","","","12","","10","","4.8","","97.77","","","","","","Rain,Fog"
"-79.63","43.68","TORONTO INTL A","6158731","2021-04-11 12:00","2021","04","11","12:00","11.4","","11.4","","100","","","","7","","5","","6.4","","97.79","","","","","","Fog"
"-79.63","43.68","TORONTO INTL A","6158731","2021-04-11 13:00","2021","04","11","13:00","13.8","","13.2","","96","","","","14","","7","","8.1","","97.81","","","","","","Fog"
"-79.63","43.68","TORONTO INTL A","6158731","2021-04-11 14:00","2021","04","11","14:00","15.2","","13.6","","90","","","","7","","10","","19.3","","97.82","","","","","","NA"
"-79.63","43.68","TORONTO INTL A","6158731","2021-04-11 15:00","2021","04","11","15:00","16.5","","13.6","","82","","","","7","","9","","24.1","","97.82","","","","","","NA"
"-79.63","43.68","TORONTO INTL A","6158731","2021-04-11 16:00","2021","04","11","16:00","16.2","","12.2","","77","","","","7","","9","","24.1","","97.82","","","","","","Cloudy"
"-79.63","43.68","TORONTO INTL A","6158731","2021-04-11 17:00","2021","04","11","17:00","15.1","","12.8","","86","","","","9","","13","","24.1","","97.90","","","","","","NA"
"-79.63","43.68","TORONTO INTL A","6158731","2021-04-11 18:00","2021","04","11","18:00","14.3","","13.2","","92","","","","6","","14","","24.1","","97.92","","","","","","Rain"
"-79.63","43.68","TORONTO INTL A","6158731","2021-04-11 19:00","2021","04","11","19:00","13.5","","13.4","","99","","","","6","","15","","9.7","","97.97","","","","","","Rain"
"-79.63","43.68","TORONTO INTL A","6158731","2021-04-11 20:00","2021","04","11","20:00","12.8","","12.7","","99","","","","7","","23","","12.9","","98.00","","","","","","Rain"
"-79.63","43.68","TORONTO INTL A","6158731","2021-04-11 21:00","2021","04","11","21:00","12.8","","12.5","","98","","","","8","","30","","12.9","","98.01","","","","","","Rain"
"-79.63","43.68","TORONTO INTL A","6158731","2021-04-11 22:00","2021","04","11","22:00","13.0","","12.3","","95","","","","10","","18","","16.1","","98.02","","","","","","Cloudy"
"-79.63","43.68","TORONTO INTL A","6158731","2021-04-11 23:00","2021","04","11","23:00","13.2","","11.8","","91","","","","8","","22","","24.1","","98.06","","","","","","NA"
"-79.63","43.68","TORONTO INTL A","6158731","2021-04-12 00:00","2021","04","12","00:00","11.9","","11.2","","96","","","","9","","25","","9.7","","98.08","","","","","","Rain,Fog"
"-79.63","43.68","TORONTO INTL A","6158731","2021-04-12 01:00","2021","04","12","01:00","11.2","","11.0","","99","","","","10","","26","","4.0","","98.03","","","","","","Rain,Fog"
"-79.63","43.68","TORONTO INTL A","6158731","2021-04-12 02:00","2021","04","12","02:00","10.8","","10.6","","98","","","","9","","18","","4.0","","98.02","","","","","","Drizzle,Fog"
"-79.63","43.68","TORONTO INTL A","6158731","2021-04-12 03:00","2021","04","12","03:00","10.1","","9.9","","99","","","","10","","21","","4.0","","98.03","","","","","","Drizzle,Fog"
"-79.63","43.68","TORONTO INTL A","6158731","2021-04-12 04:00","2021","04","12","04:00","9.6","","9.6","","100","","","","9","","16","","3.2","","98.01","","","","","","Drizzle,Fog"
"-79.63","43.68","TORONTO INTL A","6158731","2021-04-12 05:00","2021","04","12","05:00","8.6","","8.5","","100","","","","8","","16","","3.2","","98.06","","","","","","Drizzle,Fog"
"-79.63","43.68","TORONTO INTL A","6158731","2021-04-12 06:00","2021","04","12","06:00","8.0","","8.0","","100","","","","8","","9","","3.2","","98.11","","","","","","Drizzle,Fog"
"-79.63","43.68","TORONTO INTL A","6158731","2021-04-12 07:00","2021","04","12","07:00","7.6","","7.6","","100","","","","9","","10","","6.4","","98.18","","","","","","Rain,Fog"
"-79.63","43.68","TORONTO INTL A","6158731","2021-04-12 08:00","2021","04","12","08:00","7.5","","7.3","","99","","","","10","","11","","9.7","","98.22","","","","","","Rain,Fog"
"-79.63","43.68","TORONTO INTL A","6158731","2021-04-12 09:00","2021","04","12","09:00","7.3","","7.2","","99","","","","10","","8","","12.9","","98.34","","","","","","Rain"
"-79.63","43.68","TORONTO INTL A","6158731","2021-04-12 10:00","2021","04","12","10:00","7.7","","7.7","","99","","","","10","","6","","9.7","","98.39","","","","","","Rain,Fog"
"-79.63","43.68","TORONTO INTL A","6158731","2021-04-12 11:00","2021","04","12","11:00","7.9","","7.7","","99","","","","9","","10","","9.7","","98.47","","","","","","Rain,Fog"
"-79.63","43.68","TORONTO INTL A","6158731","2021-04-12 12:00","2021","04","12","12:00","7.9","","7.6","","98","","","","9","","13","","16.1","","98.56","","","","","","Rain"
"-79.63","43.68","TORONTO INTL A","6158731","2021-04-12 13:00","2021","04","12","13:00","8.0","","7.8","","98","","","","8","","15","","16.1","","98.63","","","","","","Rain"
"-79.63","43.68","TORONTO INTL A","6158731","2021-04-12 14:00","2021","04","12","14:00","8.1","","7.9","","98","","","","6","","19","","16.1","","98.69","","","","","","Rain"
"-79.63","43.68","TORONTO INTL A","6158731","2021-04-12 15:00","2021","04","12","15:00","8.0","","7.5","","96","","","","8","","21","","24.1","","98.74","","","","","","NA"
"-79.63","43.68","TORONTO INTL A","6158731","2021-04-12 16:00","2021","04","12","16:00","8.4","","7.4","","93","","","","8","","19","","24.1","","98.81","","","","","","Cloudy"
"-79.63","43.68","TORONTO INTL A","6158731","2021-04-12 17:00","2021","04","12","17:00","8.1","","6.9","","92","","","","8","","28","","24.1","","98.92","","","","","","NA"
"-79.63","43.68","TORONTO INTL A","6158731","2021-04-12 18:00","2021","04","12","18:00","8.0","","6.7","","91","","","","9","","17","","24.1","","99.03","","","","","","NA"
"-79.63","43.68","TORONTO INTL A","6158731","2021-04-12 19:00","2021","04","12","19:00","7.9","","6.7","","92","","","","8","","12","","24.1","","99.15","","","","","","Mostly Cloudy"
"-79.63","43.68","TORONTO INTL A","6158731","2021-04-12 20:00","2021","04","12","20:00","7.7","","6.8","","94","","","","8","","17","","24.1","","99.23","","","","","","NA"
"-79.63","43.68","TORONTO INTL A","6158731","2021-04-12 21:00","2021","04","12","21:00","7.8","","7.0","","94","","","","7","","11","","24.1","","99.29","","","","","","NA"
"-79.63","43.68","TORONTO INTL A","6158731","2021-04-12 22:00","2021","04","12","22:00","7.9","","6.9","","94","","","","6","","8","","24.1","","99.30","","","","","","Cloudy"
"-79.63","43.68","TORONTO INTL A","6158731","2021-04-12 23:00","2021","04","12","23:00","8.0","","7.0","","93","","","","3","","5","","24.1","","99.34","","","","","","NA"
"-79.63","43.68","TORONTO INTL A","6158731","2021-04-13 00:00","2021","04","13","00:00","8.2","","7.1","","93","","","","8","","11","","24.1","","99.35","","","","","","NA"
"-79.63","43.68","TORONTO INTL A","6158731","2021-04-13 01:00","2021","04","13","01:00","8.0","","7.2","","95","","","","10","","8","","24.1","","99.37","","","","","","Cloudy"
"-79.63","43.68","TORONTO INTL A","6158731","2021-04-13 02:00","2021","04","13","02:00","8.0","","7.3","","96","","","","8","","4","","24.1","","99.37","","","","","","NA"
"-79.63","43.68","TORONTO INTL A","6158731","2021-04-13 03:00","2021","04","13","03:00","8.1","","7.1","","93","","","","13","","9","","24.1","","99.44","","","","","","NA"
"-79.63","43.68","TORONTO INTL A","6158731","2021-04-13 04:00","2021","04","13","04:00","8.1","","7.3","","95","","","","12","","3","","24.1","","99.49","","","","","","Cloudy"
"-79.63","43.68","TORONTO INTL A","6158731","2021-04-13 05:00","2021","04","13","05:00","7.4","","7.2","","99","","","","17","","7","","12.9","","99.54","","","","","","NA"
"-79.63","43.68","TORONTO INTL A","6158731","2021-04-13 06:00","2021","04","13","06:00","7.7","","7.3","","97","","","","6","","5","","9.7","","99.59","","","","","","Fog"
"-79.63","43.68","TORONTO INTL A","6158731","2021-04-13 07:00","2021","04","13","07:00","8.1","","7.5","","96","","","","9","","4","","9.7","","99.64","","","","","","Fog"
"-79.63","43.68","TORONTO INTL A","6158731","2021-04-13 08:00","2021","04","13","08:00","8.7","","7.7","","93","","","","13","","6","","9.7","","99.66","","","","","","Fog"
"-79.63","43.68","TORONTO INTL A","6158731","2021-04-13 09:00","2021","04","13","09:00","9.2","","7.7","","90","","","","18","","5","","16.1","","99.68","","","","","","NA"
"-79.63","43.68","TORONTO INTL A","6158731","2021-04-13 10:00","2021","04","13","10:00","9.4","","7.5","","88","","","","14","","12","","16.1","","99.72","","","","","","Cloudy"
"-79.63","43.68","TORONTO INTL A","6158731","2021-04-13 11:00","2021","04","13","11:00","9.0","","7.3","","89","","","","13","","12","","16.1","","99.76","","","","","","NA"
"-79.63","43.68","TORONTO INTL A","6158731","2021-04-13 12:00","2021","04","13","12:00","10.8","","8.0","","83","","","","15","","8","","16.1","","99.75","","","","","","NA"
"-79.63","43.68","TORONTO INTL A","6158731","2021-04-13 13:00","2021","04","13","13:00","12.9","","8.6","","75","","","","15","","7","","19.3","","99.72","","","","","","Mostly Cloudy"
"-79.63","43.68","TORONTO INTL A","6158731","2021-04-13 14:00","2021","04","13","14:00","13.5","","8.6","","72","","","","15","","17","","19.3","","99.65","","","","","","NA"
"-79.63","43.68","TORONTO INTL A","6158731","2021-04-13 15:00","2021","04","13","15:00","13.4","","8.3","","71","","","","15","","16","","19.3","","99.63","","","","","","NA"
"-79.63","43.68","TORONTO INTL A","6158731","2021-04-13 16:00","2021","04","13","16:00","13.9","","8.0","","67","","","","15","","14","","24.1","","99.63","","","","","","Mainly Clear"
"-79.63","43.68","TORONTO INTL A","6158731","2021-04-13 17:00","2021","04","13","17:00","13.6","","8.0","","69","","","","12","","10","","24.1","","99.63","","","","","","NA"
"-79.63","43.68","TORONTO INTL A","6158731","2021-04-13 18:00","2021","04","13","18:00","12.6","","7.7","","72","","","","15","","12","","24.1","","99.67","","","","","","NA"
"-79.63","43.68","TORONTO INTL A","6158731","2021-04-13 19:00","2021","04","13","19:00","10.0","","7.2","","82","","","","15","","10","","24.1","","99.66","","","","","","Clear"
"-79.63","43.68","TORONTO INTL A","6158731","2021-04-13 20:00","2021","04","13","20:00","8.3","","6.5","","88","","","","15","","8","","24.1","","99.69","","","","","","NA"
"-79.63","43.68","TORONTO INTL A","6158731","2021-04-13 21:00","2021","04","13","21:00","7.6","","6.0","","89","","","","10","","5","","24.1","","99.72","","","","","","NA"
"-79.63","43.68","TORONTO INTL A","6158731","2021-04-13 22:00","2021","04","13","22:00","6.7","","5.8","","94","","","","26","","7","","24.1","","99.73","","","","","","Clear"
"-79.63","43.68","TORONTO INTL A","6158731","2021-04-13 23:00","2021","04","13","23:00","8.3","","6.8","","90","","","","15","","7","","24.1","","99.70","","","","","","NA"
"-79.63","43.68","TORONTO INTL A","6158731","2021-04-14 00:00","2021","04","14","00:00","7.7","","6.3","","91","","","","9","","3","","24.1","","99.69","","","","","","NA"
"-79.63","43.68","TORONTO INTL A","6158731","2021-04-14 01:00","2021","04","14","01:00","6.8","","5.8","","93","","","","10","","9","","24.1","","99.65","","","","","","Clear"
"-79.63","43.68","TORONTO INTL A","6158731","2021-04-14 02:00","2021","04","14","02:00","6.0","","5.8","","98","","","","36","","2","","24.1","","99.63","","","","","","NA"
"-79.63","43.68","TORONTO INTL A","6158731","2021-04-14 03:00","2021","04","14","03:00","5.4","","5.3","","99","","","","20","","8","","1.2","","99.67","","","","","","Fog"
"-79.63","43.68","TORONTO INTL A","6158731","2021-04-14 04:00","2021","04","14","04:00","5.1","","5.1","","100","","","","14","","5","","0.4","","99.63","","","","","","Fog"
"-79.63","43.68","TORONTO INTL A","6158731","2021-04-14 05:00","2021","04","14","05:00","4.7","","4.7","","100","","","","29","","5","","0.2","","99.64","","","","","","Fog"
"-79.63","43.68","TORONTO INTL A","6158731","2021-04-14 06:00","2021","04","14","06:00","5.1","","5.1","","100","","","","35","","8","","0.2","","99.68","","","","","","Fog"
"-79.63","43.68","TORONTO INTL A","6158731","2021-04-14 07:00","2021","04","14","07:00","5.5","","5.5","","100","","","","36","","5","","0.2","","99.65","","","","","","Fog"
"-79.63","43.68","TORONTO INTL A","6158731","2021-04-14 08:00","2021","04","14","08:00","5.9","","5.9","","100","","","","31","","6","","0.2","","99.62","","","","","","Fog"
"-79.63","43.68","TORONTO INTL A","6158731","2021-04-14 09:00","2021","04","14","09:00","9.1","","6.5","","84","","","","22","","4","","16.1","","99.59","","","","","","NA"
"-79.63","43.68","TORONTO INTL A","6158731","2021-04-14 10:00","2021","04","14","10:00","13.0","","4.4","","56","","","","25","","16","","17.7","","99.54","","","","","","Clear"
"-79.63","43.68","TORONTO INTL A","6158731","2021-04-14 11:00","2021","04","14","11:00","14.7","","3.7","","47","","","","24","","20","","24.1","","99.49","","","","","","NA"
"-79.63","43.68","TORONTO INTL A","6158731","2021-04-14 12:00","2021","04","14","12:00","14.8","","2.9","","44","","","","22","","20","","24.1","","99.45","","","","","","NA"
"-79.63","43.68","TORONTO INTL A","6158731","2021-04-14 13:00","2021","04","14","13:00","15.2","","2.6","","43","","","","24","","27","","24.1","","99.38","","","","","","Mainly Clear"
"-79.63","43.68","TORONTO INTL A","6158731","2021-04-14 14:00","2021","04","14","14:00","15.1","","1.5","","40","","","","23","","16","","24.1","","99.29","","","","","","NA"
"-79.63","43.68","TORONTO INTL A","6158731","2021-04-14 15:00","2021","04","14","15:00","14.9","","0.9","","38","","","","28","","14","","24.1","","99.24","","","","","","NA"
"-79.63","43.68","TORONTO INTL A","6158731","2021-04-14 16:00","2021","04","14","16:00","13.9","","0.5","","40","","","","29","","11","","24.1","","99.18","","","","","","Mainly Clear"
"-79.63","43.68","TORONTO INTL A","6158731","2021-04-14 17:00","2021","04","14","17:00","13.8","","-0.3","","38","","","","29","","27","","24.1","","99.17","","","","","","NA"
"-79.63","43.68","TORONTO INTL A","6158731","2021-04-14 18:00","2021","04","14","18:00","12.5","","-1.1","","39","","","","29","","14","","24.1","","99.15","","","","","","NA"
"-79.63","43.68","TORONTO INTL A","6158731","2021-04-14 19:00","2021","04","14","19:00","11.9","","-0.4","","42","","","","29","","16","","24.1","","99.14","","","","","","Mostly Cloudy"
"-79.63","43.68","TORONTO INTL A","6158731","2021-04-14 20:00","2021","04","14","20:00","10.9","","1.5","","52","","","","25","","17","","24.1","","99.16","","","","","","NA"
"-79.63","43.68","TORONTO INTL A","6158731","2021-04-14 21:00","2021","04","14","21:00","11.0","","0.6","","48","","","","30","","16","","24.1","","99.12","","","","","","NA"
"-79.63","43.68","TORONTO INTL A","6158731","2021-04-14 22:00","2021","04","14","22:00","9.0","","0.1","","54","","","","36","","19","","24.1","","99.02","","","","","","Cloudy"
"-79.63","43.68","TORONTO INTL A","6158731","2021-04-14 23:00","2021","04","14","23:00","7.2","","0.2","","61","","","","35","","27","","24.1","","99.05","","","","","","Rain"
"-79.63","43.68","TORONTO INTL A","6158731","2021-04-15 00:00","2021","04","15","00:00","6.0","","2.1","","76","","","","33","","26","","16.1","","99.08","","","","","","Rain"
"-79.63","43.68","TORONTO INTL A","6158731","2021-04-15 01:00","2021","04","15","01:00","5.6","","2.2","","79","","","","35","","12","","24.1","","99.03","","","","","","Cloudy"
"-79.63","43.68","TORONTO INTL A","6158731","2021-04-15 02:00","2021","04","15","02:00","5.2","","1.1","","74","","","","34","","19","","24.1","","98.97","","","","","","NA"
"-79.63","43.68","TORONTO INTL A","6158731","2021-04-15 03:00","2021","04","15","03:00","4.9","","1.7","","80","","","","33","","14","","24.1","","98.93","","","","","","NA"
"-79.63","43.68","TORONTO INTL A","6158731","2021-04-15 04:00","2021","04","15","04:00","4.6","","1.6","","81","","","","33","","16","","24.1","","98.91","","","","","","Cloudy"
"-79.63","43.68","TORONTO INTL A","6158731","2021-04-15 05:00","2021","04","15","05:00","4.6","","1.2","","78","","","","32","","9","","19.3","","98.89","","","","","","Rain"
"-79.63","43.68","TORONTO INTL A","6158731","2021-04-15 06:00","2021","04","15","06:00","4.7","","0.8","","76","","","","29","","13","","24.1","","98.90","","","","","","NA"
"-79.63","43.68","TORONTO INTL A","6158731","2021-04-15 07:00","2021","04","15","07:00","4.7","","0.8","","76","","","","28","","12","","24.1","","98.90","","","","","","Cloudy"
"-79.63","43.68","TORONTO INTL A","6158731","2021-04-15 08:00","2021","04","15","08:00","4.9","","-0.4","","68","","","","30","","14","","24.1","","98.87","","","","","","NA"
"-79.63","43.68","TORONTO INTL A","6158731","2021-04-15 09:00","2021","04","15","09:00","5.1","","0.2","","71","","","","28","","14","","24.1","","98.87","","","","","","NA"
"-79.63","43.68","TORONTO INTL A","6158731","2021-04-15 10:00","2021","04","15","10:00","6.3","","0.2","","65","","","","29","","8","","24.1","","98.83","","","","","","Cloudy"
"-79.63","43.68","TORONTO INTL A","6158731","2021-04-15 11:00","2021","04","15","11:00","6.5","","-0.8","","60","","","","29","","11","","24.1","","98.78","","","","","","NA"
"-79.63","43.68","TORONTO INTL A","6158731","2021-04-15 12:00","2021","04","15","12:00","7.0","","-2.2","","52","","","","27","","12","","24.1","","98.72","","","","","","NA"
"-79.63","43.68","TORONTO INTL A","6158731","2021-04-15 13:00","2021","04","15","13:00","6.7","","0.2","","63","","","","3","","10","","24.1","","98.71","","","","","","Rain Showers"
"-79.63","43.68","TORONTO INTL A","6158731","2021-04-15 14:00","2021","04","15","14:00","6.4","","0.4","","65","","","","36","","10","","24.1","","98.69","","","","","","Rain Showers"
"-79.63","43.68","TORONTO INTL A","6158731","2021-04-15 15:00","2021","04","15","15:00","8.0","","0.9","","61","","","","36","","14","","24.1","","98.69","","","","","","NA"
"-79.63","43.68","TORONTO INTL A","6158731","2021-04-15 16:00","2021","04","15","16:00","6.5","","1.0","","68","","","","32","","5","","24.1","","98.70","","","","","","Rain"
"-79.63","43.68","TORONTO INTL A","6158731","2021-04-15 17:00","2021","04","15","17:00","7.5","","1.7","","66","","","","24","","9","","24.1","","98.69","","","","","","NA"
"-79.63","43.68","TORONTO INTL A","6158731","2021-04-15 18:00","2021","04","15","18:00","5.8","","3.0","","82","","","","27","","11","","24.1","","98.73","","","","","","NA"
"-79.63","43.68","TORONTO INTL A","6158731","2021-04-15 19:00","2021","04","15","19:00","5.5","","2.4","","81","","","","35","","16","","24.1","","98.74","","","","","","Cloudy"
"-79.63","43.68","TORONTO INTL A","6158731","2021-04-15 20:00","2021","04","15","20:00","5.1","","2.1","","81","","","","32","","18","","24.1","","98.75","","","","","","NA"
"-79.63","43.68","TORONTO INTL A","6158731","2021-04-15 21:00","2021","04","15","21:00","4.8","","2.7","","86","","","","31","","19","","16.1","","98.73","","","","","","Rain"
"-79.63","43.68","TORONTO INTL A","6158731","2021-04-15 22:00","2021","04","15","22:00","5.0","","3.1","","88","","","","29","","19","","16.1","","98.64","","","","","","Rain"
"-79.63","43.68","TORONTO INTL A","6158731","2021-04-15 23:00","2021","04","15","23:00","5.4","","3.0","","84","","","","31","","20","","24.1","","98.60","","","","","","NA"
"-79.63","43.68","TORONTO INTL A","6158731","2021-04-16 00:00","2021","04","16","00:00","5.6","","3.0","","83","","","","30","","23","","24.1","","98.61","","","","","","NA"
"-79.63","43.68","TORONTO INTL A","6158731","2021-04-16 01:00","2021","04","16","01:00","5.6","","2.8","","82","","","","29","","22","","24.1","","98.60","","","","","","Cloudy"
"-79.63","43.68","TORONTO INTL A","6158731","2021-04-16 02:00","2021","04","16","02:00","5.4","","2.7","","83","","","","29","","23","","24.1","","98.59","","","","","","NA"
"-79.63","43.68","TORONTO INTL A","6158731","2021-04-16 03:00","2021","04","16","03:00","5.1","","2.1","","81","","","","30","","27","","24.1","","98.59","","","","","","NA"
"-79.63","43.68","TORONTO INTL A","6158731","2021-04-16 04:00","2021","04","16","04:00","4.9","","1.7","","79","","","","30","","24","","24.1","","98.57","","","","","","Mostly Cloudy"
"-79.63","43.68","TORONTO INTL A","6158731","2021-04-16 05:00","2021","04","16","05:00","4.5","","1.4","","81","","","","30","","20","","24.1","","98.58","","","","","","NA"
"-79.63","43.68","TORONTO INTL A","6158731","2021-04-16 06:00","2021","04","16","06:00","4.4","","1.5","","81","","","","30","","26","","24.1","","98.56","","","","","","NA"
"-79.63","43.68","TORONTO INTL A","6158731","2021-04-16 07:00","2021","04","16","07:00","5.3","","1.5","","77","","","","32","","28","","24.1","","98.57","","","","","","Mostly Cloudy"
"-79.63","43.68","TORONTO INTL A","6158731","2021-04-16 08:00","2021","04","16","08:00","5.5","","1.1","","73","","","","33","","28","","24.1","","98.58","","","","","","NA"
"-79.63","43.68","TORONTO INTL A","6158731","2021-04-16 09:00","2021","04","16","09:00","7.0","","1.6","","68","","","","31","","28","","24.1","","98.59","","","","","","NA"
"-79.63","43.68","TORONTO INTL A","6158731","2021-04-16 10:00","2021","04","16","10:00","7.5","","1.2","","64","","","","33","","18","","24.1","","98.62","","","","","","Mostly Cloudy"
"-79.63","43.68","TORONTO INTL A","6158731","2021-04-16 11:00","2021","04","16","11:00","8.8","","2.0","","62","","","","30","","26","","24.1","","98.60","","","","","","NA"
"-79.63","43.68","TORONTO INTL A","6158731","2021-04-16 12:00","2021","04","16","12:00","9.1","","1.8","","60","","","","30","","23","","24.1","","98.58","","","","","","NA"
"-79.63","43.68","TORONTO INTL A","6158731","2021-04-16 13:00","2021","04","16","13:00","9.6","","3.0","","63","","","","34","","18","","24.1","","98.57","","","","","","Mostly Cloudy"
"-79.63","43.68","TORONTO INTL A","6158731","2021-04-16 14:00","2021","04","16","14:00","9.6","","2.3","","60","","","","34","","26","","24.1","","98.61","","","","","","NA"
"-79.63","43.68","TORONTO INTL A","6158731","2021-04-16 15:00","2021","04","16","15:00","8.9","","2.7","","65","","","","35","","26","","24.1","","98.63","","","","","","NA"
"-79.63","43.68","TORONTO INTL A","6158731","2021-04-16 16:00","2021","04","16","16:00","7.8","","2.1","","67","","","","35","","26","","24.1","","98.68","","","","","","Cloudy"
"-79.63","43.68","TORONTO INTL A","6158731","2021-04-16 17:00","2021","04","16","17:00","7.0","","2.2","","71","","","","31","","25","","24.1","","98.77","","","","","","Rain"
"-79.63","43.68","TORONTO INTL A","6158731","2021-04-16 18:00","2021","04","16","18:00","6.2","","2.9","","79","","","","34","","22","","24.1","","98.83","","","","","","Rain"
"-79.63","43.68","TORONTO INTL A","6158731","2021-04-16 19:00","2021","04","16","19:00","5.9","","3.3","","83","","","","34","","16","","24.1","","98.89","","","","","","Rain"
"-79.63","43.68","TORONTO INTL A","6158731","2021-04-16 20:00","2021","04","16","20:00","5.4","","4.1","","91","","","","34","","16","","24.1","","98.96","","","","","","Rain"
"-79.63","43.68","TORONTO INTL A","6158731","2021-04-16 21:00","2021","04","16","21:00","5.6","","4.3","","92","","","","34","","19","","24.1","","98.98","","","","","","NA"
"-79.63","43.68","TORONTO INTL A","6158731","2021-04-16 22:00","2021","04","16","22:00","5.6","","4.4","","92","","","","34","","19","","24.1","","99.00","","","","","","Cloudy"
"-79.63","43.68","TORONTO INTL A","6158731","2021-04-16 23:00","2021","04","16","23:00","5.5","","4.3","","92","","","","34","","16","","24.1","","98.99","","","","","","NA"
"-79.63","43.68","TORONTO INTL A","6158731","2021-04-17 00:00","2021","04","17","00:00","5.0","","3.6","","91","","","","34","","13","","24.1","","99.00","","","","","","NA"
"-79.63","43.68","TORONTO INTL A","6158731","2021-04-17 01:00","2021","04","17","01:00","4.4","","3.8","","96","","","","36","","17","","24.1","","98.99","","","","","","Mostly Cloudy"
"-79.63","43.68","TORONTO INTL A","6158731","2021-04-17 02:00","2021","04","17","02:00","4.2","","3.8","","97","","","","32","","19","","24.1","","99.00","","","","","","NA"
"-79.63","43.68","TORONTO INTL A","6158731","2021-04-17 03:00","2021","04","17","03:00","3.9","","3.6","","98","","","","35","","19","","16.1","","99.02","","","","","","NA"
"-79.63","43.68","TORONTO INTL A","6158731","2021-04-17 04:00","2021","04","17","04:00","3.4","","3.1","","98","","","","36","","13","","16.1","","99.00","","","","","","Mostly Cloudy"
"-79.63","43.68","TORONTO INTL A","6158731","2021-04-17 05:00","2021","04","17","05:00","3.5","","3.4","","99","","","","31","","11","","9.7","","98.98","","","","","","Fog"
"-79.63","43.68","TORONTO INTL A","6158731","2021-04-17 06:00","2021","04","17","06:00","4.0","","3.7","","98","","","","33","","11","","19.3","","98.99","","","","","","NA"
"-79.63","43.68","TORONTO INTL A","6158731","2021-04-17 07:00","2021","04","17","07:00","5.0","","4.2","","94","","","","27","","10","","24.1","","99.02","","","","","","Mostly Cloudy"
"-79.63","43.68","TORONTO INTL A","6158731","2021-04-17 08:00","2021","04","17","08:00","6.1","","4.1","","87","","","","31","","11","","24.1","","99.02","","","","","","NA"
"-79.63","43.68","TORONTO INTL A","6158731","2021-04-17 09:00","2021","04","17","09:00","6.8","","4.2","","84","","","","31","","5","","24.1","","99.07","","","","","","NA"
"-79.63","43.68","TORONTO INTL A","6158731","2021-04-17 10:00","2021","04","17","10:00","7.4","","4.7","","83","","","","36","","8","","24.1","","99.09","","","","","","Cloudy"
"-79.63","43.68","TORONTO INTL A","6158731","2021-04-17 11:00","2021","04","17","11:00","8.3","","5.4","","82","","","","1","","9","","24.1","","99.07","","","","","","NA"
"-79.63","43.68","TORONTO INTL A","6158731","2021-04-17 12:00","2021","04","17","12:00","9.9","","6.3","","78","","","","27","","5","","24.1","","99.02","","","","","","NA"
"-79.63","43.68","TORONTO INTL A","6158731","2021-04-17 13:00","2021","04","17","13:00","10.4","","5.9","","74","","","","27","","5","","24.1","","98.97","","","","","","Cloudy"
"-79.63","43.68","TORONTO INTL A","6158731","2021-04-17 14:00","2021","04","17","14:00","11.0","","5.5","","69","","","","20","","7","","24.1","","98.96","","","","","","NA"
"-79.63","43.68","TORONTO INTL A","6158731","2021-04-17 15:00","2021","04","17","15:00","11.7","","4.4","","61","","","","17","","9","","24.1","","98.90","","","","","","NA"
"-79.63","43.68","TORONTO INTL A","6158731","2021-04-17 16:00","2021","04","17","16:00","11.3","","4.4","","62","","","","25","","5","","24.1","","98.89","","","","","","Rain"
"-79.63","43.68","TORONTO INTL A","6158731","2021-04-17 17:00","2021","04","17","17:00","10.7","","6.0","","73","","","","24","","11","","24.1","","98.89","","","","","","NA"
"-79.63","43.68","TORONTO INTL A","6158731","2021-04-17 18:00","2021","04","17","18:00","9.7","","6.7","","81","","","","28","","17","","24.1","","98.91","","","","","","NA"
"-79.63","43.68","TORONTO INTL A","6158731","2021-04-17 19:00","2021","04","17","19:00","9.9","","5.2","","72","","","","31","","10","","24.1","","98.92","","","","","","Mostly Cloudy"
"-79.63","43.68","TORONTO INTL A","6158731","2021-04-17 20:00","2021","04","17","20:00","9.1","","3.1","","66","","","","33","","12","","24.1","","98.96","","","","","","NA"
"-79.63","43.68","TORONTO INTL A","6158731","2021-04-17 21:00","2021","04","17","21:00","6.7","","5.3","","91","","","","29","","7","","24.1","","98.99","","","","","","NA"
"-79.63","43.68","TORONTO INTL A","6158731","2021-04-17 22:00","2021","04","17","22:00","5.5","","4.3","","92","","","","28","","9","","24.1","","98.99","","","","","","Mainly Clear"
"-79.63","43.68","TORONTO INTL A","6158731","2021-04-17 23:00","2021","04","17","23:00","5.6","","2.8","","82","","","","31","","14","","24.1","","99.00","","","","","","NA"
"-79.63","43.68","TORONTO INTL A","6158731","2021-04-18 00:00","2021","04","18","00:00","4.4","","2.2","","86","","","","28","","13","","24.1","","99.00","","","","","","NA"
"-79.63","43.68","TORONTO INTL A","6158731","2021-04-18 01:00","2021","04","18","01:00","4.3","","1.9","","84","","","","29","","15","","24.1","","98.99","","","","","","Mainly Clear"
"-79.63","43.68","TORONTO INTL A","6158731","2021-04-18 02:00","2021","04","18","02:00","4.4","","1.2","","79","","","","29","","13","","24.1","","98.96","","","","","","NA"
"-79.63","43.68","TORONTO INTL A","6158731","2021-04-18 03:00","2021","04","18","03:00","3.3","","0.4","","81","","","","31","","12","","24.1","","98.97","","","","","","NA"
"-79.63","43.68","TORONTO INTL A","6158731","2021-04-18 04:00","2021","04","18","04:00","4.4","","1.2","","80","","","","31","","16","","24.1","","98.97","","","","","","Mainly Clear"
"-79.63","43.68","TORONTO INTL A","6158731","2021-04-18 05:00","2021","04","18","05:00","5.1","","1.4","","77","","","","32","","15","","24.1","","98.96","","","","","","NA"
"-79.63","43.68","TORONTO INTL A","6158731","2021-04-18 06:00","2021","04","18","06:00","5.7","","1.4","","73","","","","31","","14","","24.1","","98.99","","","","","","NA"
"-79.63","43.68","TORONTO INTL A","6158731","2021-04-18 07:00","2021","04","18","07:00","6.2","","1.4","","71","","","","30","","12","","24.1","","99.06","","","","","","Mostly Cloudy"
"-79.63","43.68","TORONTO INTL A","6158731","2021-04-18 08:00","2021","04","18","08:00","8.9","","2.1","","62","","","","31","","16","","24.1","","99.06","","","","","","NA"
"-79.63","43.68","TORONTO INTL A","6158731","2021-04-18 09:00","2021","04","18","09:00","11.8","","1.9","","51","","","","32","","11","","24.1","","99.04","","","","","","NA"
"-79.63","43.68","TORONTO INTL A","6158731","2021-04-18 10:00","2021","04","18","10:00","12.6","","3.2","","52","","","","22","","15","","24.1","","99.04","","","","","","Mostly Cloudy"
"-79.63","43.68","TORONTO INTL A","6158731","2021-04-18 11:00","2021","04","18","11:00","13.5","","4.5","","54","","","","22","","14","","24.1","","99.00","","","","","","NA"
"-79.63","43.68","TORONTO INTL A","6158731","2021-04-18 12:00","2021","04","18","12:00","13.8","","3.6","","50","","","","23","","17","","24.1","","98.93","","","","","","NA"
"-79.63","43.68","TORONTO INTL A","6158731","2021-04-18 13:00","2021","04","18","13:00","13.3","","4.2","","54","","","","19","","22","","24.1","","98.88","","","","","","Rain Showers"
"-79.63","43.68","TORONTO INTL A","6158731","2021-04-18 14:00","2021","04","18","14:00","12.2","","4.0","","57","","","","17","","24","","19.3","","98.89","","","","","","Rain Showers"
"-79.63","43.68","TORONTO INTL A","6158731","2021-04-18 15:00","2021","04","18","15:00","11.4","","6.4","","71","","","","23","","20","","24.1","","98.88","","","","","","Rain Showers"
"-79.63","43.68","TORONTO INTL A","6158731","2021-04-18 16:00","2021","04","18","16:00","11.7","","6.7","","71","","","","17","","17","","24.1","","98.86","","","","","","Mostly Cloudy"
"-79.63","43.68","TORONTO INTL A","6158731","2021-04-18 17:00","2021","04","18","17:00","10.9","","5.6","","70","","","","18","","20","","24.1","","98.86","","","","","","NA"
"-79.63","43.68","TORONTO INTL A","6158731","2021-04-18 18:00","2021","04","18","18:00","10.8","","5.5","","70","","","","20","","14","","24.1","","98.87","","","","","","NA"
"-79.63","43.68","TORONTO INTL A","6158731","2021-04-18 19:00","2021","04","18","19:00","10.7","","5.0","","67","","","","21","","16","","24.1","","98.86","","","","","","Mostly Cloudy"
"-79.63","43.68","TORONTO INTL A","6158731","2021-04-18 20:00","2021","04","18","20:00","8.8","","-1.4","","49","","","","26","","16","","24.1","","98.91","","","","","","NA"
"-79.63","43.68","TORONTO INTL A","6158731","2021-04-18 21:00","2021","04","18","21:00","7.0","","-2.0","","53","","","","28","","13","","24.1","","98.94","","","","","","NA"
"-79.63","43.68","TORONTO INTL A","6158731","2021-04-18 22:00","2021","04","18","22:00","6.6","","-2.5","","52","","","","28","","8","","24.1","","98.95","","","","","","Mainly Clear"
"-79.63","43.68","TORONTO INTL A","6158731","2021-04-18 23:00","2021","04","18","23:00","5.4","","-1.8","","60","","","","27","","10","","24.1","","98.96","","","","","","NA"
"-79.63","43.68","TORONTO INTL A","6158731","2021-04-19 00:00","2021","04","19","00:00","5.3","","-1.7","","61","","","","24","","9","","24.1","","98.95","","","","","","NA"
"-79.63","43.68","TORONTO INTL A","6158731","2021-04-19 01:00","2021","04","19","01:00","4.2","","-1.3","","67","","","","24","","9","","24.1","","98.93","","","","","","Clear"
"-79.63","43.68","TORONTO INTL A","6158731","2021-04-19 02:00","2021","04","19","02:00","3.3","","-1.0","","73","","","","27","","8","","24.1","","98.92","","","","","","NA"
"-79.63","43.68","TORONTO INTL A","6158731","2021-04-19 03:00","2021","04","19","03:00","3.4","","-1.4","","71","","","","26","","7","","24.1","","98.89","","","","","","NA"
"-79.63","43.68","TORONTO INTL A","6158731","2021-04-19 04:00","2021","04","19","04:00","4.8","","-2.0","","61","","","","36","","7","","24.1","","98.86","","","","","","Clear"
"-79.63","43.68","TORONTO INTL A","6158731","2021-04-19 05:00","2021","04","19","05:00","3.7","","-0.6","","73","","","","2","","4","","24.1","","98.85","","","","","","NA"
"-79.63","43.68","TORONTO INTL A","6158731","2021-04-19 06:00","2021","04","19","06:00","4.1","","-0.7","","71","","","","9","","7","","24.1","","98.85","","","","","","NA"
"-79.63","43.68","TORONTO INTL A","6158731","2021-04-19 07:00","2021","04","19","07:00","6.4","","0.2","","65","","","","12","","8","","24.1","","98.86","","","","","","Mainly Clear"
"-79.63","43.68","TORONTO INTL A","6158731","2021-04-19 08:00","2021","04","19","08:00","8.4","","3.0","","68","","","","17","","9","","24.1","","98.85","","","","","","NA"
"-79.63","43.68","TORONTO INTL A","6158731","2021-04-19 09:00","2021","04","19","09:00","11.0","","5.2","","67","","","","20","","10","","24.1","","98.82","","","","","","NA"
"-79.63","43.68","TORONTO INTL A","6158731","2021-04-19 10:00","2021","04","19","10:00","12.2","","5.5","","63","","","","14","","10","","24.1","","98.80","","","","","","Mostly Cloudy"
"-79.63","43.68","TORONTO INTL A","6158731","2021-04-19 11:00","2021","04","19","11:00","13.2","","6.5","","64","","","","14","","15","","24.1","","98.74","","","","","","NA"
"-79.63","43.68","TORONTO INTL A","6158731","2021-04-19 12:00","2021","04","19","12:00","14.7","","5.7","","55","","","","16","","19","","24.1","","98.66","","","","","","NA"
"-79.63","43.68","TORONTO INTL A","6158731","2021-04-19 13:00","2021","04","19","13:00","15.1","","1.1","","38","","","","24","","20","","24.1","","98.61","","","","","","Mostly Cloudy"
"-79.63","43.68","TORONTO INTL A","6158731","2021-04-19 14:00","2021","04","19","14:00","16.9","","0.4","","33","","","","22","","27","","24.1","","98.52","","","","","","NA"
"-79.63","43.68","TORONTO INTL A","6158731","2021-04-19 15:00","2021","04","19","15:00","15.5","","2.2","","40","","","","18","","14","","24.1","","98.44","","","","","","NA"
"-79.63","43.68","TORONTO INTL A","6158731","2021-04-19 16:00","2021","04","19","16:00","16.2","","0.4","","34","","","","22","","30","","24.1","","98.46","","","","","","Mostly Cloudy"
"-79.63","43.68","TORONTO INTL A","6158731","2021-04-19 17:00","2021","04","19","17:00","15.1","","0.4","","36","","","","23","","34","","24.1","","98.54","","","","","","NA"
"-79.63","43.68","TORONTO INTL A","6158731","2021-04-19 18:00","2021","04","19","18:00","11.3","","5.4","","67","","","","28","","35","","24.1","","98.61","","","","","","NA"
"-79.63","43.68","TORONTO INTL A","6158731","2021-04-19 19:00","2021","04","19","19:00","10.2","","6.4","","77","","","","28","","35","","24.1","","98.69","","","","","","Rain"
"-79.63","43.68","TORONTO INTL A","6158731","2021-04-19 20:00","2021","04","19","20:00","8.7","","4.5","","75","","","","27","","31","","24.1","","98.77","","","","","","Rain"
"-79.63","43.68","TORONTO INTL A","6158731","2021-04-19 21:00","2021","04","19","21:00","7.1","","4.8","","86","","","","28","","34","","9.7","","98.80","","","","","","Rain"
"-79.63","43.68","TORONTO INTL A","6158731","2021-04-19 22:00","2021","04","19","22:00","5.6","","3.9","","89","","","","27","","23","","24.1","","98.84","","","","","","Rain"
"-79.63","43.68","TORONTO INTL A","6158731","2021-04-19 23:00","2021","04","19","23:00","5.5","","3.7","","88","","","","24","","16","","24.1","","98.85","","","","","","Rain"
"-79.63","43.68","TORONTO INTL A","6158731","2021-04-20 00:00","2021","04","20","00:00","5.8","","3.9","","87","","","","23","","13","","24.1","","98.82","","","","","","NA"
"-79.63","43.68","TORONTO INTL A","6158731","2021-04-20 01:00","2021","04","20","01:00","4.9","","3.1","","88","","","","34","","16","","24.1","","98.89","","","","","","Mostly Cloudy"
"-79.63","43.68","TORONTO INTL A","6158731","2021-04-20 02:00","2021","04","20","02:00","3.6","","1.9","","89","","","","28","","10","","24.1","","98.89","","","","","","NA"
"-79.63","43.68","TORONTO INTL A","6158731","2021-04-20 03:00","2021","04","20","03:00","4.3","","1.2","","80","","","","27","","15","","24.1","","98.94","","","","","","NA"
"-79.63","43.68","TORONTO INTL A","6158731","2021-04-20 04:00","2021","04","20","04:00","4.3","","1.0","","79","","","","27","","19","","24.1","","98.95","","","","","","Mostly Cloudy"
"-79.63","43.68","TORONTO INTL A","6158731","2021-04-20 05:00","2021","04","20","05:00","3.1","","-1.7","","71","","","","29","","25","","24.1","","99.04","","","","","","NA"
"-79.63","43.68","TORONTO INTL A","6158731","2021-04-20 06:00","2021","04","20","06:00","2.0","","-3.1","","69","","","","27","","26","","24.1","","99.09","","","","","","NA"
"-79.63","43.68","TORONTO INTL A","6158731","2021-04-20 07:00","2021","04","20","07:00","2.5","","-2.6","","70","","","","26","","26","","24.1","","99.19","","","","","","Mostly Cloudy"
"-79.63","43.68","TORONTO INTL A","6158731","2021-04-20 08:00","2021","04","20","08:00","2.9","","-3.2","","65","","","","26","","23","","24.1","","99.26","","","","","","NA"
"-79.63","43.68","TORONTO INTL A","6158731","2021-04-20 09:00","2021","04","20","09:00","3.7","","-3.3","","60","","","","27","","29","","24.1","","99.30","","","","","","NA"
"-79.63","43.68","TORONTO INTL A","6158731","2021-04-20 10:00","2021","04","20","10:00","4.1","","-4.2","","55","","","","28","","29","","24.1","","99.35","","","","","","Mostly Cloudy"
"-79.63","43.68","TORONTO INTL A","6158731","2021-04-20 11:00","2021","04","20","11:00","4.3","","-3.8","","56","","","","28","","30","","24.1","","99.40","","","","","","NA"
"-79.63","43.68","TORONTO INTL A","6158731","2021-04-20 12:00","2021","04","20","12:00","4.8","","-3.8","","54","","","","26","","25","","24.1","","99.38","","","","","","NA"
"-79.63","43.68","TORONTO INTL A","6158731","2021-04-20 13:00","2021","04","20","13:00","4.2","","-4.2","","54","","","","28","","30","","24.1","","99.41","","","","","","Cloudy"
"-79.63","43.68","TORONTO INTL A","6158731","2021-04-20 14:00","2021","04","20","14:00","4.5","","-4.5","","52","","","","27","","30","","24.1","","99.46","","","","","","NA"
"-79.63","43.68","TORONTO INTL A","6158731","2021-04-20 15:00","2021","04","20","15:00","4.2","","-4.5","","53","","","","28","","27","","24.1","","99.45","","","","","","NA"
"-79.63","43.68","TORONTO INTL A","6158731","2021-04-20 16:00","2021","04","20","16:00","3.1","","-3.4","","62","","","","29","","26","","24.1","","99.49","","","","","","Cloudy"
"-79.63","43.68","TORONTO INTL A","6158731","2021-04-20 17:00","2021","04","20","17:00","2.4","","-2.6","","70","","","","28","","19","","12.9","","99.53","","","","","","Snow"
"-79.63","43.68","TORONTO INTL A","6158731","2021-04-20 18:00","2021","04","20","18:00","1.6","","-1.0","","82","","","","26","","16","","4.8","","99.54","","","","","","Snow"
"-79.63","43.68","TORONTO INTL A","6158731","2021-04-20 19:00","2021","04","20","19:00","1.3","","-1.3","","83","","","","25","","9","","9.7","","99.54","","","","","","Snow"
"-79.63","43.68","TORONTO INTL A","6158731","2021-04-20 20:00","2021","04","20","20:00","1.8","","-2.5","","73","","","","28","","14","","24.1","","99.53","","","","","","NA"
"-79.63","43.68","TORONTO INTL A","6158731","2021-04-20 21:00","2021","04","20","21:00","2.2","","-4.8","","60","","","","32","","20","","24.1","","99.48","","","","","","NA"
"-79.63","43.68","TORONTO INTL A","6158731","2021-04-20 22:00","2021","04","20","22:00","1.6","","-4.0","","66","","","","3","","17","","8.1","","99.45","","","","","","Snow"
"-79.63","43.68","TORONTO INTL A","6158731","2021-04-20 23:00","2021","04","20","23:00","1.1","","-4.8","","65","","","","2","","21","","8.1","","99.38","","","","","","Snow"
"-79.63","43.68","TORONTO INTL A","6158731","2021-04-21 00:00","2021","04","21","00:00","0.6","","-4.4","","69","","","","35","","10","","6.4","","99.43","","","","","","Snow"
"-79.63","43.68","TORONTO INTL A","6158731","2021-04-21 01:00","2021","04","21","01:00","-0.3","","-4.9","","71","","","","34","","21","","6.4","","99.36","","","","-6","","Snow"
"-79.63","43.68","TORONTO INTL A","6158731","2021-04-21 02:00","2021","04","21","02:00","-1.4","","-2.8","","90","","","","33","","8","","4.0","","99.30","","","","-4","","Snow"
"-79.63","43.68","TORONTO INTL A","6158731","2021-04-21 03:00","2021","04","21","03:00","-1.7","","-2.4","","95","","","","2","","12","","3.2","","99.24","","","","-6","","Snow"
"-79.63","43.68","TORONTO INTL A","6158731","2021-04-21 04:00","2021","04","21","04:00","-1.7","","-2.2","","96","","","","34","","14","","3.2","","99.22","","","","-6","","Snow"
"-79.63","43.68","TORONTO INTL A","6158731","2021-04-21 05:00","2021","04","21","05:00","-1.9","","-2.4","","96","","","","32","","14","","3.2","","99.20","","","","-7","","Snow"
"-79.63","43.68","TORONTO INTL A","6158731","2021-04-21 06:00","2021","04","21","06:00","-1.6","","-2.1","","96","","","","32","","14","","2.0","","99.17","","","","-6","","Snow"
"-79.63","43.68","TORONTO INTL A","6158731","2021-04-21 07:00","2021","04","21","07:00","-1.0","","-2.5","","90","","","","33","","18","","9.7","","99.18","","","","-6","","Snow"
"-79.63","43.68","TORONTO INTL A","6158731","2021-04-21 08:00","2021","04","21","08:00","-0.4","","-2.3","","87","","","","34","","20","","4.8","","99.20","","","","-6","","Snow"
"-79.63","43.68","TORONTO INTL A","6158731","2021-04-21 09:00","2021","04","21","09:00","-0.5","","-4.3","","75","","","","35","","21","","12.9","","99.22","","","","-6","","Snow"
"-79.63","43.68","TORONTO INTL A","6158731","2021-04-21 10:00","2021","04","21","10:00","0.6","","-5.4","","64","","","","33","","28","","24.1","","99.25","","","","","","Mostly Cloudy"
"-79.63","43.68","TORONTO INTL A","6158731","2021-04-21 11:00","2021","04","21","11:00","1.8","","-5.9","","57","","","","32","","27","","24.1","","99.22","","","","","","NA"
"-79.63","43.68","TORONTO INTL A","6158731","2021-04-21 12:00","2021","04","21","12:00","1.2","","-6.8","","55","","","","35","","26","","24.1","","99.22","","","","","","NA"
"-79.63","43.68","TORONTO INTL A","6158731","2021-04-21 13:00","2021","04","21","13:00","2.3","","-7.5","","48","","","","31","","28","","24.1","","99.22","","","","","","Mostly Cloudy"
"-79.63","43.68","TORONTO INTL A","6158731","2021-04-21 14:00","2021","04","21","14:00","2.6","","-7.8","","46","","","","32","","23","","24.1","","99.20","","","","","","NA"
"-79.63","43.68","TORONTO INTL A","6158731","2021-04-21 15:00","2021","04","21","15:00","3.1","","-8.4","","43","","","","30","","28","","24.1","","99.19","","","","","","NA"
"-79.63","43.68","TORONTO INTL A","6158731","2021-04-21 16:00","2021","04","21","16:00","2.4","","-7.6","","48","","","","32","","40","","24.1","","99.18","","","","","","Cloudy"
"-79.63","43.68","TORONTO INTL A","6158731","2021-04-21 17:00","2021","04","21","17:00","2.2","","-6.7","","52","","","","32","","32","","24.1","","99.19","","","","","","Snow Showers"
"-79.63","43.68","TORONTO INTL A","6158731","2021-04-21 18:00","2021","04","21","18:00","0.6","","-10.2","","44","","","","30","","34","","24.1","","99.26","","","","","","NA"
"-79.63","43.68","TORONTO INTL A","6158731","2021-04-21 19:00","2021","04","21","19:00","0.3","","-9.9","","46","","","","30","","29","","24.1","","99.24","","","","","","Mostly Cloudy"
"-79.63","43.68","TORONTO INTL A","6158731","2021-04-21 20:00","2021","04","21","20:00","-0.6","","-10.2","","49","","","","31","","32","","24.1","","99.25","","","","-7","","NA"
"-79.63","43.68","TORONTO INTL A","6158731","2021-04-21 21:00","2021","04","21","21:00","-1.1","","-9.7","","52","","","","31","","23","","24.1","","99.29","","","","-7","","NA"
"-79.63","43.68","TORONTO INTL A","6158731","2021-04-21 22:00","2021","04","21","22:00","-1.6","","-9.4","","56","","","","30","","20","","24.1","","99.28","","","","-7","","Mainly Clear"
"-79.63","43.68","TORONTO INTL A","6158731","2021-04-21 23:00","2021","04","21","23:00","-1.8","","-8.4","","61","","","","30","","19","","24.1","","99.28","","","","-7","","NA"
"-79.63","43.68","TORONTO INTL A","6158731","2021-04-22 00:00","2021","04","22","00:00","-1.9","","-7.8","","64","","","","29","","17","","24.1","","99.26","","","","-7","","NA"
"-79.63","43.68","TORONTO INTL A","6158731","2021-04-22 01:00","2021","04","22","01:00","-2.5","","-7.5","","69","","","","28","","12","","24.1","","99.22","","","","-7","","Mostly Cloudy"
"-79.63","43.68","TORONTO INTL A","6158731","2021-04-22 02:00","2021","04","22","02:00","-2.1","","-7.2","","68","","","","26","","17","","24.1","","99.20","","","","-7","","NA"
"-79.63","43.68","TORONTO INTL A","6158731","2021-04-22 03:00","2021","04","22","03:00","-1.4","","-6.6","","68","","","","29","","16","","24.1","","99.16","","","","-6","","NA"
"-79.63","43.68","TORONTO INTL A","6158731","2021-04-22 04:00","2021","04","22","04:00","-2.1","","-6.5","","72","","","","27","","14","","24.1","","99.17","","","","-7","","Mostly Cloudy"
"-79.63","43.68","TORONTO INTL A","6158731","2021-04-22 05:00","2021","04","22","05:00","-1.6","","-6.1","","71","","","","27","","18","","24.1","","99.15","","","","-7","","NA"
"-79.63","43.68","TORONTO INTL A","6158731","2021-04-22 06:00","2021","04","22","06:00","-0.6","","-5.9","","68","","","","28","","26","","24.1","","99.19","","","","-7","","NA"
"-79.63","43.68","TORONTO INTL A","6158731","2021-04-22 07:00","2021","04","22","07:00","0.4","","-4.8","","68","","","","31","","27","","24.1","","99.25","","","","","","Snow Showers"
"-79.63","43.68","TORONTO INTL A","6158731","2021-04-22 08:00","2021","04","22","08:00","-0.4","","-2.5","","86","","","","28","","22","","3.2","","99.29","","","","-6","","Snow Showers"
"-79.63","43.68","TORONTO INTL A","6158731","2021-04-22 09:00","2021","04","22","09:00","1.6","","-2.2","","76","","","","27","","25","","24.1","","99.30","","","","","","NA"
"-79.63","43.68","TORONTO INTL A","6158731","2021-04-22 10:00","2021","04","22","10:00","3.6","","-5.0","","54","","","","30","","30","","24.1","","99.30","","","","","","Mostly Cloudy"
"-79.63","43.68","TORONTO INTL A","6158731","2021-04-22 11:00","2021","04","22","11:00","3.6","","-4.8","","54","","","","31","","37","","24.1","","99.32","","","","","","Snow Showers"
"-79.63","43.68","TORONTO INTL A","6158731","2021-04-22 12:00","2021","04","22","12:00","3.1","","-5.7","","53","","","","30","","38","","24.1","","99.28","","","","","","Snow Showers"
"-79.63","43.68","TORONTO INTL A","6158731","2021-04-22 13:00","2021","04","22","13:00","3.0","","-3.4","","63","","","","30","","39","","24.1","","99.28","","","","","","Snow Showers"
"-79.63","43.68","TORONTO INTL A","6158731","2021-04-22 14:00","2021","04","22","14:00","4.8","","-7.1","","42","","","","29","","37","","24.1","","99.26","","","","","","NA"
"-79.63","43.68","TORONTO INTL A","6158731","2021-04-22 15:00","2021","04","22","15:00","4.5","","-7.1","","43","","","","29","","40","","24.1","","99.24","","","","","","NA"
"-79.63","43.68","TORONTO INTL A","6158731","2021-04-22 16:00","2021","04","22","16:00","4.3","","-5.0","","51","","","","32","","34","","24.1","","99.25","","","","","","Snow Showers"
"-79.63","43.68","TORONTO INTL A","6158731","2021-04-22 17:00","2021","04","22","17:00","3.3","","-6.6","","48","","","","28","","35","","24.1","","99.29","","","","","","NA"
"-79.63","43.68","TORONTO INTL A","6158731","2021-04-22 18:00","2021","04","22","18:00","3.7","","-7.0","","45","","","","30","","28","","24.1","","99.32","","","","","","NA"
"-79.63","43.68","TORONTO INTL A","6158731","2021-04-22 19:00","2021","04","22","19:00","3.3","","-8.3","","43","","","","31","","28","","24.1","","99.34","","","","","","Mainly Clear"
"-79.63","43.68","TORONTO INTL A","6158731","2021-04-22 20:00","2021","04","22","20:00","2.6","","-8.0","","46","","","","30","","18","","24.1","","99.40","","","","","","NA"
"-79.63","43.68","TORONTO INTL A","6158731","2021-04-22 21:00","2021","04","22","21:00","-0.3","","-7.7","","58","","","","26","","13","","24.1","","99.46","","","","-4","","NA"
"-79.63","43.68","TORONTO INTL A","6158731","2021-04-22 22:00","2021","04","22","22:00","-0.1","","-7.3","","59","","","","25","","14","","24.1","","99.46","","","","-4","","Clear"
"-79.63","43.68","TORONTO INTL A","6158731","2021-04-22 23:00","2021","04","22","23:00","-0.2","","-7.0","","60","","","","24","","14","","24.1","","99.47","","","","-4","","NA"
"-79.63","43.68","TORONTO INTL A","6158731","2021-04-23 00:00","2021","04","23","00:00","-0.3","","-6.6","","62","","","","25","","17","","24.1","","99.49","","","","-5","","NA"
"-79.63","43.68","TORONTO INTL A","6158731","2021-04-23 01:00","2021","04","23","01:00","0.2","","-6.6","","60","","","","25","","19","","24.1","","99.47","","","","","","Clear"
"-79.63","43.68","TORONTO INTL A","6158731","2021-04-23 02:00","2021","04","23","02:00","-1.6","","-6.4","","70","","","","25","","11","","24.1","","99.43","","","","-5","","NA"
"-79.63","43.68","TORONTO INTL A","6158731","2021-04-23 03:00","2021","04","23","03:00","-1.2","","-6.2","","69","","","","25","","13","","24.1","","99.40","","","","-5","","NA"
"-79.63","43.68","TORONTO INTL A","6158731","2021-04-23 04:00","2021","04","23","04:00","-0.5","","-5.6","","69","","","","27","","5","","24.1","","99.37","","","","-2","","Clear"
"-79.63","43.68","TORONTO INTL A","6158731","2021-04-23 05:00","2021","04","23","05:00","-0.9","","-5.2","","73","","","","28","","14","","24.1","","99.39","","","","-5","","NA"
"-79.63","43.68","TORONTO INTL A","6158731","2021-04-23 06:00","2021","04","23","06:00","0.1","","-4.9","","69","","","","28","","11","","24.1","","99.43","","","","","","NA"
"-79.63","43.68","TORONTO INTL A","6158731","2021-04-23 07:00","2021","04","23","07:00","3.5","","-4.4","","56","","","","27","","12","","24.1","","99.48","","","","","","Clear"
"-79.63","43.68","TORONTO INTL A","6158731","2021-04-23 08:00","2021","04","23","08:00","7.0","","-4.5","","44","","","","26","","14","","24.1","","99.46","","","","","","NA"
"-79.63","43.68","TORONTO INTL A","6158731","2021-04-23 09:00","2021","04","23","09:00","9.4","","-4.8","","36","","","","26","","27","","24.1","","99.43","","","","","","NA"
"-79.63","43.68","TORONTO INTL A","6158731","2021-04-23 10:00","2021","04","23","10:00","11.9","","-3.5","","34","","","","26","","21","","24.1","","99.37","","","","","","Clear"
"-79.63","43.68","TORONTO INTL A","6158731","2021-04-23 11:00","2021","04","23","11:00","13.8","","-1.4","","35","","","","25","","29","","24.1","","99.32","","","","","","NA"
"-79.63","43.68","TORONTO INTL A","6158731","2021-04-23 12:00","2021","04","23","12:00","15.0","","-0.6","","34","","","","25","","17","","24.1","","99.23","","","","","","NA"
"-79.63","43.68","TORONTO INTL A","6158731","2021-04-23 13:00","2021","04","23","13:00","17.3","","0.5","","32","","","","24","","27","","24.1","","99.16","","","","","","Mainly Clear"
"-79.63","43.68","TORONTO INTL A","6158731","2021-04-23 14:00","2021","04","23","14:00","18.0","","-0.5","","28","","","","27","","30","","24.1","","99.12","","","","","","NA"
"-79.63","43.68","TORONTO INTL A","6158731","2021-04-23 15:00","2021","04","23","15:00","17.4","","-2.7","","25","","","","30","","41","","24.1","","99.07","","","","","","NA"
"-79.63","43.68","TORONTO INTL A","6158731","2021-04-23 16:00","2021","04","23","16:00","17.2","","-1.7","","27","","","","28","","41","","24.1","","99.08","","","","","","Mostly Cloudy"
"-79.63","43.68","TORONTO INTL A","6158731","2021-04-23 17:00","2021","04","23","17:00","17.0","","-2.3","","27","","","","28","","34","","24.1","","99.13","","","","","","NA"
"-79.63","43.68","TORONTO INTL A","6158731","2021-04-23 18:00","2021","04","23","18:00","16.6","","-2.0","","28","","","","27","","32","","24.1","","99.15","","","","","","NA"
"-79.63","43.68","TORONTO INTL A","6158731","2021-04-23 19:00","2021","04","23","19:00","14.6","","-2.8","","30","","","","27","","22","","24.1","","99.18","","","","","","Mainly Clear"
"-79.63","43.68","TORONTO INTL A","6158731","2021-04-23 20:00","2021","04","23","20:00","12.6","","-2.8","","34","","","","25","","18","","24.1","","99.25","","","","","","NA"
"-79.63","43.68","TORONTO INTL A","6158731","2021-04-23 21:00","2021","04","23","21:00","10.5","","-2.3","","41","","","","24","","14","","24.1","","99.29","","","","","","NA"
"-79.63","43.68","TORONTO INTL A","6158731","2021-04-23 22:00","2021","04","23","22:00","10.4","","1.2","","53","","","","24","","18","","24.1","","99.29","","","","","","Mostly Cloudy"
"-79.63","43.68","TORONTO INTL A","6158731","2021-04-23 23:00","2021","04","23","23:00","9.3","","0.7","","55","","","","25","","19","","24.1","","99.29","","","","","","NA"
"-79.63","43.68","TORONTO INTL A","6158731","2021-04-24 00:00","2021","04","24","00:00","9.3","","0.0","","52","","","","26","","19","","24.1","","99.30","","","","","","NA"
"-79.63","43.68","TORONTO INTL A","6158731","2021-04-24 01:00","2021","04","24","01:00","9.8","","0.0","","50","","","","27","","22","","24.1","","99.30","","","","","","Mostly Cloudy"
"-79.63","43.68","TORONTO INTL A","6158731","2021-04-24 02:00","2021","04","24","02:00","9.8","","-0.1","","50","","","","26","","19","","24.1","","99.32","","","","","","NA"
"-79.63","43.68","TORONTO INTL A","6158731","2021-04-24 03:00","2021","04","24","03:00","9.6","","-0.4","","50","","","","28","","21","","24.1","","99.33","","","","","","NA"
"-79.63","43.68","TORONTO INTL A","6158731","2021-04-24 04:00","2021","04","24","04:00","7.7","","-0.3","","57","","","","27","","18","","24.1","","99.36","","","","","","Mainly Clear"
"-79.63","43.68","TORONTO INTL A","6158731","2021-04-24 05:00","2021","04","24","05:00","6.9","","-0.3","","60","","","","30","","10","","24.1","","99.34","","","","","","NA"
"-79.63","43.68","TORONTO INTL A","6158731","2021-04-24 06:00","2021","04","24","06:00","7.0","","0.0","","61","","","","29","","10","","24.1","","99.38","","","","","","NA"
"-79.63","43.68","TORONTO INTL A","6158731","2021-04-24 07:00","2021","04","24","07:00","9.1","","1.0","","57","","","","29","","8","","24.1","","99.40","","","","","","Clear"
"-79.63","43.68","TORONTO INTL A","6158731","2021-04-24 08:00","2021","04","24","08:00","11.7","","-0.4","","43","","","","28","","4","","24.1","","99.41","","","","","","NA"
"-79.63","43.68","TORONTO INTL A","6158731","2021-04-24 09:00","2021","04","24","09:00","14.4","","-1.2","","34","","","","25","","10","","24.1","","99.42","","","","","","NA"
"-79.63","43.68","TORONTO INTL A","6158731","2021-04-24 10:00","2021","04","24","10:00","16.0","","0.0","","33","","","","25","","10","","24.1","","99.39","","","","","","Clear"
"-79.63","43.68","TORONTO INTL A","6158731","2021-04-24 11:00","2021","04","24","11:00","16.8","","1.3","","35","","","","25","","18","","24.1","","99.33","","","","","","NA"
"-79.63","43.68","TORONTO INTL A","6158731","2021-04-24 12:00","2021","04","24","12:00","15.1","","0.1","","36","","","","16","","25","","24.1","","99.26","","","","","","NA"
"-79.63","43.68","TORONTO INTL A","6158731","2021-04-24 13:00","2021","04","24","13:00","16.4","","1.6","","36","","","","17","","19","","24.1","","99.18","","","","","","Mostly Cloudy"
"-79.63","43.68","TORONTO INTL A","6158731","2021-04-24 14:00","2021","04","24","14:00","16.5","","1.5","","36","","","","16","","21","","24.1","","99.10","","","","","","NA"
"-79.63","43.68","TORONTO INTL A","6158731","2021-04-24 15:00","2021","04","24","15:00","16.4","","1.4","","36","","","","16","","17","","24.1","","99.00","","","","","","NA"
"-79.63","43.68","TORONTO INTL A","6158731","2021-04-24 16:00","2021","04","24","16:00","15.9","","0.0","","34","","","","16","","27","","24.1","","98.96","","","","","","Cloudy"
"-79.63","43.68","TORONTO INTL A","6158731","2021-04-24 17:00","2021","04","24","17:00","15.2","","-0.2","","35","","","","17","","19","","24.1","","98.93","","","","","","NA"
"-79.63","43.68","TORONTO INTL A","6158731","2021-04-24 18:00","2021","04","24","18:00","15.3","","0.3","","36","","","","19","","16","","24.1","","98.89","","","","","","NA"
"-79.63","43.68","TORONTO INTL A","6158731","2021-04-24 19:00","2021","04","24","19:00","14.7","","-1.0","","34","","","","21","","15","","24.1","","98.82","","","","","","Mostly Cloudy"
"-79.63","43.68","TORONTO INTL A","6158731","2021-04-24 20:00","2021","04","24","20:00","12.8","","-0.7","","39","","","","24","","9","","24.1","","98.81","","","","","","NA"
"-79.63","43.68","TORONTO INTL A","6158731","2021-04-24 21:00","2021","04","24","21:00","11.9","","-0.5","","42","","","","24","","7","","24.1","","98.82","","","","","","NA"
"-79.63","43.68","TORONTO INTL A","6158731","2021-04-24 22:00","2021","04","24","22:00","12.1","","-0.3","","42","","","","24","","11","","24.1","","98.78","","","","","","Mostly Cloudy"
"-79.63","43.68","TORONTO INTL A","6158731","2021-04-24 23:00","2021","04","24","23:00","11.2","","1.2","","50","","","","25","","9","","24.1","","98.77","","","","","","NA"
"-79.63","43.68","TORONTO INTL A","6158731","2021-04-25 00:00","2021","04","25","00:00","11.2","","2.5","","55","","","","24","","12","","24.1","","98.75","","","","","","NA"
"-79.63","43.68","TORONTO INTL A","6158731","2021-04-25 01:00","2021","04","25","01:00","11.2","","2.6","","55","","","","26","","16","","24.1","","98.69","","","","","","Cloudy"
"-79.63","43.68","TORONTO INTL A","6158731","2021-04-25 02:00","2021","04","25","02:00","10.7","","3.5","","61","","","","27","","11","","24.1","","98.64","","","","","","Rain"
"-79.63","43.68","TORONTO INTL A","6158731","2021-04-25 03:00","2021","04","25","03:00","10.0","","4.8","","70","","","","25","","8","","16.1","","98.64","","","","","","Rain"
"-79.63","43.68","TORONTO INTL A","6158731","2021-04-25 04:00","2021","04","25","04:00","9.8","","5.6","","75","","","","23","","10","","19.3","","98.63","","","","","","Rain"
"-79.63","43.68","TORONTO INTL A","6158731","2021-04-25 05:00","2021","04","25","05:00","9.2","","6.6","","83","","","","25","","12","","16.1","","98.64","","","","","","NA"
"-79.63","43.68","TORONTO INTL A","6158731","2021-04-25 06:00","2021","04","25","06:00","9.0","","7.3","","89","","","","27","","16","","16.1","","98.67","","","","","","NA"
"-79.63","43.68","TORONTO INTL A","6158731","2021-04-25 07:00","2021","04","25","07:00","9.1","","8.3","","95","","","","27","","12","","12.9","","98.73","","","","","","Cloudy"
"-79.63","43.68","TORONTO INTL A","6158731","2021-04-25 08:00","2021","04","25","08:00","9.8","","8.0","","89","","","","31","","18","","19.3","","98.77","","","","","","NA"
"-79.63","43.68","TORONTO INTL A","6158731","2021-04-25 09:00","2021","04","25","09:00","9.5","","5.5","","76","","","","29","","30","","24.1","","98.83","","","","","","NA"
"-79.63","43.68","TORONTO INTL A","6158731","2021-04-25 10:00","2021","04","25","10:00","9.4","","4.7","","72","","","","30","","28","","24.1","","98.90","","","","","","Cloudy"
"-79.63","43.68","TORONTO INTL A","6158731","2021-04-25 11:00","2021","04","25","11:00","9.6","","3.5","","65","","","","30","","27","","24.1","","98.95","","","","","","NA"
"-79.63","43.68","TORONTO INTL A","6158731","2021-04-25 12:00","2021","04","25","12:00","9.0","","1.2","","58","","","","31","","36","","24.1","","99.03","","","","","","NA"
"-79.63","43.68","TORONTO INTL A","6158731","2021-04-25 13:00","2021","04","25","13:00","7.5","","-0.6","","56","","","","31","","36","","24.1","","99.09","","","","","","Mostly Cloudy"
"-79.63","43.68","TORONTO INTL A","6158731","2021-04-25 14:00","2021","04","25","14:00","7.9","","-1.0","","53","","","","29","","38","","24.1","","99.16","","","","","","NA"
"-79.63","43.68","TORONTO INTL A","6158731","2021-04-25 15:00","2021","04","25","15:00","7.2","","-1.7","","53","","","","29","","41","","24.1","","99.24","","","","","","NA"
"-79.63","43.68","TORONTO INTL A","6158731","2021-04-25 16:00","2021","04","25","16:00","6.4","","-2.4","","53","","","","31","","40","","24.1","","99.30","","","","","","Mostly Cloudy"
"-79.63","43.68","TORONTO INTL A","6158731","2021-04-25 17:00","2021","04","25","17:00","4.5","","-2.6","","60","","","","30","","41","","24.1","","99.41","","","","","","NA"
"-79.63","43.68","TORONTO INTL A","6158731","2021-04-25 18:00","2021","04","25","18:00","3.8","","-3.8","","57","","","","30","","39","","24.1","","99.53","","","","","","NA"
"-79.63","43.68","TORONTO INTL A","6158731","2021-04-25 19:00","2021","04","25","19:00","3.3","","-3.6","","61","","","","31","","32","","24.1","","99.62","","","","","","Cloudy"
"-79.63","43.68","TORONTO INTL A","6158731","2021-04-25 20:00","2021","04","25","20:00","2.4","","-4.1","","62","","","","34","","19","","24.1","","99.74","","","","","","NA"
"-79.63","43.68","TORONTO INTL A","6158731","2021-04-25 21:00","2021","04","25","21:00","2.2","","-5.8","","56","","","","32","","32","","24.1","","99.81","","","","","","NA"
"-79.63","43.68","TORONTO INTL A","6158731","2021-04-25 22:00","2021","04","25","22:00","1.7","","-6.1","","56","","","","33","","28","","24.1","","99.84","","","","","","Mostly Cloudy"
"-79.63","43.68","TORONTO INTL A","6158731","2021-04-25 23:00","2021","04","25","23:00","1.6","","-6.3","","56","","","","34","","31","","24.1","","99.88","","","","","","NA"
"-79.63","43.68","TORONTO INTL A","6158731","2021-04-26 00:00","2021","04","26","00:00","1.4","","-6.4","","56","","","","34","","23","","24.1","","99.90","","","","","","NA"
"-79.63","43.68","TORONTO INTL A","6158731","2021-04-26 01:00","2021","04","26","01:00","1.0","","-6.8","","56","","","","32","","32","","24.1","","99.96","","","","","","Mostly Cloudy"
"-79.63","43.68","TORONTO INTL A","6158731","2021-04-26 02:00","2021","04","26","02:00","1.0","","-6.5","","58","","","","32","","31","","24.1","","99.98","","","","","","NA"
"-79.63","43.68","TORONTO INTL A","6158731","2021-04-26 03:00","2021","04","26","03:00","0.1","","-7.3","","58","","","","35","","23","","24.1","","100.06","","","","","","NA"
"-79.63","43.68","TORONTO INTL A","6158731","2021-04-26 04:00","2021","04","26","04:00","0.0","","-7.2","","58","","","","34","","26","","24.1","","100.08","","","","-6","","Clear"
"-79.63","43.68","TORONTO INTL A","6158731","2021-04-26 05:00","2021","04","26","05:00","-0.5","","-7.2","","61","","","","35","","21","","24.1","","100.12","","","","-6","","NA"
"-79.63","43.68","TORONTO INTL A","6158731","2021-04-26 06:00","2021","04","26","06:00","-0.5","","-7.4","","60","","","","36","","19","","24.1","","100.21","","","","-6","","NA"
"-79.63","43.68","TORONTO INTL A","6158731","2021-04-26 07:00","2021","04","26","07:00","0.5","","-7.3","","56","","","","1","","23","","24.1","","100.28","","","","","","Clear"
"-79.63","43.68","TORONTO INTL A","6158731","2021-04-26 08:00","2021","04","26","08:00","2.1","","-7.2","","51","","","","34","","22","","24.1","","100.32","","","","","","NA"
"-79.63","43.68","TORONTO INTL A","6158731","2021-04-26 09:00","2021","04","26","09:00","2.8","","-6.8","","49","","","","2","","15","","24.1","","100.32","","","","","","NA"
"-79.63","43.68","TORONTO INTL A","6158731","2021-04-26 10:00","2021","04","26","10:00","4.1","","-7.3","","43","","","","31","","7","","24.1","","100.31","","","","","","Mainly Clear"
"-79.63","43.68","TORONTO INTL A","6158731","2021-04-26 11:00","2021","04","26","11:00","5.9","","-7.6","","38","","","","4","","7","","24.1","","100.31","","","","","","NA"
"-79.63","43.68","TORONTO INTL A","6158731","2021-04-26 12:00","2021","04","26","12:00","7.2","","-7.4","","35","","","","29","","4","","24.1","","100.29","","","","","","NA"
"-79.63","43.68","TORONTO INTL A","6158731","2021-04-26 13:00","2021","04","26","13:00","8.8","","-11.0","","23","","","","26","","11","","24.1","","100.16","","","","","","Mainly Clear"
"-79.63","43.68","TORONTO INTL A","6158731","2021-04-26 14:00","2021","04","26","14:00","8.0","","-4.6","","40","","","","15","","17","","24.1","","100.08","","","","","","NA"
"-79.63","43.68","TORONTO INTL A","6158731","2021-04-26 15:00","2021","04","26","15:00","8.2","","-5.7","","37","","","","17","","12","","24.1","","100.06","","","","","","NA"
"-79.63","43.68","TORONTO INTL A","6158731","2021-04-26 16:00","2021","04","26","16:00","7.9","","-5.4","","39","","","","16","","16","","24.1","","99.98","","","","","","Mostly Cloudy"
"-79.63","43.68","TORONTO INTL A","6158731","2021-04-26 17:00","2021","04","26","17:00","7.8","","-8.1","","31","","","","18","","16","","24.1","","100.00","","","","","","NA"
"-79.63","43.68","TORONTO INTL A","6158731","2021-04-26 18:00","2021","04","26","18:00","6.6","","-8.5","","33","","","","15","","10","","24.1","","99.93","","","","","","NA"
"-79.63","43.68","TORONTO INTL A","6158731","2021-04-26 19:00","2021","04","26","19:00","6.7","","-8.6","","33","","","","16","","12","","24.1","","99.82","","","","","","Cloudy"
"-79.63","43.68","TORONTO INTL A","6158731","2021-04-26 20:00","2021","04","26","20:00","6.5","","-10.2","","29","","","","17","","7","","24.1","","99.86","","","","","","NA"
"-79.63","43.68","TORONTO INTL A","6158731","2021-04-26 21:00","2021","04","26","21:00","6.6","","-8.2","","34","","","","12","","8","","24.1","","99.77","","","","","","NA"
"-79.63","43.68","TORONTO INTL A","6158731","2021-04-26 22:00","2021","04","26","22:00","6.4","","-4.8","","44","","","","12","","6","","24.1","","99.80","","","","","","Rain"
"-79.63","43.68","TORONTO INTL A","6158731","2021-04-26 23:00","2021","04","26","23:00","5.0","","-3.3","","55","","","","5","","9","","16.1","","99.86","","","","","","Rain"
"-79.63","43.68","TORONTO INTL A","6158731","2021-04-27 00:00","2021","04","27","00:00","4.8","","-1.3","","65","","","","4","","14","","24.1","","99.85","","","","","","NA"
"-79.63","43.68","TORONTO INTL A","6158731","2021-04-27 01:00","2021","04","27","01:00","4.9","","-1.6","","63","","","","9","","7","","24.1","","99.78","","","","","","Cloudy"
"-79.63","43.68","TORONTO INTL A","6158731","2021-04-27 02:00","2021","04","27","02:00","4.8","","-1.4","","64","","","","9","","8","","24.1","","99.69","","","","","","NA"
"-79.63","43.68","TORONTO INTL A","6158731","2021-04-27 03:00","2021","04","27","03:00","5.3","","-2.6","","57","","","","9","","8","","24.1","","99.62","","","","","","NA"
"-79.63","43.68","TORONTO INTL A","6158731","2021-04-27 04:00","2021","04","27","04:00","5.8","","-3.3","","52","","","","11","","11","","24.1","","99.56","","","","","","Cloudy"
"-79.63","43.68","TORONTO INTL A","6158731","2021-04-27 05:00","2021","04","27","05:00","5.4","","-4.1","","50","","","","11","","14","","24.1","","99.52","","","","","","NA"
"-79.63","43.68","TORONTO INTL A","6158731","2021-04-27 06:00","2021","04","27","06:00","5.8","","-4.5","","48","","","","9","","14","","24.1","","99.53","","","","","","NA"
"-79.63","43.68","TORONTO INTL A","6158731","2021-04-27 07:00","2021","04","27","07:00","6.3","","-5.0","","44","","","","7","","12","","24.1","","99.50","","","","","","Mostly Cloudy"
"-79.63","43.68","TORONTO INTL A","6158731","2021-04-27 08:00","2021","04","27","08:00","7.6","","-5.0","","41","","","","9","","20","","24.1","","99.45","","","","","","NA"
"-79.63","43.68","TORONTO INTL A","6158731","2021-04-27 09:00","2021","04","27","09:00","8.8","","-4.4","","39","","","","8","","13","","24.1","","99.44","","","","","","NA"
"-79.63","43.68","TORONTO INTL A","6158731","2021-04-27 10:00","2021","04","27","10:00","10.7","","-1.0","","44","","","","10","","16","","24.1","","99.36","","","","","","Mainly Clear"
"-79.63","43.68","TORONTO INTL A","6158731","2021-04-27 11:00","2021","04","27","11:00","11.2","","-1.7","","41","","","","10","","22","","24.1","","99.32","","","","","","NA"
"-79.63","43.68","TORONTO INTL A","6158731","2021-04-27 12:00","2021","04","27","12:00","11.6","","-1.3","","41","","","","11","","22","","24.1","","99.28","","","","","","NA"
"-79.63","43.68","TORONTO INTL A","6158731","2021-04-27 13:00","2021","04","27","13:00","12.6","","1.2","","45","","","","8","","9","","24.1","","99.25","","","","","","Mostly Cloudy"
"-79.63","43.68","TORONTO INTL A","6158731","2021-04-27 14:00","2021","04","27","14:00","12.7","","1.6","","47","","","","14","","10","","24.1","","99.21","","","","","","NA"
"-79.63","43.68","TORONTO INTL A","6158731","2021-04-27 15:00","2021","04","27","15:00","12.5","","0.8","","44","","","","12","","14","","24.1","","99.14","","","","","","NA"
"-79.63","43.68","TORONTO INTL A","6158731","2021-04-27 16:00","2021","04","27","16:00","11.6","","0.6","","46","","","","9","","11","","24.1","","99.06","","","","","","Cloudy"
"-79.63","43.68","TORONTO INTL A","6158731","2021-04-27 17:00","2021","04","27","17:00","11.6","","-0.5","","43","","","","14","","13","","24.1","","99.05","","","","","","NA"
"-79.63","43.68","TORONTO INTL A","6158731","2021-04-27 18:00","2021","04","27","18:00","10.4","","-1.8","","42","","","","11","","17","","24.1","","99.00","","","","","","NA"
"-79.63","43.68","TORONTO INTL A","6158731","2021-04-27 19:00","2021","04","27","19:00","9.4","","0.7","","54","","","","9","","9","","24.1","","99.04","","","","","","Cloudy"
"-79.63","43.68","TORONTO INTL A","6158731","2021-04-27 20:00","2021","04","27","20:00","9.4","","0.5","","54","","","","6","","9","","16.1","","99.05","","","","","","Rain Showers"
"-79.63","43.68","TORONTO INTL A","6158731","2021-04-27 21:00","2021","04","27","21:00","8.7","","3.4","","69","","","","3","","17","","24.1","","99.10","","","","","","Rain"
"-79.63","43.68","TORONTO INTL A","6158731","2021-04-27 22:00","2021","04","27","22:00","8.2","","3.0","","70","","","","7","","11","","9.7","","99.09","","","","","","Thunderstorms,Rain Showers"
"-79.63","43.68","TORONTO INTL A","6158731","2021-04-27 23:00","2021","04","27","23:00","8.9","","4.0","","71","","","","36","","3","","24.1","","99.12","","","","","","NA"
"-79.63","43.68","TORONTO INTL A","6158731","2021-04-28 00:00","2021","04","28","00:00","9.5","","4.3","","70","","","","1","","7","","24.1","","99.14","","","","","","NA"
"-79.63","43.68","TORONTO INTL A","6158731","2021-04-28 01:00","2021","04","28","01:00","9.4","","5.7","","78","","","","5","","4","","24.1","","99.09","","","","","","Cloudy"
"-79.63","43.68","TORONTO INTL A","6158731","2021-04-28 02:00","2021","04","28","02:00","9.3","","6.4","","82","","","","7","","5","","24.1","","99.05","","","","","","Rain"
"-79.63","43.68","TORONTO INTL A","6158731","2021-04-28 03:00","2021","04","28","03:00","9.3","","7.0","","85","","","","5","","6","","24.1","","99.01","","","","","","NA"
"-79.63","43.68","TORONTO INTL A","6158731","2021-04-28 04:00","2021","04","28","04:00","9.2","","6.8","","85","","","","8","","8","","24.1","","98.99","","","","","","Mostly Cloudy"
"-79.63","43.68","TORONTO INTL A","6158731","2021-04-28 05:00","2021","04","28","05:00","8.6","","7.1","","90","","","","11","","6","","24.1","","98.98","","","","","","NA"
"-79.63","43.68","TORONTO INTL A","6158731","2021-04-28 06:00","2021","04","28","06:00","9.2","","7.0","","86","","","","9","","11","","24.1","","98.99","","","","","","NA"
"-79.63","43.68","TORONTO INTL A","6158731","2021-04-28 07:00","2021","04","28","07:00","10.2","","7.3","","82","","","","14","","10","","24.1","","99.02","","","","","","Mostly Cloudy"
"-79.63","43.68","TORONTO INTL A","6158731","2021-04-28 08:00","2021","04","28","08:00","10.7","","7.5","","81","","","","14","","19","","24.1","","98.93","","","","","","NA"
"-79.63","43.68","TORONTO INTL A","6158731","2021-04-28 09:00","2021","04","28","09:00","11.1","","7.8","","80","","","","6","","12","","24.1","","98.84","","","","","","NA"
"-79.63","43.68","TORONTO INTL A","6158731","2021-04-28 10:00","2021","04","28","10:00","11.7","","7.8","","77","","","","7","","13","","24.1","","98.95","","","","","","Cloudy"
"-79.63","43.68","TORONTO INTL A","6158731","2021-04-28 11:00","2021","04","28","11:00","10.1","","9.3","","95","","","","12","","16","","16.1","","98.80","","","","","","Rain Showers"
"-79.63","43.68","TORONTO INTL A","6158731","2021-04-28 12:00","2021","04","28","12:00","10.2","","9.8","","97","","","","15","","12","","9.7","","98.85","","","","","","Rain,Fog"
"-79.63","43.68","TORONTO INTL A","6158731","2021-04-28 13:00","2021","04","28","13:00","10.5","","9.9","","96","","","","13","","6","","9.7","","98.84","","","","","","Rain,Fog"
"-79.63","43.68","TORONTO INTL A","6158731","2021-04-28 14:00","2021","04","28","14:00","13.1","","11.4","","89","","","","9","","9","","12.9","","98.77","","","","","","NA"
"-79.63","43.68","TORONTO INTL A","6158731","2021-04-28 15:00","2021","04","28","15:00","14.8","","11.3","","79","","","","2","","3","","24.1","","98.75","","","","","","NA"
"-79.63","43.68","TORONTO INTL A","6158731","2021-04-28 16:00","2021","04","28","16:00","16.1","","11.1","","72","","","","18","","5","","16.1","","98.72","","","","","","Cloudy"
"-79.63","43.68","TORONTO INTL A","6158731","2021-04-28 17:00","2021","04","28","17:00","17.0","","11.8","","71","","","","2","","7","","24.1","","98.75","","","","","","NA"
"-79.63","43.68","TORONTO INTL A","6158731","2021-04-28 18:00","2021","04","28","18:00","16.7","","12.0","","73","","","","1","","8","","16.1","","98.79","","","","","","NA"
"-79.63","43.68","TORONTO INTL A","6158731","2021-04-28 19:00","2021","04","28","19:00","15.0","","12.1","","82","","","","1","","20","","12.9","","98.83","","","","","","Mostly Cloudy"
"-79.63","43.68","TORONTO INTL A","6158731","2021-04-28 20:00","2021","04","28","20:00","9.6","","7.9","","89","","","","17","","12","","12.9","","98.95","","","","","","NA"
"-79.63","43.68","TORONTO INTL A","6158731","2021-04-28 21:00","2021","04","28","21:00","10.1","","8.8","","91","","","","12","","10","","9.7","","98.99","","","","","","Fog"
"-79.63","43.68","TORONTO INTL A","6158731","2021-04-28 22:00","2021","04","28","22:00","9.0","","8.9","","100","","","","12","","8","","3.6","","98.98","","","","","","Fog"
"-79.63","43.68","TORONTO INTL A","6158731","2021-04-28 23:00","2021","04","28","23:00","9.0","","9.0","","100","","","","13","","5","","0.8","","98.98","","","","","","Fog"
"-79.63","43.68","TORONTO INTL A","6158731","2021-04-29 00:00","2021","04","29","00:00","9.2","","9.2","","100","","","","11","","7","","1.2","","98.94","","","","","","Drizzle,Fog"
"-79.63","43.68","TORONTO INTL A","6158731","2021-04-29 01:00","2021","04","29","01:00","9.0","","9.0","","100","","","","13","","4","","1.6","","98.92","","","","","","Drizzle,Fog"
"-79.63","43.68","TORONTO INTL A","6158731","2021-04-29 02:00","2021","04","29","02:00","8.8","","8.8","","100","","","","8","","8","","1.6","","98.95","","","","","","Drizzle,Fog"
"-79.63","43.68","TORONTO INTL A","6158731","2021-04-29 03:00","2021","04","29","03:00","8.8","","8.8","","100","","","","8","","10","","2.4","","98.83","","","","","","Fog"
"-79.63","43.68","TORONTO INTL A","6158731","2021-04-29 04:00","2021","04","29","04:00","8.8","","8.8","","100","","","","13","","5","","4.0","","98.86","","","","","","Fog"
"-79.63","43.68","TORONTO INTL A","6158731","2021-04-29 05:00","2021","04","29","05:00","8.6","","8.6","","100","","","","21","","6","","2.4","","98.86","","","","","","Drizzle,Fog"
"-79.63","43.68","TORONTO INTL A","6158731","2021-04-29 06:00","2021","04","29","06:00","8.5","","8.5","","100","","","","36","","1","","2.4","","98.90","","","","","","Fog"
"-79.63","43.68","TORONTO INTL A","6158731","2021-04-29 07:00","2021","04","29","07:00","8.5","","8.5","","100","","","","13","","6","","0.8","","98.79","","","","","","Fog"
"-79.63","43.68","TORONTO INTL A","6158731","2021-04-29 08:00","2021","04","29","08:00","8.5","","8.5","","100","","","","11","","5","","1.6","","98.75","","","","","","Fog"
"-79.63","43.68","TORONTO INTL A","6158731","2021-04-29 09:00","2021","04","29","09:00","8.7","","8.3","","98","","","","14","","10","","2.8","","98.70","","","","","","Fog"
"-79.63","43.68","TORONTO INTL A","6158731","2021-04-29 10:00","2021","04","29","10:00","8.1","","8.0","","99","","","","13","","10","","2.4","","98.63","","","","","","Rain,Fog"
"-79.63","43.68","TORONTO INTL A","6158731","2021-04-29 11:00","2021","04","29","11:00","8.4","","8.1","","98","","","","7","","7","","4.8","","98.61","","","","","","Rain,Fog"
"-79.63","43.68","TORONTO INTL A","6158731","2021-04-29 12:00","2021","04","29","12:00","9.5","","8.9","","96","","","","3","","10","","8.1","","98.54","","","","","","Rain,Fog"
"-79.63","43.68","TORONTO INTL A","6158731","2021-04-29 13:00","2021","04","29","13:00","9.9","","9.1","","95","","","","3","","10","","8.1","","98.45","","","","","","Rain,Fog"
"-79.63","43.68","TORONTO INTL A","6158731","2021-04-29 14:00","2021","04","29","14:00","10.1","","9.2","","95","","","","7","","4","","9.7","","98.30","","","","","","Rain,Fog"
"-79.63","43.68","TORONTO INTL A","6158731","2021-04-29 15:00","2021","04","29","15:00","10.3","","10.0","","98","","","","17","","5","","8.1","","98.25","","","","","","Rain,Fog"
"-79.63","43.68","TORONTO INTL A","6158731","2021-04-29 16:00","2021","04","29","16:00","10.5","","9.6","","94","","","","33","","9","","9.7","","98.24","","","","","","Rain,Fog"
"-79.63","43.68","TORONTO INTL A","6158731","2021-04-29 17:00","2021","04","29","17:00","10.7","","9.6","","93","","","","30","","12","","9.7","","98.25","","","","","","Rain,Fog"
"-79.63","43.68","TORONTO INTL A","6158731","2021-04-29 18:00","2021","04","29","18:00","10.7","","10.0","","96","","","","32","","8","","9.7","","98.22","","","","","","Rain,Fog"
"-79.63","43.68","TORONTO INTL A","6158731","2021-04-29 19:00","2021","04","29","19:00","10.4","","10.3","","99","","","","24","","4","","12.9","","98.24","","","","","","Rain"
"-79.63","43.68","TORONTO INTL A","6158731","2021-04-29 20:00","2021","04","29","20:00","10.4","","10.4","","100","","","","25","","8","","9.7","","98.23","","","","","","Rain,Fog"
"-79.63","43.68","TORONTO INTL A","6158731","2021-04-29 21:00","2021","04","29","21:00","10.8","","10.7","","100","","","","31","","12","","9.7","","98.27","","","","","","Rain,Fog"
"-79.63","43.68","TORONTO INTL A","6158731","2021-04-29 22:00","2021","04","29","22:00","10.3","","9.7","","96","","","","28","","22","","9.7","","98.25","","","","","","Rain,Fog"
"-79.63","43.68","TORONTO INTL A","6158731","2021-04-29 23:00","2021","04","29","23:00","8.8","","7.0","","88","","","","29","","27","","9.7","","98.25","","","","","","Rain,Fog"
"-79.63","43.68","TORONTO INTL A","6158731","2021-04-30 00:00","2021","04","30","00:00","8.6","","5.8","","83","","","","30","","29","","24.1","","98.23","","","","","","NA"
"-79.63","43.68","TORONTO INTL A","6158731","2021-04-30 01:00","2021","04","30","01:00","8.1","","5.7","","85","","","","29","","22","","24.1","","98.21","","","","","","Mostly Cloudy"
"-79.63","43.68","TORONTO INTL A","6158731","2021-04-30 02:00","2021","04","30","02:00","7.8","","5.4","","85","","","","28","","18","","24.1","","98.19","","","","","","NA"
"-79.63","43.68","TORONTO INTL A","6158731","2021-04-30 03:00","2021","04","30","03:00","8.6","","4.8","","77","","","","30","","27","","24.1","","98.19","","","","","","NA"
"-79.63","43.68","TORONTO INTL A","6158731","2021-04-30 04:00","2021","04","30","04:00","7.7","","4.8","","82","","","","28","","29","","24.1","","98.20","","","","","","Mostly Cloudy"
"-79.63","43.68","TORONTO INTL A","6158731","2021-04-30 05:00","2021","04","30","05:00","7.0","","4.3","","83","","","","29","","34","","24.1","","98.19","","","","","","NA"
"-79.63","43.68","TORONTO INTL A","6158731","2021-04-30 06:00","2021","04","30","06:00","6.5","","4.0","","84","","","","29","","34","","24.1","","98.22","","","","","","NA"
"-79.63","43.68","TORONTO INTL A","6158731","2021-04-30 07:00","2021","04","30","07:00","6.7","","4.0","","83","","","","30","","39","","24.1","","98.28","","","","","","Mostly Cloudy"
"-79.63","43.68","TORONTO INTL A","6158731","2021-04-30 08:00","2021","04","30","08:00","7.5","","4.1","","79","","","","29","","43","","24.1","","98.30","","","","","","NA"
"-79.63","43.68","TORONTO INTL A","6158731","2021-04-30 09:00","2021","04","30","09:00","7.8","","3.5","","74","","","","29","","45","","24.1","","98.37","","","","","","NA"
"-79.63","43.68","TORONTO INTL A","6158731","2021-04-30 10:00","2021","04","30","10:00","7.1","","2.9","","74","","","","30","","41","","24.1","","98.44","","","","","","Cloudy"
"-79.63","43.68","TORONTO INTL A","6158731","2021-04-30 11:00","2021","04","30","11:00","7.4","","2.0","","68","","","","31","","48","","24.1","","98.49","","","","","","NA"
"-79.63","43.68","TORONTO INTL A","6158731","2021-04-30 12:00","2021","04","30","12:00","8.3","","1.7","","63","","","","30","","46","","24.1","","98.54","","","","","","NA"
"-79.63","43.68","TORONTO INTL A","6158731","2021-04-30 13:00","2021","04","30","13:00","7.8","","0.6","","60","","","","30","","54","","24.1","","98.63","","","","","","Mostly Cloudy"
"-79.63","43.68","TORONTO INTL A","6158731","2021-04-30 14:00","2021","04","30","14:00","7.4","","-0.2","","59","","","","31","","51","","24.1","","98.72","","","","","","NA"
"-79.63","43.68","TORONTO INTL A","6158731","2021-04-30 15:00","2021","04","30","15:00","6.0","","-0.2","","64","","","","31","","45","","24.1","","98.83","","","","","","Rain"
"-79.63","43.68","TORONTO INTL A","6158731","2021-04-30 16:00","2021","04","30","16:00","7.1","","-3.1","","48","","","","33","","56","","24.1","","98.89","","","","","","Mostly Cloudy"
"-79.63","43.68","TORONTO INTL A","6158731","2021-04-30 17:00","2021","04","30","17:00","7.9","","-3.0","","46","","","","31","","46","","24.1","","98.96","","","","","","NA"
"-79.63","43.68","TORONTO INTL A","6158731","2021-04-30 18:00","2021","04","30","18:00","6.7","","-4.4","","45","","","","33","","50","","24.1","","99.07","","","","","","NA"
"-79.63","43.68","TORONTO INTL A","6158731","2021-04-30 19:00","2021","04","30","19:00","5.9","","-1.7","","58","","","","31","","43","","24.1","","99.15","","","","","","Mostly Cloudy"
"-79.63","43.68","TORONTO INTL A","6158731","2021-04-30 20:00","2021","04","30","20:00","6.1","","-1.9","","57","","","","30","","43","","24.1","","99.20","","","","","","NA"
"-79.63","43.68","TORONTO INTL A","6158731","2021-04-30 21:00","2021","04","30","21:00","6.3","","-2.0","","55","","","","31","","36","","24.1","","99.27","","","","","","NA"
"-79.63","43.68","TORONTO INTL A","6158731","2021-04-30 22:00","2021","04","30","22:00","5.5","","-2.5","","56","","","","30","","30","","24.1","","99.31","","","","","","Mainly Clear"
"-79.63","43.68","TORONTO INTL A","6158731","2021-04-30 23:00","2021","04","30","23:00","4.7","","-2.6","","59","","","","31","","30","","24.1","","99.35","","","","","","NA"
